"id","nom","visuel","raison_sociale","adresse1","adresse2","adresse3","code_postal","ville","latitude","longitude","SIRET","APE","RCS","agence_CTRB","licence_agrement","tel_fixe","tel_mobile","fax","email","site_web","resa_directe","type_hotel","categorie","nb_chambre_pref","nb_chambre_dispo_location","nb_chambre","nb_chambre_familiales","nb_suites","nb_chambre_pers_mobilite_reduite","nb_salle_reunion","label","chaine","description","ouverture","langue","animaux_acceptes","resa_derniere_minute","parking_autocars","groupes_acceptes","groupe_nb_mini","groupe_nb_maxi","gratuite_groupes","commissionnement_agence_voyages","mode_paiement","confort","equipement","service","activites","description_animations","tarif_mini_chambre_double_hors_petit_dej","tarif_maxi_chambre_double_hors_petit_dej","tarif_mini_chambre_familiale","tarif_maxi_chambre_familiale","tarif_mini_suite","tarif_maxi_suite","tarif_mini_petit_dej","tarif_maxi_petit_dej","tarif_mini_demi_pension","tarif_maxi_demi_pension","tarif_mini_VRP_diner_petit_dej","tarif_maxi_VRP_diner_petit_dej","tarif_mini_groupe_chambre_double_petit_dej","tarif_maxi_groupe_chambre_double_petit_dej","tarif_mini_groupe_demi_pension","tarif_maxi_groupe_demi_pension"
"1","Appart'City",,"Appart'City","23, rue Victor Hugo",,,"71100","Chalon-sur-Saône","46,752696","4,8440036",,,,,,"03 85 42 72 00",,"03 85 42 74 01","mailto: chalon-sur-saone@appartcity.com","http://www.appartcity.com","http://www.appartcity.com/apparthotel/reservation-en-ligne.htm?FSTBKNGTrackLink=SITE-BTRESID&Hotelnames=58","Résidence de Tourisme, Hôtels","3 étoiles (résidence de tourisme), 3 étoiles (nouveau classement)",,,"0",,,,,,,"Situé en centre-ville, Appart'City est doté de 78 appartements pouvant accueillir d'1 à 6 personnes : 65 studios 2 personnes, 7 grands studios 3 personnes, 4 appartements 2 pièces pour 4 personnes et 2 appartements 3 pièces pour 6 personnes.",,,,,,,,,,,,,,,,,,,"0","0",,,,,,,,,,,,
"2","Appart'Hôtel Le Cours Moreau","http://www.bourgogne-du-sud.com/images/bdd/photos/100083/1/177358.jpg","Appart'Hôtel Le Cours Moreau","7, cours Moreau",,,"71000","Mâcon","46,3092339","4,8334952","421 037 029 00053","6820 B",,,,"03 85 21 52 00",,"03 85 39 31 12","mailto: contact-macon@residences-apparthotel.com","http://www.residences-apparthotel.com","http://www.macon.residences-apparthotel.com","Résidence de Tourisme, Hôtels","2 étoiles",,"60.0","60","4.0",,"3.0",,,,"Située tout proche du centre ville, de la gare SNCF Mâcon Ville, du Parc des Expositions, des centres commerciaux et des principaux établissements d'enseignement supérieur, la résidence vous accueille pour vos séjours privés ou professionnels en location à la nuitée, à la semaine ou au mois. La résidence est composée de 60 appartements, du studio de 16 m² au T2 de 35 m². Pour votre confort, tous les appartements sont meublés : lit, bureau, table, chaises, placard, kitchenette équipée (vaisselle, plaque de cuisson, frigo) et comprennent une salle de bains avec douche et wc. Prestations à votre arrivée : lit fait, serviettes de toilettes installées, ligne téléphonique ouverte.","Ouvert toute l'année.","Anglais","Oui","Oui",,,,,,,,"Accès Internet, Télévision","Parking privé, Ascenseur","Wifi",,,"44.0","58.0","55","80",,,,,,,,,,,,
"3","Auberge de la Chaloire","http://www.bourgogne-du-sud.com/images/bdd/photos/100083/1/146246.jpg","Auberge de la Chaloire","Le Bourg",,,"71400","La Petite-Verrière","47,049371","4,1584949","41950215800019","551A",,,,"09 61 68 26 66, 03 85 54 14 10","06 65 25 51 72","03 85 54 15 21","mailto: hotel@auberge-de-la-chaloire.com","http://www.auberge-de-la-chaloire.com",,"Hôtels - restaurant","2 étoiles (hôtel), 2 étoiles (nouveau classement)","7.0","7.0","7","1.0",,,,"Aventures Mômes, Tables et Auberges de France, Qualité Tourisme",,"Situé au calme au cœur du Parc naturel régional du Morvan, à proximité de tous les sites culturels gallo-romains. Hôtel entièrement rénové. Prestations de qualité. Accueil chaleureux et familial. Cuisine maison, réputée et raffinée. Wifi gratuit. Piscine extérieure chauffée, grand jardin avec aire de jeux et terrasse.","Fermé le lundi et le mardi du 01/01 au 30/04 et du 01/10 au 31/12.","Anglais, Allemand, Néerlandais","Non","Oui","Oui","Oui","10.","20.0",,,"Chèques Vacances","Accès Internet, Télévision","Bar, Jardin, Jeux pour enfants, Local matériel fermé, Parking privé, Restaurant","Location de matériel de sport, Wifi, Location ou prêt de vélos/VTT","Piscine plein-air",,"58.0","68.0","91","118",,,"10.5","10.5","58.5","63.5","79.45","84.45","79.0","89.0","58.5","63.5"
"4","Auberge de La Croix Blanche",,"Auberge de La Croix Blanche","575, route de Bourgogne",,,"71580","Beaurepaire-en-Bresse","46,6678175","5,3869046","32890769600012","551A",,,,"03 85 74 13 22",,"03 85 74 13 25","mailto: contact@hotel-jura-bourgogne.com","http://www.hotel-jura-bourgogne.com","reservation.consolemyroom.com/reservit/avail-info.php?","Hôtels - restaurant","2 étoiles","14.0","14.0","14",,,,,,,"Une halte de dépaysement à la campagne en Bourgogne du sud. Dans le cadre d'un ancien relais de poste du XVIIème siècle, au cœur de la Bresse, ",,"Anglais, Allemand","Oui","Oui","Oui","Oui",,,,,"Chèques Vacances","Accès Internet, Câble/ satellite, Télévision","Bar, Jeux pour enfants, Parc, Parking privé, Restaurant","Service en chambre",,,,,"0","0",,,,,,,,,,,,
"5","Auberge de la Musardière","http://www.bourgogne-du-sud.com/images/bdd/photos/100083/1/146207.jpg","Auberge de la Musardière","30, route de Chalon",,,"71150","Chagny","46,901193","4,7576351","34913704200017","5510Z","B349137042",,,"03 85 87 04 97",,"04 69 96 55 36","mailto: auberge.musardiere@wanadoo.fr","http://www.auberge-musardiere.fr/",,"Hôtels","2 étoiles","14.0","12.0","12","3.0",,,,"Tables et Auberges de France, Qualité Tourisme",,"A mi-chemin de Beaune et Chalon-sur-Saône, La Musardière vous accueille dans un cadre de charme où vous apprécierez le confort de ses chambres et le calme de son parc ombragé.",,"Français","Oui",,,"Non",,,,"Non","Chèques Vacances","Accès Internet, Câble/ satellite, Télévision","Bar, Jardin, Parc, Parking privé","Wifi",,,"53.0","62.0","68","82",,,"8.0",,,,"65.0",,,,,
"6","Auberge de la Saule",,"Auberge de la Saule","136 A, rue Franklin Roosevelt",,,"71230","Saint-Vallier","46,6518318","4,3528159",,,,,,"03 85 57 10 71",,"03 85 57 34 91","mailto: sarl.parchotel@wanadoo.fr",,,"Hôtels - restaurant",,,,"0",,,,,,,,,,,,,,,,,,,,,,,,,,"0","0",,,,,,,,,,,,
"7","Auberge du Cheval Blanc","http://www.bourgogne-du-sud.com/images/bdd/photos/100083/1/146368.jpg","Auberge du Cheval Blanc","Le Bourg",,,"71390","Saint-Boil","46,6541842","4,6840013","53457008000018",,,,,"03 85 44 03 16",,"09 74 44 96 66",,"http://www.auberge-cheval-blanc.net","http://reservation-hotel.logishotels.com/reservit/avail-info.php?userid=08789693cc49bbb09783e572081bf015bb83&hotelid=1096","Hôtels - restaurant","3 étoiles","11.0","10.0","10",,,"1.0",,"Logis, Qualité Tourisme","Logis",,,"Allemand","Oui","Oui",,"Oui",,,,,,"Télévision","Garage privé, Jardin, Parc, Parking privé, Restaurant","Wifi","Piscine plein-air",,"76.0","108.","0","0",,,,,,,,,,,,
"8","Auberge du Grison","http://www.bourgogne-du-sud.com/images/bdd/photos/100083/1/146225.jpg","Auberge du Grison","Prayes",,,"71460","Chissey-lès-Mâcon","46,5267518","4,7514492","42909618300018","551OZ","A429096183",,,"03 85 50 18 31",,,"mailto: aubgri@live.fr","http://www.auberge-du-grison.com",,"Hôtels - restaurant","Sans étoile","8.0","8.0","8",,,,,,,"Petit hôtel calme, à la campagne, dans un village fleuri. Accueil familial. Piscine d'été.",,,"Oui",,"Oui",,,,,,,,"Bar, Jardin, Jeux pour enfants, Local matériel fermé, Restaurant",,"Piscine plein-air",,,"35.5","0","61",,,,"5.4",,"37.0",,,,,,
"9","Auberge du Moulin de la Chapelle",,"Auberge du Moulin de la Chapelle","Le Moulin de la Chapelle",,,"71390","Messey-sur-Grosne","46,6095921","4,7093246",,,,,,"03 85 91 54 21","06 13 43 54 14",,,,,"Hôtels - restaurant","Sans étoile","9.0","9.0","9",,,,,,,,,,,,,,,,,,,,"Restaurant",,,,,,"0","0",,,,,,,,,,,,
"10","Auberge du Paradis","http://www.bourgogne-du-sud.com/images/bdd/photos/100083/1/146391.jpg","Auberge du Paradis","Le Plâtre Durand",,,"71570","Saint-Amour-Bellevue","46,2421141","4,7493343","40516200900014","5610A","405162009",,,"03 85 37 10 26",,,"mailto: bourgognesud@aubergeduparadis.fr","http://www.aubergeduparadis.fr",,"Hôtels - restaurant","3 étoiles","7.0","8.0","7","1.0","1.0",,,"Qualité Tourisme","Châteaux et Hôtels Collection","Un petit coin de paradis au cœur du Beaujolais, histoire d'oublier parfois l'enfer d'une brûlante journée. Nous vous invitons au voyage en commençant par goûter à la cuisine revendiquant mélange, créativité, et ",,"Anglais, Espagnol","Oui","Oui","Oui","Oui","2.0","18.0",,"Non",,"Accès Internet, Climatisation, Télévision, Wifi","Bar, Jardin, Restaurant","Service en chambre, Coffres clients, Location ou prêt de vélos/VTT","Piscine plein-air, Jacuzzi, Randonnée voie verte",,"135.","165.","127","127","250.","250.","21.0","21.0",,,,,,,,
"11","Auberge du Plain Joly","http://www.bourgogne-du-sud.com/images/bdd/photos/100083/1/146242.jpg","Auberge du Plain Joly","Le Plain Joly",,,"71300","Gourdon","46,6414524","4,4473281","41424244600014","551A",,,,"03 85 57 24 74",,"03 85 58 29 34","mailto: auberge.plainjoly@wanadoo.fr","http://www.auberge-plain-joly.com",,"Hôtels - restaurant","Sans étoile","8.0","8.0","8",,,,,,,"Maison isolée dans la campagne, sur la départementale 980 qui mène au village de Gourdon.","Fermé du 01/08/2011 au 15/08/2011 et du 24/10/2011 au 31/10/2011 et le vendredi soir et le dimanche soir.","Anglais","Oui",,,,,,,,,"Télévision","Bar, Jardin, Parking privé, Restaurant",,"Tennis",,"52.0","58.0","0","0",,,"6.5","6.5","68.0","70.0","68.0","70.0",,,,
"12","Auberge du Vieux Moulin",,"Auberge du Vieux Moulin","151, rue du Creusot",,,"71670","Le Breuil","46,7947013","4,483891",,,,,,"09 60 18 24 07",,,"mailto: aubergevieuxmoulin@orange.fr",,,"Hôtels - restaurant","2 étoiles (nouveau classement), 2 étoiles (hôtel)","9.0","9.0","9",,,,,,,,,,,,,,,,,,,,,,,,,,"0","0",,,,,,,,,,,,
"13","B&B Chalon-sur-Saône Sud","http://www.bourgogne-du-sud.com/images/bdd/photos/100083/1/146370.jpg","B&B Chalon-sur-Saône Sud","Rue Charles Dodille",,,"71100","Saint-Rémy","46,7612149","4,8405158","34791169500026","551C",,,,"08 92 70 75 19",,"03 85 48 98 05",,"http://www.hotelbb.com",,"Hôtels","Sans étoile","71.0","70.0","70","5.0",,"3.0",,,"B&B","Nouvelle hôtellerie de confort. Chambres 1, 2 et 3 personnes avec télévision, wc/douche privés, canal +, canal satellite, wifi, climatisation. Ouvert 24h/24. Accueil personnalisé de 6h30 à 21h. Distributeur automatique de chambres.","Ouvert toute l'année.","Anglais, Espagnol","Oui",,"Oui","Oui",,,,,"Chèques Vacances","Accès Internet, Câble/ satellite, Canal +, Climatisation, Télévision, Wifi","Ascenseur, Parking privé",,,,"45.0","48.0","0","71",,,"6.1",,,,,,,,,
"14","B&B Hôtel","http://www.bourgogne-du-sud.com/images/bdd/photos/100083/1/146396.jpg","B&B Hôtel",,"ZAC du Champ Bossu",,"71600","Paray-le-Monial","46,4687242","4,1196156","47989034500016","551C",,,,"08 92 70 75 71",,"03 85 81 59 72","mailto: bb_4708@hotelbb.com","http://www.hotelbb.com",,"Hôtels","Sans étoile","70.0","70.0","70","8.0",,"3.0",,,"B&B","Hôtel de confort. Chambres 1, 2, 3 ou 4 personnes. Chambres pour personnes à mobilité réduite. Parking fermé et gratuit. Wifi. Climatisation. Restauration à proximité. Distributeur automatique de chambres 24h/24.","Ouvert toute l'année.","Anglais","Oui","Oui","Oui","Oui","15.",,"Une gratuité à partir de 20 personnes.",,"Chèques Vacances","Accès Internet, Câble/ satellite, Canal +, Climatisation, Télévision, Wifi","Ascenseur, Parking privé",,,,"41.6","48.9","53","58",,,"6.1","6.1",,,,,"23.0","32.0",,
"15","Best Western Hôtel d'Europe et d'Angleterre","http://www.bourgogne-du-sud.com/images/bdd/photos/100083/1/146260.jpg","Best Western Hôtel d'Europe et d'Angleterre","109, quai Jean Jaurès",,,"71000","Mâcon","46,3084602","4,8371202","34825427700026","7600",,,,"03 85 38 27 94",,"03 85 39 22 54","mailto: info@hotel-europeangleterre-macon.com","http://www.hotel-europeangleterre-macon.com",,"Hôtels","2 étoiles (hôtel), 2 étoiles (nouveau classement)","29.0","32.0","29",,,"2.0",,"Hôtel de caractère","Best Western","Hôtel de caractère (XVIIIème siècle) entièrement rénové. Vue sur la Saône. Grandes chambres familiales 4 à 5 personnes. Chambres insonorisées. Demi-pension possible pour groupes. Garage fermé.","Fermeture exceptionnelle pour travaux. Réouverture en mai 2013. Réservation possible dès maintenant.","Anglais, Italien","Oui","Oui","Oui","Oui",,,,"Oui",,"Accès Internet, Télévision, Wifi, Câble/ satellite, Climatisation, Canal +","Ascenseur, Bar, Local matériel fermé, Parking privé","Location ou prêt de vélos/VTT, Coffres clients",,,"60.0","130.","0","0",,,"12.0","15.0",,,,,,,,
"16","Best Western Hôtel de la Petite Verrerie","http://www.bourgogne-du-sud.com/images/bdd/photos/100083/1/146320.jpg","Best Western Hôtel de la Petite Verrerie","4, rue Jules Guesde",,,"71200","Le Creusot","46,806201","4,423896","42124700800012","551A","B421247008",,,"03 85 73 97 97",,"03 85 73 97 90","mailto: commercial@hotelfp-lecreusot.com","http://www.bestwestern.fr",,"Hôtels - restaurant","3 étoiles (nouveau classement), 3 étoiles (hôtel)","43.0","43.0","43",,"6.0","3.0","8.0","Bourgogne Séminaires","Best Western","""Ancienne dépendance du château de la Verrerie. Au cœur de la ville, le """"Best Western Hôtel de La Petite Verrerie"""" vous accueille et met à votre disposition 43 chambres dont 6 suites dans une ambiance cosy donnant pour la plupart """,,"Anglais, Espagnol, Portugais","Oui","Oui",,"Oui","20.","80.0","1 gratuité pour 20 payantes payantes.","Oui","Chèques Vacances","Accès Internet, Câble/ satellite, Canal +, Télévision","Bar, Jardin, Parc, Parking privé, Restaurant","Coffres clients, Service en chambre","Golf, Animation","C’est en partenariat avec le golf du château d'Avoise, un parcours de 18 trous réalisé sur un domaine de 120 hectares, entre bosquets, bouleaux, hêtres majestueux, chênes centenaires et plans d'eau que nous vous ","86.0","129.","92","127","112.","152.","14.5","14.5","102.0","154.5","110.0","110.0","78.0","79.0","109.0","112.0"
"17","Auberge du Camp Romain",,"Auberge du Camp Romain","Le Bourg",,,"71150","Chassey-le-Camp","46,8866241","4,6967089","35057207900019","551A","350572079",,,"03 85 87 09 91",,"03 85 87 11 51","mailto: contact@auberge-du-camp-romain.com","http://www.auberge-du-camp-romain.com","http://hotel.reservit.com/reservit/reserhotel.php?hotelid=2271&lang=FR","Hôtels - restaurant","3 étoiles (nouveau classement), 3 étoiles (hôtel)","41.0","41.0","41","7.0",,"1.0","2.0","Tables et Auberges de France, Logis, Bourgogne Séminaires, Qualité Tourisme","Logis","Spa, massages relaxants, hammam, jacuzzi, au bord d'une grande piscine couverte. Une surprenante halte sur la route des grands crus de Bourgogne, à proximité de Beaune ! Notre auberge à flanc de colline, dans son environnement exceptionnel de bois et de vignobles, propose 41 chambres fraîchement rénovées dans un style contemporain, une cuisine raffinée et des spécialités du terroir, une terrasse panoramique pour les beaux jours, et de nombreuses activités de plein air.","Ouvert toute l'année.","Allemand, Français, Anglais","Oui","Oui","Oui","Oui","15.","60.0",,"Oui","Chèques Vacances","Télévision, Wifi, Câble/ satellite","Ascenseur, Bar, Jardin, Jeux pour enfants, Local matériel fermé, Parking privé, Restaurant, Salle de sport","Coffres clients, Location ou prêt de vélos/VTT, Wifi","Mini-golf, Piscine plein-air, Piscine couverte, Sauna, Tennis, Hammam, Randonnée voie verte, Jacuzzi",,"82.0","98.0","98","127",,,"6.4","12.8","78.0","85.0","95.0","111.0",,,"78.0","120.0"
"18","Château de Besseuil","http://www.bourgogne-du-sud.com/images/bdd/photos/100083/1/177016.jpg","Château de Besseuil","Route de Rousset",,,"71260","Clessé","46,4183933","4,8193073","48248400300025",,,,,"03 85 36 92 49",,"03 85 36 94 14","mailto: info@chateaudebesseuil.com","http://www.chateaudebesseuil.com","http://hotel.reservit.com/reservit/avail-info.php?hotelid=140212&userid=0264039b5df01b065d68297e024079ca4b35&__utma=1.291877044.1327740244.1327740244.1327740244.1&__utmb=1.1.10.1327740244&__utmc=1&__utmz=1.1327740244.1.1.utmcsr=chateaudebesseuil.com|utmccn=%28referral%29|utmcmd=referral|utmcct=/fr/index.php","Résidence hôtelière, Hôtels - restaurant",,,"14.0","14","4.0","6.0","2.0","2.0","Qualité Tourisme, Bourgogne Séminaires","Châteaux et Hôtels Collection","""Entièrement rénovée dans le respect de son architecture, cette demeure du XVIe siècle ancrée au cœur du vignoble Mâconnais, s’est largement ouverte à l’art et au design d’intérieur.",NULL,NULL,NULL,NULL,NULL,NULL,NULL,NULL,NULL,NULL,NULL,NULL,NULL,NULL,NULL,NULL,NULL,NULL,NULL,NULL,NULL,NULL,NULL,NULL,NULL,NULL,NULL,NULL,NULL,NULL,NULL,NULL
"19","Dans le bâtiment principal logent de grandes suites-appartements avec cheminées, certaines disposant d’un jardin ou de plafonds à la française. Chambres aux couleurs toniques et junior suites en duplex occupent les deux autres ailes. Le Chardonnay AOC Viré-Clessé provenant des quatre hectares de vignes du domaine se déguste à l’Œnothèque, tandis que le restaurant gastronomique propose une cuisine du terroir revisitée créative et contemporaine. ""","Fermé du 26/11/2012 au 17/12/2012 et le dimanche et lundi hors saison. Ouvert 7 jours/7 en saison (du 13/04/2013 au 12/10/2013).","Anglais, Allemand, Russe","Non","Oui","Oui","Oui","10.0","50.0",,"Oui","Chèques Vacances","Accès Internet, Télévision, Mini-bar, Canal +, Câble/ satellite","Parking privé, Bar, Jardin, Restaurant","Wifi, Service en chambre, Coffres clients, Location ou prêt de vélos/VTT","Piscine plein-air, Golf, Randonnée voie verte",,"139.0","229.0",,,"479.0","669.0","15.0",,"0",,,,,,,,NULL,NULL,NULL,NULL,NULL,NULL,NULL,NULL,NULL,NULL,NULL,NULL,NULL,NULL,NULL,NULL,NULL,NULL,NULL,NULL,NULL,NULL,NULL,NULL,NULL,NULL,NULL,NULL,NULL,NULL,NULL,NULL
"20","Comfort Hôtel","http://www.bourgogne-du-sud.com/images/bdd/photos/100083/1/146377.jpg","Comfort Hôtel","Zone Commerciale du Champ Bossu",,,"71600","Paray-le-Monial","46,4666314","4,111373","50960272800040","5510Z","50960272800040",,,"03 85 81 91 71",,"03 85 81 91 70",,,,"Hôtels","3 étoiles","30.0","30.0","30",,"2.0","5.0","1.0",,,"Paray-le-Monial, station touristique réputée, située au sud de la Bourgogne, ","Ouvert toute l'année.","Anglais","Oui",,"Oui","Oui","20.","65.0",,,,"Accès Internet, Câble/ satellite, Canal +, ","Local matériel fermé, Parking privé",,,,"46.0","61.0","51","71","92.0","120.","7.0","7.0",,,,,,,,
"21","Comfort Hôtel Mâcon Sud","http://www.bourgogne-du-sud.com/images/bdd/photos/100083/1/146394.jpg","Comfort Hôtel Mâcon Sud","164, rue de la Bresse","ZAC des Bouchardes",,"71570","Chaintré","46,254288","4,7934123","39391296900051","5510Z","393912969",,,"03 85 23 97 50",,"03 85 37 44 22",,"http://www.comforthotelmacon.com",,"Hôtels - restaurant","2 étoiles (nouveau classement), 2 étoiles (hôtel)","42.0","42.0","42","5.0",,"2.0","1.0","Qualité Tourisme",,"""Virginie et Denis vous accueillent dans leur hôtel Comfort Mâcon Sud au cœur des vignes de la Bourgogne Sud, entre Mâconnais et Beaujolais.",NULL,NULL,NULL,NULL,NULL,NULL,NULL,NULL,NULL,NULL,NULL,NULL,NULL,NULL,NULL,NULL,NULL,NULL,NULL,NULL,NULL,NULL,NULL,NULL,NULL,NULL,NULL,NULL,NULL,NULL,NULL,NULL
"22","Vous pourrez faire une étape culinaire en goûtant les spécialités régionales préparées le soir par notre chef autour d'un buffet fraîcheur et douceur. Un plateau de courtoisie vous attend à votre arrivée dans votre chambre.""","Ouvert toute l'année.","Allemand, Espagnol, Anglais","Oui","Oui","Oui","Oui","10.0","60.0",,"Oui","Chèques Vacances","Accès Internet, Câble/ satellite, Canal +, Télévision, Wifi","Bar, Parking privé, Restaurant","Wifi",,,"52.0","73.0","80.0","115.0",,,"8.5","8.5","50","55.",,"74.","20.0","35.0","41.0","55.0",NULL,NULL,NULL,NULL,NULL,NULL,NULL,NULL,NULL,NULL,NULL,NULL,NULL,NULL,NULL,NULL,NULL,NULL,NULL,NULL,NULL,NULL,NULL,NULL,NULL,NULL,NULL,NULL,NULL,NULL,NULL,NULL
"23","Delfotel","http://www.bourgogne-du-sud.com/images/bdd/photos/100083/1/146272.jpg","Delfotel","Le Pont Guichard",,,"71600","Hautefond","46,4416","4,14082","44271660100020","5510Z","442716601",,,"03 85 81 96 11",,"03 85 81 14 12","mailto: reception.hotel@delfotel.fr","http://www.delfotel.fr","http://reservation-hotel.logishotels.com/reservit/avail-info.php?userid=95022421708d22a7a213507971666223000f&hotelid=15443&partid=","Hôtels - restaurant","2 étoiles (nouveau classement), 2 étoiles (hôtel)","32.0","32.0","32","1.0",,"2.0","1.0","Logis, Qualité Tourisme, Tour de Bourgogne à vélo","Logis","Au centre du Charolais, sur la route Suisse-Océan, à mi-chemin entre Mâcon et Moulins. Nous vous accueillons dans un parc de 3 hectares, à 100 mètres du Canal du Centre et de la Voie Verte. Pour une étape d'un soir ou plus, 32 chambres confortables climatisées avec douche, wc, télévision ",,"Anglais","Oui","Oui","Oui","Oui","20.","55.0",,"Oui","Chèques Vacances","Accès Internet, Câble/ satellite, Climatisation, Télévision, Canal +","Bar, Parking privé, Restaurant, Parc, Jeux pour enfants","Location ou prêt de vélos/VTT","Piscine plein-air, Randonnée voie verte",,"49.0","53.0","0","0",,,"7.0",,,,"59.0",,,,,
"24","Etap'Hôtel","http://www.bourgogne-du-sud.com/images/bdd/photos/0/1/146292.jpg","Etap'Hôtel","Parc d'Activité de Mâcon Nord","564, route de Saint-Martin",,"71000","Sennecé-les-Mâcon","46,3658672","4,8419053","44469850001905","551C","444698500",,,"08 92 68 31 92",,"03 85 36 08 14","mailto: h2496@accor.com","http://www.etaphotel.com",,"Hôtels","2 étoiles (hôtel), 2 étoiles (nouveau classement)","56.0","56.0","56",,,"3.0",,"Tourisme et Handicap MOTEUR, Tourisme et Handicap VISUEL","Ibis budget","Accès wifi dans toutes les chambres. Douches et toilettes dans les chambres.","Ouvert toute l'année.","Anglais","Oui",,,"Oui",,,,,"Chèques Vacances","Accès Internet, Canal +, Climatisation, Télévision, Wifi","Parking privé",,,,,,"0","0",,,,,,,,,,,,
"25","Etap'Hôtel","http://www.bourgogne-du-sud.com/images/bdd/photos/0/1/146317.jpg","Etap'Hôtel","Autoroute A39 - Aire du Poulet de Bresse",,,"71480","Dommartin-lès-Cuiseaux","46,4958073","5,3140998","41871569400018","551A",,,,"08 92 68 07 48",,,"mailto: arche.pouletdebresse.au@elior.com",,,"Hôtels - restaurant","Sans étoile","30.0","30.0","30",,,"2.0","1.0",,"Ibis budget",,"Ouvert toute l'année.","Allemand, Anglais, Espagnol, Français","Oui","Oui","Oui","Oui",,"90.0","Selon réservation.","Non","Chèques Vacances","Accès Internet, Canal +, Télévision","Restaurant, Jeux pour enfants","Wifi",,,,,"0","0",,,,,,,,,,,,
"26","Etap Hôtel",,"Etap Hôtel","Rue Jacquard","RN6",,"71000","Mâcon","46,2808032","4,8077067","38784628000023",,"387846280",,,"08 92 68 08 26",,"03 85 29 98 23",,"http://www.etaphotel.com",,"Hôtels - restaurant","2 étoiles (hôtel), 2 étoiles (nouveau classement)","70.0","70.0","70",,,"3.0",,,"Ibis budget","Hôtel rénové, douches et sanitaires dans les chambres. Accès wifi gratuit dans l'hôtel. Bon rapport qualité prix.","Ouvert toute l'année.","Anglais, Allemand, Italien","Oui","Oui","Oui","Oui","10.","25.0",,,"Chèques Vacances","Canal +, Climatisation, Télévision, Accès Internet, Câble/ satellite","Parking privé, Restaurant","Wifi",,,"39.0","52.0","0","0",,,"4.7","4.7",,,,,,,,
"27","Europe Hôtel","http://www.bourgogne-du-sud.com/images/bdd/photos/100083/1/146385.jpg","Europe Hôtel","ZAC de la Chaigne",,,"71580","Beaurepaire-en-Bresse","46,6643678","5,4106348","42890365200017","551C","428903652",,,"03 85 74 31 84",,"03 85 74 31 85","mailto: europehotel.JPE@laposte.net","http://www.a-europehotel.com",,"Hôtels","Sans étoile","28.0","28.0","28",,,"2.0","1.0",,,"Hôtel très accueillant, calme, récent, en pleine nature, à proximité de la sortie n°8 de l'A39. Wifi gratuit.","Ouvert toute l'année.","Anglais, Allemand","Oui",,"Oui","Oui","15.","50.0",,,"Chèques Vacances","Câble/ satellite, Télévision","Jeux pour enfants, Parc, Parking privé",,,,,,"0","0",,,,,,,,,,,,
"28","Fasthotel Mâcon","http://www.bourgogne-du-sud.com/images/bdd/photos/0/1/146343.jpg","Fasthotel Mâcon","73, rue de Barbentane",,,"71000","Sennecé-les-Mâcon","46,3637776","4,8442062","43393196100026","5510z",,,,"03 85 23 98 00",,"03 85 37 55 37","mailto: macon@fasthotel.com","http://fasthotel.com",,"Hôtels - restaurant",,"48.0","44.0","44","4.0",,"2.0",,,"Fastotel","Hôtel confortable et économique.","Ouvert toute l'année de 6h30 à 11h et de 18h à 22h du mardi au vendredi et de 7h30 à 11h et de 18h à 22h le samedi, le dimanche et le lundi.","Anglais","Oui",,"Oui","Oui",,,,"Oui","Chèques Vacances","Accès Internet, Câble/ satellite, Canal +, Climatisation, Télévision","Parking privé, Restaurant",,,,"41.0","49.0","49","49",,,"6.0","6.0",,,"58.0","58.0","21.0","30.0",,
"29","Grand Hôtel","http://www.bourgogne-du-sud.com/images/bdd/photos/100083/1/146323.jpg","Grand Hôtel","1, parc thermal",,,"71140","Bourbon-Lancy","46,6178462","3,7681925","79652007000015","930K",,,,"03 85 89 08 87",,"03 85 89 32 23","mailto: ghthermal@stbl.fr",,"http://reservation-hotel.logishotels.com/reservit/avail-info.php?userid=102382bd96311d874d07e620cedb352f6129&hotelid=6901&partid=378","Hôtels - restaurant","3 étoiles","30.0","26.0","26",,"1.0","2.0","1.0","Bourgogne Séminaires, Logis, Qualité Tourisme","Logis","En bordure du parc thermal, ancien couvent des sœurs visitandines. Cour intérieure entourée de galeries avec arcades. Cadre fleuri et ombragé. Possibilité de remise en forme thermale ou mini cure libre au sein de l'établissement thermal qui jouxte l'hôtel.","Ouvert du 01/03/2012 au 16/12/2012.","Anglais, Italien","Oui",,"Oui","Oui",,,,,"Chèques Vacances","Accès Internet, Câble/ satellite, Télévision","Ascenseur, Parc, Parking privé, Restaurant","Coffres clients, Service en chambre","Animation, Randonnée voie verte",,"71.0","110.","0","0","110.","110.","8.5","8.5","18.0",,,,,,,
"30","Hostellerie Bourguignonne","http://www.bourgogne-du-sud.com/images/bdd/photos/100083/1/146304.jpg","Hostellerie Bourguignonne","2, avenue Président Borgeot",,,"71350","Verdun-sur-le-Doubs","46,8906709","5,0261227","40754505200018","551A",,,,"03 85 91 51 45","06 81 34 21 22","03 85 91 53 81","mailto: ","http://www.hostelleriebourguignonne.",,"Hôtels - restaurant","3 étoiles","14.0","9.0","9","2.0",,,"1.0","Qualité Tourisme","Châteaux et Hôtels Collection","En terrasse ou à l'intérieur, ici les plaisirs d'une table mais aussi ceux d'une ",,"Anglais, Allemand","Oui","Oui","Oui","Oui","1.0","18.0","Gratuité groupes sur demande.","Oui","Chèques Vacances","Câble/ satellite","Jeux pour enfants","Wifi","Animation","Séjours gastronomiques en cours de cuisine, repas animés par un œnologue ","110.","145.","127","127",,,"14.0","14.0","102.0","164.0","115.0","115.0","110.0","145.0",,
"31","Hostellerie Bressane",,"Hostellerie Bressane","2, route de Sens",,,"71330","Saint-Germain-du-Bois","46,7532208","5,2406911","44538741800012","551A","445387418",,,"03 85 72 04 69",,"03 85 72 07 75","mailto: LA.TERRINEE4@wanadoo.fr","http://www.giot-hostelleriebressane.fr","http://ldf.reservit.com/reservit/reserhotel.php?id=12&partid=378&hotelid=2145","Hôtels - restaurant","2 étoiles","9.0","9.0","9","2.0",,,,"Qualité Tourisme, Logis","Logis","Toutes les chambres, rénovées entièrement en 2006, sont différentes mais toutes sont restées dans le style de la Bresse Bourguignonne avec poutres apparentes. Wifi gratuit.","Fermé  le dimanche soir sauf juillet et août et le lundi toute l'année.","Anglais","Oui","Oui",,,,,,,"Chèques Vacances","Accès Internet, Câble/ satellite, Télévision, Wifi","Bar, Parking privé, Restaurant","Wifi",,,"57.0",,"0","0",,,"8.0","8.0","62.0","62.0","62.0","62.0",,,,
"32","Hostellerie Bressane","http://www.bourgogne-du-sud.com/images/bdd/photos/100083/1/146315.jpg","Hostellerie Bressane","56, route de Tournus",,,"71290","Cuisery","46,5579","4,9972","65565012500017","5510Z",,,,"03 85 32 30 66",,"03 85 40 14 96","mailto: hostellerie.bressane@wanadoo.fr","http://www.hostellerie-bressane.fr","http://ldf.reservit.com/reservit/reserhotel.php?id=12&partid=378&hotelid=871","Hôtels - restaurant","3 étoiles","15.0","15.0","15","1.0",,"1.0",,"Qualité Tourisme, Logis","Logis","Maison de charme située dans le 4ème Village du Livre de France, à quelques minutes de Tournus avec son illustre abbaye Saint-Philibert, à 20 minutes de Louhans avec son marché typique du lundi matin, et à 30 minutes du circuit automobile de Bresse. 15 chambres entièrement rénovées très confortables et bien équipées : six en rez-de-jardin, sept dans le bâtiment principal et deux junior suites de style chalet. Parking privé sécurisé gratuit. Accès wifi sécurisé gratuit. Cuisine gastronomique de terroir à base de produits frais de saison, salles climatisées, terrasse dans le jardin à l'ombre du magnifique platane bi-centenaire.","Ouvert tous les jours sauf mercredi (après le service du petit-déjeuner) et jeudi toute la journée. Fermé en janvier.","Anglais, Allemand","Oui","Oui","Oui","Oui","12.","40.0","1 gratuité pour 20 personnes payantes.","Non","Chèques Vacances","Accès Internet, Câble/ satellite, Climatisation, Mini-bar, Télévision, Wifi","Garage privé, Jardin, Local matériel fermé, Parking privé, Restaurant","Wifi",,,"70.0","120.","98","127",,,"9.0","11.0","85.0","105.0","82.0","92.0",,,,
"33","Hostellerie d'Héloïse","http://www.bourgogne-du-sud.com/images/bdd/photos/100083/1/146229.jpg","Hostellerie d'Héloïse","Le Pont de l'Etang",,,"71250","Cluny","46,4337171","4,6581957","45396974300013","551A","453969743",,,"03 85 59 05 65",,"03 85 59 19 43","mailto: hostelleriedheloise@aliceadsl.fr","http://www.hostelleriedheloise.com","http://reservation-hotel.logishotels.com/reservit/avail-info.php?userid=2201535cece89be7f2ea54a3a45566928c2a&hotelid=93636","Hôtels - restaurant","2 étoiles","13.0","13.0","13","2.0",,,"1.0","Qualité Tourisme, Logis, Tour de Bourgogne à vélo","Logis","Au départ de la Voie Verte, sur les rives de la Grosne, 13 chambres, bar salon. Hôtel entièrement non fumeur, équipé du wifi (gratuit). Cuisine traditionnelle et raffinée. Deux salles de restaurant différentes. Une salle de réception.","Fermé du 20/12 à mi février.","Anglais","Oui","Oui",,"Oui","10.","32.0","1 gratuité pour l'accompagnant et le chauffeur.","Non",,"Télévision, Wifi","Bar, Local matériel fermé, Restaurant",,,,"63.0","68.0","91","91",,,"8.5","9.0","61.0","61.0","77.0","77.0",,,,
"34","Hostellerie des Trois Pigeons","http://www.bourgogne-du-sud.com/images/bdd/photos/HOTBOU0710000541.jpg","Hostellerie des Trois Pigeons","2, rue Dargaud",,,"71600","Paray-le-Monial","46,4527721","4,1198967","79542018100013","551A","54B18",,,"03 85 81 03 77",,"03 85 81 58 59","mailto:hotel3pigeons@wanadoo.fr","http://www.h-3-p.com","http://inter-hotel.reservit.com/reservit/avail.php?hotelid=10335&userid=2304c0fde1b6f51643ec045f6fb210950001&typeforfait","Hôtels - restaurant","3 étoiles (hôtel), 3 étoiles (nouveau classement)","40.0","40.0","40","3.0",,"2.0","1.0","Qualité Tourisme","Interhôtels","Ancien relais de poste dont l'enseigne existe depuis trois siècles. A deux pas du centre historique et religieux.",,"Anglais, Allemand, Italien","Oui",,"Oui","Oui",,,,"Oui","Chèques Vacances","Câble/ satellite, Télévision","Ascenseur, Bar, Garage privé, Jardin, Jeux pour enfants, Restaurant","Service en chambre",,,,,"0","0",,,,,,,,,,,,
"35","Hostellerie du Château de Bellecroix","http://www.bourgogne-du-sud.com/images/bdd/photos/HOTBOU0710000438.jpg","Hostellerie du Château de Bellecroix","RN6",,,"71150","Chagny","46,8967","4,76236","31032676400019","551A","B310326764",,,"03 85 87 13 86",,"03 85 91 28 62","mailto: info@chateau-bellecroix.com","http://www.chateau-bellecroix.com","http://reservation-hotel.logishotels.com/reservit/avail-info.php?userid=2201535cece89be7f2ea54a3a45566928c2a&hotelid=3990","Hôtels - restaurant","3 étoiles (nouveau classement), 3 étoiles (hôtel)","20.0","20.0","20",,,,"2.0","Logis, Qualité Tourisme, Bourgogne Séminaires, Tour de Bourgogne à vélo","Châteaux et Hôtels Collection, Relais du Silence, Logis","Château des XIIème et XVIIIème siècles. Propriété de caractère. Le charme des siècles passés, associé au confort actuel, donne aux chambres une personnalisation différente les unes des autres. Piscine extérieure chauffée dans le parc.",,"Anglais, Espagnol","Oui",,"Oui","Oui","12.","40.0",,"Oui",,"Accès Internet, Câble/ satellite, Climatisation, Mini-bar, Télévision","Bar, Garage privé, Jardin, Local matériel fermé, Parc, Parking privé, Restaurant","Location de voitures","Piscine plein-air",,,,"0","0",,,,,,,,,,,,
"36","Hostellerie du Château de la Barge","http://www.bourgogne-du-sud.com/images/bdd/photos/HOTBOU0710000294.jpg","Hostellerie du Château de la Barge","Route des Bergers",,,"71680","Crêches-sur-Saône","46,2512","4,78294","45001182000013","551A","81A136",,,"03 85 23 93 23","06 62 10 46 78","03 85 23 93 39","mailto: info@chateaudelabarge.fr","http://www.chateaudelabarge.fr","http://chateaux-demeures.reservit.com/reservit/avail-info.php?hotelid=6879&userid=6559d1059f599cdc151988e1fe4ebc1ed31f","Hôtels - restaurant","3 étoiles","25.0","25.0","25","4.0","4.0","1.0","3.0","Bourgogne Séminaires","Châteaux et Demeures de Tradition et Grandes Etapes des Vignobles","Au cœur du vignoble mâconnais, au pied des vignobles du Pouilly-Fuissé, dans un parc de 4 hectares avec piscine chauffée. Tourisme, séminaires, gastronomie. Wifi.",,,,,,,,,,,,,"Restaurant",,"Piscine plein-air",,,,"0","0",,,,,,,,,,,,
"37","Hostellerie du Cheval Rouge","http://www.bourgogne-du-sud.com/images/bdd/photos/HOTBOU0710000318.jpg","Hostellerie du Cheval Rouge","5, rue d'Alsace",,,"71500","Louhans","46,6300108","5,226558","31343215500015","551A","A313432155",,,"03 85 75 21 42",,"03 85 75 44 48","mailto: contact@hotel-chevalrouge.com","http://www.hotel-chevalrouge.com","http://ldf.reservit.com/reservit/reserhotel.php?id=12&partid=378&hotelid=1301","Hôtels - restaurant","2 étoiles","14.0","20.0","14",,,"1.0","1.0","Qualité Tourisme, Logis","Logis","L'hostellerie et son annexe, à 100 mètres des 157 arcades. Chambres non fumeurs. Wifi.",,"Anglais, Espagnol","Oui",,,"Oui","15.","45.0",,,"Chèques Vacances","Accès Internet, Câble/ satellite, Télévision, Wifi","Bar, Garage privé, Local matériel fermé, Restaurant",,,,,,"0","0",,,,,,,,,,,,
"38","Hostellerie du Gourmet",,"Hostellerie du Gourmet","45, route de Toulon",,,"71190","Étang-sur-Arroux","46,8618969","4,192336","31371985800034","551A","144020G208400027",,,"03 85 82 20 88",,"03 85 82 36 13",,,,"Hôtels - restaurant",,"13.0","13.0","13",,,,,,,"Cuisine régionale gastronomique. Tourisme. Pension. Banquets.",,,,,,,,,,,,,"Restaurant",,,,,,"0","0",,,,,,,,,,,,
"39","Hostellerie du Vieux Moulin","http://www.bourgogne-du-sud.com/images/bdd/photos/100083/1/146319.jpg","Hostellerie du Vieux Moulin","Porte d'Arroux","Route de Saulieu - D980",,"71400","Autun","46,9592608","4,2961307","47755166700017","551A","A95030402200",,,"03 85 52 10 90",,"03 85 86 32 15","mailto: auvieuxmoulin2@wanadoo.fr",,"http://chateaux-demeures.reservit.com/reservit/avail-info.php?hotelid=3789&userid=50878ffe72ea660ac5a7c4cf6178af94ce63","Hôtels - restaurant","3 étoiles","16.0","16.0","16",,,,"2.0",,"Moulin Etape","Ancien moulin au bord de l'Arroux. Service d'été au jardin.",,"Anglais, Allemand, Italien, Espagnol","Oui",,"Oui","Oui","8.0","35.0",,"Oui",,"Accès Internet, Climatisation, Télévision","Bar, Garage privé, Jardin, Jeux pour enfants, Local matériel fermé, Parc, Parking privé, Restaurant","Coffres clients, Service en chambre",,,,,"0","0",,,,,,,,,,,,
"40","""Hôtel """"Château de la Boulaye""""""","http://www.bourgogne-du-sud.com/images/bdd/photos/0/1/177844.jpg","""Hôtel """"Château de la Boulaye""""""","La Basse Cour",,,"71320","La Boulaye","46,7460841","4,1266155","522475854000","5510Z",,,,"03 85 80 16 16","06 01 99 43 57","03 85 67 45 09","mailto: chateaudelaboulaye@nordnet.fr","http://www.chateaudelaboulaye.fr",,"Hôtels",,,"16.0","16","2.0","1.0","1.0","1.0",,,"Situé au cœur de la vallée Arroux-Mesvrin, l'hôtel du château de La Boulaye vous fera passer de belles soirées. Découvrez un cadre naturel empreint de calme et de sérénité. Profitez des chambres ouvertes sur de larges terrasses vous plongeant directement au milieu du parc arboré. Un hébergement agréable ponctué d'un accueil chaleureux. Restauration uniquement sur réservation pour les hôtes.","Ouvert toute l'année.","Anglais","Oui","Oui","Oui","Oui",,"45.0",,,"Chèques Vacances","Accès Internet, Câble/ satellite, Télévision","Bar, Jardin, Local matériel fermé, Parc, Parking privé","Location ou prêt de vélos/VTT",,,,"57.0","0","0",,"90.0","7.0","12.0",,"75.0",,"70.0",,,,
"41","Hôtel 19'Cent",,"Hôtel 19'Cent","1, rue du Maréchal Foch",,,"71200","Le Creusot","46,8060483","4,4602139",,,,,,"03 85 57 64 20",,"03 85 57 00 39","mailto: hotel19cent@orange.fr","http://www.hotel-creusot.fr",,"Hôtels",,,,"0",,,,,,,,,,,,,,,,,,,,,,,,,,"0","0",,,,,,,,,,,,
"42","Hôtel Akena",,"Hôtel Akena","ZAC Les Bouchardes",,,"71680","Crêches-sur-Saône","46,246075","4,786367",,,,,,"03 85 37 19 90",,"03 85 37 48 33","mailto: macon71@hotels-akena.com","http://www.hotels-akena.com",,"Hôtels","1 étoile (hôtel), 1 étoile (nouveau classement)","43.0","43.0","43",,,,,,,,,,,,,,,,,,,,,,,,,,"0","0",,,,,,,,,,,,
"43","Hôtel A la Villa Boucicaut","http://www.bourgogne-du-sud.com/images/bdd/photos/HOTBOU0710000586.jpg","Hôtel A la Villa Boucicaut","33 bis, avenue Boucicaut",,,"71100","Chalon-sur-Saône","46,7845234","4,8447082","499908481","551C",,,,"03 85 90 80 45","06 27 25 59 50","03 85 48 32 78","mailto: alavillaboucicaut@orange.fr","http://www.la-villa-boucicaut.fr","http://reservation-hotel.logishotels.com/reservit/avail-info.php?userid=2201535cece89be7f2ea54a3a45566928c2a&hotelid=112190","Hôtels","3 étoiles (nouveau classement), 3 étoiles (hôtel)","16.0","16.0","16","1.0","3.0","2.0","2.0","Logis, Tour de Bourgogne à vélo, Qualité Tourisme","Logis","Au cœur de Chalon-sur-Saône, un lieu retiré, à proximité de la gare et de la sortie d'autoroute Chalon Nord. Les chambres sont silencieuses, ensoleillées et confortables. Le jardin et sa terrasse vous invitent à la détente. Deux salles de séminaires. Parking privé.","Ouvert toute l'année.","Anglais, Espagnol","Oui","Oui","Non","Oui",,,,"Oui","Chèques Vacances","Accès Internet, Télévision, Câble/ satellite, Wifi","Parking privé, Bar, Jardin","Service en chambre, Coffres clients","Randonnée voie verte, Golf",,,,"0","0",,,,,,,,,,,,
"44","Hôtel Arcades",,"Hôtel Arcades","22, avenue de la République",,,"71400","Autun","46,9559319","4,2961546","49276571400018","551C","443490768",,,"03 85 52 30 03",,"03 85 86 39 09","mailto: lesarcades71@orange.fr","http://www.hotel-arcades-autun.com",,"Hôtels","2 étoiles (nouveau classement), 2 étoiles (hôtel)","29.0","29.0","29",,,,,"Qualité Tourisme","Contact Hôtel","Près du centre historique, 29 chambres calmes, tout confort. TV chaînes satellite, téléphone, réveil. Connexion wifi gratuite dans tout l'hôtel.",,,,,,,,,,,,,,,,,,,"0","0",,,,,,,,,,,,
"45","Hôtel B&B Chalon-sur-Saône Nord",,"Hôtel B&B Chalon-sur-Saône Nord","""4, rue André Marie Ampère",NULL,NULL,NULL,NULL,NULL,NULL,NULL,NULL,NULL,NULL,NULL,NULL,NULL,NULL,NULL,NULL,NULL,NULL,NULL,NULL,NULL,NULL,NULL,NULL,NULL,NULL,NULL,NULL,NULL,NULL,NULL,NULL,NULL,NULL,NULL,NULL,NULL,NULL,NULL,NULL,NULL,NULL,NULL,NULL,NULL,NULL,NULL,NULL,NULL,NULL,NULL,NULL,NULL,NULL,NULL,NULL,NULL,NULL,NULL,NULL,NULL
"46","""","ZAC des Blettrys",,"71530","Champforgeuil","46,8246747","4,8338408",,,,,,"08 92 78 80 27",,"03 85 46 97 10","mailto: bb_4287@hotelbb.com","http://www.hotelbb.com",,"Hôtels","2 étoiles","40.0","42.0","40.0",,,"2",,,,"Un accueil chaleureux et professionnel, des chambres calmes, agréables et confortables, la possibilité de loger toute votre famille, de véritables salles de bains et un copieux petit-déjeuner.","Ouvert toute l'année.","Anglais","Oui","Oui",,"Oui",,,,,,"Accès Internet, Câble/ satellite, Canal +, Climatisation","Parking privé","Wifi",,,"39.6","48.0",,,,"0","2","6.1",,,,,,,,,NULL,NULL,NULL
"47","Hôtel Carrion","http://www.bourgogne-du-sud.com/images/bdd/photos/100083/1/163863.jpg","Hôtel Carrion","Place André Lagrange",,,"71260","Viré","46,4494507","4,8427084",,,,,,"03 85 33 10 72","06 30 24 28 12",,"mailto: contact@relais-de-montmartre.fr","http://relais-de-montmartre.com","http://www.relais-de-montmartre.fr/fr/index.php#reservez-votre-table.php","Hôtels - restaurant","4 étoiles (hôtel), 4 étoiles (nouveau classement)","10.0","10.0","10",,"1.0","1.0","2.0","Qualité Tourisme, Tables et Auberges de France, Bourgogne Séminaires, Tourisme et Handicap MOTEUR, Tourisme et Handicap VISUEL, Logis","Hôtels & Préférence, Logis","Situé à 15 minutes de Mâcon et Tounus, sur la route des vins, proche de la Voie Verte, hôtel 4 étoiles avec SPA et restaurant étoilé au guide Michelin depuis 2009. Cuisine savoureuse et classique avec les produits régionaux.","Ouvert toute l'année.","Anglais","Non","Oui","Oui","Oui","10.","40.0","1 gratuité à partir de 15 personnes payantes.","Oui",,"Accès Internet, Climatisation, Mini-bar, Télévision","Ascenseur, Bar, Garage privé, Jardin, Parking privé, Restaurant","Coffres clients, Location ou prêt de vélos/VTT, Service en chambre","Hammam, Jacuzzi, Animation","Pique-nique chic dans les vignes, balade à vélo, dégustation de vins chez le viticulteur, SPA.","140.","200.","127","127","280.","380.","20.0","20.0","200.0","220.0","200.0","220.0","150.0","190.0","200.0","220.0"
"48","Hôtel Citotel L'Iroko","http://www.bourgogne-du-sud.com/images/bdd/photos/100083/1/146340.jpg","Hôtel Citotel L'Iroko","Avenue Maréchal Leclerc",,,"71300","Montceau-les-Mines","46,6821986","4,3720291","50952408800010","5510Z","509524088",,,"03 85 57 49 49",,"03 85 57 72 23","mailto: info@hotel-restaurant-iroko.fr","http://hotel-restaurant-iroko.fr",,"Hôtels - restaurant","2 étoiles","30.0","30.0","30",,,,,"Qualité Tourisme","Citotel","Entre Chalon-sur-Saône et Paray-le-Monial, une halte à Montceau-les-Mines, au bord du canal du Centre, dans un cadre moderne et agréable. Cuisine traditionnelle et régionale. Spécialité viande charolaise.",,"Anglais",,,"Oui","Oui","10.","60.0",,"Oui","Chèques Vacances","Câble/ satellite, Télévision, Wifi","Parking privé, Restaurant",,,,"64.0",,"0","0",,,"7.0",,,,"75.0",,,,,
"49","Hôtel Concorde","http://www.bourgogne-du-sud.com/images/bdd/photos/100083/1/146252.jpg","Hôtel Concorde","73, rue Lacretelle",,,"71000","Mâcon","46,3071597","4,8230993","75151283100015","551A",,,,"03 85 34 21 47",,"03 85 29 21 79","mailto: hotel.concorde.71@wanadoo.fr","http://www.hotelconcorde71.fr",,"Hôtels","2 étoiles (nouveau classement), 2 étoiles (hôtel)","14.0","14.0","14","2.0",,,,,,"Hôtel calme, proche du centre ville, avec petit parc et terrasse arborés. Accueil chaleureux. Etablissement tenu par le propriétaire.",,"Anglais",,,,"Oui",,"25.0",,"Oui","Chèques Vacances","Accès Internet, Télévision","Jardin, Parc, Parking privé","Wifi",,,,,"0","0",,,,,,,,,,,,
"50","Hôtel de Bourgogne","http://www.bourgogne-du-sud.com/images/bdd/photos/100083/1/146253.jpg","Hôtel de Bourgogne","6, rue Victor Hugo",,,"71000","Mâcon","46,3061893","4,8291314","33862329100014","551C","86B81",,"Immatriculation 071100019","03 85 21 10 23",,"03 85 38 65 92","mailto: Hotel-de-bourgogne@wanadoo.fr","http://www.hoteldebourgogne.com","http://ldf.reservit.com/reservit/reserhotel.php?id=12&partid=378&hotelid=9904","Hôtels - restaurant","3 étoiles (hôtel), 3 étoiles (nouveau classement)","50.0","50.0","50","8.0",,,"2.0","Qualité Tourisme, Logis","Interhôtels, Logis","Cet ancien relais de poste, climatisé, en centre ville, avec garage privé vous offrira des prestations de qualité qui feront de votre séjour, une agréable halte où le meilleur accueil vous sera réservé.","Ouvert toute l'année.","Anglais, Allemand, Italien, Espagnol","Oui","Oui","Oui","Oui","20.","50.0","1/2 double pour 20 personnes payantes.","Oui","Chèques Vacances","Accès Internet, Câble/ satellite, Canal +, Climatisation, Télévision, Wifi","Ascenseur, Bar, Garage privé, Parking privé, Restaurant","Service en chambre","Golf",,"69.0","105.","108","127",,,"11.0","11.0","100.0","167.0","89.0","94.0","32.0","40.0","48.0","56.0"
"51","Hôtel de Genève","http://www.bourgogne-du-sud.com/images/bdd/photos/100083/1/146254.jpg","Hôtel de Genève","1, rue Bigonnet",,,"71000","Mâcon","46,3033161","4,8268106","31311871300012","551A","B313118713",,,"03 85 38 18 10",,"03 85 38 22 32","mailto: contact@hotel-de-geneve.com","http://www.hotel-de-geneve.com",,"Hôtels","2 étoiles","58.0","56.0","56","12.",,,"1.0",,,"56 chambres insonorisées avec bain ou douche. Cuisine régionale. Séminaires de 16 ou 40 personnes. Salon bar, télévision. Soirée étape ou séjour d'affaires à proximité immédiate des axes routiers et ferroviaires. Wifi gratuit dans toutes les chambres. Réception de groupes.","Ouvert toute l'année.","Anglais, Allemand, Italien, Espagnol","Oui","Oui","Oui","Oui","15.","100.","1 gratuité pour 20 personnes payantes (base single). 2 gratuités pour 40 personnes payantes (base une 1/2 double et une single).","Oui","Chèques Vacances","Accès Internet, Câble/ satellite, Télévision, Wifi","Ascenseur, Bar, Garage privé, Restaurant","Location de voitures",,,"55.0","68.0","79","97",,,"8.2","8.2","66.0","70.0","66.0","70.0","26.5","33.7","39.4","46.4"
"52","Hôtel de la Ferté","http://www.bourgogne-du-sud.com/images/bdd/photos/100083/1/146208.jpg","Hôtel de la Ferté","11, boulevard de la Liberté",,,"71150","Chagny","46,9067707","4,7529035","48858515900020","551A","488585159",,,"03 85 87 07 47",,"03 85 87 37 64","mailto: reservations@hotelferte.com","http://www.hotelferte.com",,"Hôtels","2 étoiles","14.0","13.0","13","3.0",,,"1.0","Qualité Tourisme, Tour de Bourgogne à vélo","Contact Hôtel","Hôtel de charme, non fumeur, dans une maison bourgeoise bourguignonne, chaleureux et convivial. 13 chambres de caractère toutes différentes (dont 2 chambres famille 4 à 5 personnes), rénovées et insonorisées. Grand jardin pour petit-déjeuner de l'été. Parking fermé gratuit. Dégustation de vins de Bourgogne. Bar dans l'hôtel. Exposition artistique permanente présentée par l'artiste. Un rare moment de calme et de relaxation où l'hospitalité n'est pas un vain mot.",,,"Oui",,,"Oui","12.","32.0",,"Oui","Chèques Vacances","Télévision, Wifi","Bar, Jardin, Parking privé","Service en chambre","Golf, Piscine couverte, Piscine plein-air, Randonnée voie verte",,"59.0","78.0","78","89",,,"7.5","7.5","65.0","75.0","65.0","75.0","36.0","45.0","65.0","75.0"
"53","Hôtel de la Gare","http://www.bourgogne-du-sud.com/images/bdd/photos/100083/I/Image40.jpg","Hôtel de la Gare","Le Bourg",,,"71290","Simandre","46,6234612","4,9890161",,,,,,"03 85 40 21 12 ",,"03 85 40 21 12",,,,"Hôtels - restaurant","Sans étoile",,,"6",,,,,,,"Hôtel restaurant situé au coeur du bourg de Simandre.","Tous les jours sauf mercredi soir et dimanche soir.","Français",,,,"Oui",,,,,,"Télévision",,,,,"28.0","38.0","0","0",,,"6.5",,,,,,,,,
"54","Hôtel de la Poste","http://www.bourgogne-du-sud.com/images/bdd/photos/100083/1/146205.jpg","Hôtel de la Poste","17, rue de la Poste",,,"71150","Chagny","46,9073825","4,7539181","44993957800018","551C","449939578",,,"03 85 87 64 40",,"03 85 87 64 41","mailto: info@hoteldelaposte-chagny71.com","http://www.hoteldelaposte-chagny71.com",,"Hôtels","3 étoiles (hôtel), 3 étoiles (nouveau classement)","11.0","11.0","11",,,,,,,"Convivialité et charme à l'orée des vignobles de Bourgogne et de la Voie Verte... Hôtel familial de 11 chambres calmes et confortables, jardin, terrasse et parking privé.","Fermé du 23/08/2013 au 02/09/2013 et du 22/12/2013 au 06/01/2014.","Anglais, Allemand","Oui",,,"Oui","14.","22.0",,,"Chèques Vacances","Télévision, Wifi","Jardin, Parking privé","Service en chambre, Wifi",,,"49.0","68.0","74","88",,,"8.0","8.0",,,,,,,,
"55","Hôtel de la Thalie","http://www.bourgogne-du-sud.com/images/bdd/photos/100083/1/172884.jpg","Hôtel de la Thalie","77, rue François Protheau",,,"71100","Chalon-sur-Saône","46,7990329","4,8355541","48103035100029","55.10Z",,,,"03 85 46 84 24",,"03 85 46 84 27","mailto: contact@hotel-thalie.com","http//www.hotel-thalie.com",,"Hôtels","2 étoiles (hôtel), 2 étoiles (nouveau classement)","54.0","54.0","54",,,"3.0","1.0","Tour de Bourgogne à vélo",,"Hôtel situé à proximité immédiate de la sortie d'autoroute A6 (n°25 - Chalon Nord) et à quelques minutes du centre ville. La Voie Verte passe devant l'hôtel. Les chambres sont climatisées, équipées d'un grand lit 160 cm (pour les chambres doubles) avec accès wifi gratuit pour les voyageurs d'affaires et les touristes.","Ouvert toute l'année.","Anglais, Espagnol, Italien","Oui","Oui","Oui","Oui",,,"1 gratuité à partir de 20 personnes payantes.",,"Chèques Vacances","Wifi, Accès Internet, Câble/ satellite, Canal +, Climatisation, Télévision","Ascenseur, Parking privé","Coffres clients, Location ou prêt de vélos/VTT",,,"49.0","69.0","79","89",,,"7.5","7.5",,,"73.0","73.0","20.0","25.0",,
"56","Hôtel du Commerce","http://www.bourgogne-du-sud.com/images/bdd/photos/100083/1/146226.jpg","Hôtel du Commerce","8, place du Commerce",,,"71250","Cluny","46,4322483","4,6611051","34953006300016","551C","B349530063",,,"03 85 59 03 09",,"03 85 59 00 87","mailto: hotelducommerce71@orange.fr","http://www.hotelducommerce-cluny.com",,"Hôtels",,"17.0","17.0","17",,,,,,,"A deux pas de l'Abbaye, au cœur de la vie commerçante. Cet établissement ne disposant pas de restaurant, n'hésitez pas à demander une liste à nos hôtesses pour trouver le lieu où apprécier la gastronomie bourguignonne.","Fermé du 04/03/2011 au 14/03/2011 et du 03/12/2011 au 12/12/2011.","Anglais","Oui",,,,,,,,"Chèques Vacances","Télévision",,"Service en chambre",,,"29.0","45.0","0","0",,,"6.5",,,,,,,,,
"57","Hôtel du Jura","http://www.bourgogne-du-sud.com/images/bdd/photos/HOTBOU0710000563.jpg","Hôtel du Jura","4, rue d'Alsace",,,"71500","Louhans","46,6299129","5,2261746","31961651800017","551C",,,,"03 85 75 14 91",,"03 85 75 29 99","mailto: hotel-jura@wanadoo.fr",,,"Hôtels","2 étoiles","14.0","14.0","14",,,,"1.0",,,"Accueil familial. Chambres au calme et entièrement rénovées en 2001.",,"Anglais, Espagnol","Oui",,"Oui","Oui","6.0","34.0",,,,"Câble/ satellite, Télévision","Bar, Garage privé, Local matériel fermé, Parking privé","Service en chambre",,,,,"0","0",,,,,,,,,,,,
"58","Hôtel du Moulin","http://www.bourgogne-du-sud.com/images/bdd/photos/100083/I/Image81.jpg","SARL Hôtel du Moulin","Route de Cuisery",,,"01190","Arbigny","46,4811223","4,9699831",,,,,,"03 85 36 49 27",,"03 85 30 66 91","mailto:contact@moulindelabrevette.com","http://www.moulindelabrevette.com",,"Hôtels","2 étoiles",,,"17",,,,,"Qualité Tourisme","Contact Hôtel, L'Hôtellerie Familiale, Moulin Etape","Hôtel situé près de Tournus et Pont de Vaux, à la campagne. ","Ouvert toute l'année.","Anglais","Oui",,"Oui","Oui",,"60.0",,,"Chèques Vacances","Télévision, Accès Internet","Bar, Jardin, Parc, Jeux pour enfants","Wifi, Service en chambre, Location ou prêt de vélos/VTT",,,"55.0",,"0","0",,,,,,,,,,,,
"59","Hôtel du Nord",,"Hôtel du Nord","13, rue du 11 Novembre 1918",,,"71300","Montceau-les-Mines","46,6764762","4,3654301","41382526600013","551A","341416956",,,"03 85 57 05 33",,,,,,"Hôtels",,"13.0","13.0","13",,,,,,,,,,,,,,,,,,,,,,,,,,"0","0",,,,,,,,,,,,
"60","Hôtel du Nord","http://www.bourgogne-du-sud.com/images/bdd/photos/HOTBOU0710000445.jpg","Hôtel du Nord","313, quai Jean Jaurès",,,"71000","Mâcon","46,3065114","4,8364936","48240743400018","6709","482407434",,,"03 85 38 08 68","06 03 94 31 75","03 85 39 01 92","mailto: contact@hotel-dunord.com","http://www.hotel-dunord.com",,"Hôtels","2 étoiles","21.0","16.0","16",,,,,,,"Petit hôtel familial, non fumeur, bordé par la Saône et les quartiers historiques du centre-ville, l'hôtel du Nord vous offre son confort, sa vue et sa situation privilégiée à proximité des meilleurs restaurants. Wifi dans chaque chambre (gratuit). Hôtel adhérent à Contact Hôtel.",,"Anglais","Non",,"Non","Non",,,,"Oui","Chèques Vacances","Accès Internet, Câble/ satellite, Canal +, Climatisation, Télévision","Ascenseur, Garage privé",,,,,,"0","0",,,,,,,,,,,,
"61","Hôtel Formule 1","http://www.bourgogne-du-sud.com/images/bdd/photos/HOTBOU0710000514.jpg","Hôtel Formule 1","Espace d'Activité Sennecé",,,"71000","Sennecé-les-Mâcon","46,3620458","4,8338665",,,"B378114110",,,"03 85 37 59 00",,"03 85 36 01 07",,"http://www.hotelformule1.com",,"Hôtels","Sans étoile","64.0",,"64",,,,,,"hotelF1",,,,,,,,,,,,,,,,,,,,"0","0",,,,,,,,,,,,
"62","Hôtel Formule 1",,"Hôtel Formule 1","Avenue de l'Europe",,,"71100","Chalon-sur-Saône","46,7982749","4,8353009",,,,,,"08 91 70 52 10",,"03 85 43 68 58","mailto: h2315-re@accor.com","http://www.accorhotels.com/fr/hotel-2315-formule-1-hotelf1-chalon-sur-saone-nord/index.shtml",,"Hôtels","1 étoile (hôtel), 1 étoile (nouveau classement)","64.0","64.0","64",,,,,,"hotelF1",,,,,,,,,,,,,,,,"Randonnée voie verte",,,,"0","0",,,,,,,,,,,,
"63","Hôtel Formule 1",,"Hôtel Formule 1","RN80",,,"71210","Écuisses","46,7463297","4,5196465","40049590900014",,"B400495909",,,"08 91 70 53 20",,,,"http://www.hotelformule1.com",,"Hôtels","1 étoile (hôtel), 1 étoile (nouveau classement)","61.0","61.0","61",,,"3.0",,,"hotelF1","Établissement ouvert 7 jours sur 7. Chambres pour 1, 2 ou 3 personnes. ","Ouvert toute l'année.",,,,,,,,,,,,,,,,,,"0","0",,,,,,,,,,,,
"64","Hôtel Greuze","http://www.bourgogne-du-sud.com/images/bdd/photos/100083/1/146297.jpg","Hôtel Greuze","12, avenue Gambetta",,,"71700","Tournus","46,5645725","4,9078488","33262943500014","551C","332629435",,,"03 85 51 77 77",,"03 85 51 77 23","mailto: contact@hotelgreuze.fr","http://www.hotelgreuze.fr",,"Hôtels","4 étoiles (hôtel), 4 étoiles (nouveau classement)","21.0","21.0","21",,"3.0","1.0","1.0",,,"Chambres insonorisées et décorées chacune dans un style différent.","Ouvert toute l'année.","Anglais","Oui",,,"Oui","8.0","30.0","1/2 double offerte pour 20 personnes payantes.","Oui",,"Accès Internet, Câble/ satellite, Canal +, Climatisation, Mini-bar, Télévision, Wifi","Ascenseur, Bar, Jardin, Local matériel fermé, Parking privé","Coffres clients, Service en chambre",,,,,"0","0",,,,,,,,,,,,
"65","Hôtel Grill Campanile",,"Hôtel Grill Campanile","Rue Raoul Ponchon - Le Champ Fleuri",,,"71100","Chalon-sur-Saône","46,793275","4,833535","35148510700020","551A","351485107",,,"03 85 41 23 24",,"03 85 46 71 43",,,,"Hôtels - restaurant","3 étoiles (nouveau classement), 3 étoiles (hôtel)","76.0","76.0","76",,,,"1.0",,"Campanile","Hôtel situé à proximité de l'autoroute où la campagne est reine. Nous offrons dans les chambres plateau courtoisie, TV canal+, canal-satellite. La plupart des chambres donnent sur les jardins fleuris et vous apportent ainsi la tranquillité pendant votre séjour. Activités sportives sur demande (natation, squash : gratuit).",,,,,,,,,,,,,"Restaurant",,,,,,"0","0",,,,,,,,,,,,
"66","""Hôtel Ibis Europe - Restaurant """"Le Gourmand""""""","http://www.bourgogne-du-sud.com/images/bdd/photos/100083/1/146217.jpg","""Hôtel Ibis Europe - Restaurant """"Le Gourmand""""""","2, rue Georges Feydeau",,,"71100","Chalon-sur-Saône","46,793958","4,8344721","37928868100024","551A","379288681",,,"03 85 41 04 10",,"03 85 41 04 11","mailto: H1565@accor.com","http://www.hotel-ibis-chalon.com",,"Hôtels - restaurant","3 étoiles (hôtel), 3 étoiles (nouveau classement)","86.0","86.0","86","2.0",,"4.0","4.0","Bourgogne Séminaires","Ibis","Ouvert depuis avril 1992. Confort, accueil 24/24h. 86 chambres climatisées, insonorisées, équipées de bains, wc, télévision, canal +, satellite, radio-réveil, téléphone direct, restaurant-bar, piscine, billard, salons et terrasse.",,"Anglais","Oui","Oui","Oui","Oui","25.","100.","1 gratuité en demi double pour 25 personnes payantes",,,"Accès Internet","Restaurant","Wifi","Piscine plein-air",,"74.0","89.0","110","110",,,,"9.0",,,,,,,,
"67","Hôtel Ibis Nord","http://www.bourgogne-du-sud.com/images/bdd/photos/HOTBOU0710000280.jpg","Hôtel Ibis Nord","Carrefour des Moirots",,,"71100","Chalon-sur-Saône","46,7983621","4,8387685","38782709000029","551C","B387827090",,,"03 85 46 64 62",,"03 85 46 39 17","mailto: H0608@accor.com",,,"Hôtels","3 étoiles (hôtel), 3 étoiles (nouveau classement)","60.0","60.0","60",,,"1.0",,"Qualité Tourisme","Ibis","Tourisme, affaires ou loisirs. Accueil convivial. Chambres climatisées, équipées d'une salle de bains complète, d'un téléphone direct, de TV avec canal+ et chaînes européennes. Réception à votre disposition 24h/24. Parking gratuit. Accès Wifi. Restaurant à proximité.",,,,,,,,,,,,,,,,,,,"0","0",,,,,,,,,,,,
"68","Hôtel Ibis Styles Mâcon Centre","http://www.bourgogne-du-sud.com/images/bdd/photos/100083/1/146259.jpg","Hôtel Ibis Styles Mâcon Centre","91, rue Victor Hugo",,,"71000","Mâcon","46,3035131","4,8269844","68625004400019","551A","62B4",,,"03 85 39 17 11",,"03 85 38 02 75","mailto: h6853@accor.com","http://www.ibis.com/fr/hotel-6853-ibis-styles-macon-centre-ex-all-seasons/index.shtml","http://www.ibis.com/fr/hotel-6853-ibis-styles-macon-centre-ex-all-seasons/index.shtml","Hôtels","3 étoiles (hôtel), 3 étoiles (nouveau classement)","49.0","49.0","49","5.0",,"1.0","1.0","Qualité Tourisme","Ibis Styles","Petit-déjeuner + wifi illimité inclus dans tous les prix du Ibis Styles Mâcon Centre. Idéalement situé entre Bourgogne et Beaujolais, au centre ville de Mâcon à 50 mètres de la gare de Mâcon, à 10 minutes de la gare TGV Mâcon Loché, à 45 minutes de l'aéroport de Lyon Saint-Exupéry. Notre ","Ouvert toute l'année.","Anglais, Français","Oui",,"Oui","Oui","20.","40.0",,,"Chèques Vacances","Accès Internet, Câble/ satellite, Canal +, Climatisation, Télévision, Wifi","Bar, Ascenseur, Garage privé, Parking privé, Jardin","Coffres clients, Wifi","Piscine plein-air",,"90.0","114.","110","127",,,,,,,,,,,,
"69","Hôtel Ibis Styles Mâcon Saint-Albain / La Salle","http://www.bourgogne-du-sud.com/images/bdd/photos/0/1/146281.jpg","Hôtel Ibis Styles Mâcon Saint-Albain / La Salle","Aire de Mâcon Saint-Albain Autoroute A6",,,"71260","Saint-Albain","46,4235936","4,8669843","37945523100371","5510Z",,,,"03 85 27 11 00",,"03 85 33 13 13","mailto: H0554@accor.com","http://www.accorhotels.com/fr/hotel-0554-all-seasons-macon-saint-albain-la-salle/index.shtml#","http://www.accorhotels.com/fr/hotel-0554-all-seasons-macon-saint-albain-la-salle/index.shtml","Hôtels - restaurant","3 étoiles (hôtel), 3 étoiles (nouveau classement)","70.0","70.0","70","62.",,"3.0","5.0","Qualité Tourisme","Ibis Styles","A 3 kilomètres du golf de Mâcon La Salle et du vignoble de Viré Clessé. Hôtel rénové, climatisé, insonorisé. Chambres spacieuses pouvant toutes accueillir de 1 à 4 personnes. Groupes, séminaires. Terrasse et piscine.","Ouvert toute l'année.","Anglais, Allemand, Italien, Espagnol, Portugais","Oui","Oui","Oui","Oui","15.","180.","1 gratuité pour 20 personnes payantes.","Oui","Chèques Vacances","Accès Internet, Câble/ satellite, Canal +, Climatisation, Télévision","Ascenseur, Garage privé, Jardin, Parking privé, Restaurant","Coffres clients, Service en chambre","Piscine plein-air",,"87.0","138.","117","127",,,,,"102.0","143.0","102.0","143.0","35.0","40.0","45.0","65.0"
"70","Hôtel International Les Ursulines - Restaurant Gourmet - Centre de Séminaires","http://www.bourgogne-du-sud.com/images/bdd/photos/100083/1/146195.jpg","Hôtel International Les Ursulines - Restaurant Gourmet - Centre de Séminaires","14, rue Rivault",,,"71400","Autun","46,9436","4,29846","48436075500017","551 OZ","484360755",,"Habilitation 071 050001","03 85 86 58 58",,"03 85 86 23 07","mailto: welcome@hotelursulines.fr","http://www.hotelursulines.fr",,"Hôtels - restaurant","3 étoiles","37.0","43.0","37","3.0","5.0","1.0","6.0","Bourgogne Séminaires, Qualité Tourisme","Châteaux et Hôtels Collection","Ville d'Autun, centre géographique de la Bourgogne. 300 sites à visiter dans un rayon de 150 kilomètres. L'hôtel International Les Ursulines est un ancien couvent du 17ème siècle et se situe au centre de la vieille ville, près de la cathédrale, en haut des remparts romains. Bien que l'hôtel soit en ville, il a une vue de campagne très reposante. Ses jardins à la française et son immense terrasse plein Sud offrent une vue panoramique sur la campagne et les monts du Morvan. Très calme. L'ancienne chapelle 18ème siècle accueille dîners, réceptions, mariages, séminaires, concerts. Dîner sur terrasse en été face au coucher de soleil. Progressivement, la Direction rénove les lieux, hall, couloirs et chambres selon les normes les plus récentes et avec le goût d'un hôtel de charme.","Ouvert toute l'année.","Anglais, Allemand, Italien, Espagnol","Oui","Oui","Oui","Oui","15.","100.","1 gratuité pour 21 personnes payantes. Voir offres en périodes promotionnelles. Contact : commercial@hotelursulines.fr","Oui","Chèques Vacances","Accès Internet, Câble/ satellite, Climatisation, Mini-bar, Télévision, Wifi","Ascenseur, Bar, Garage privé, Jardin, Local matériel fermé, Parc, Restaurant","Service en chambre, Coffres clients","Animation","Animations internes et externes selon vos groupes et vos objectifs de communication. Exemple : construction de tonneaux en équipes - cours d'oenologie - cours de cuisine - visite du Château de Pommard et dégustation - visite de vignes en Jeep, VTT, quad, montgolfière, hélicoptère.","81.0","185.","91","0","137.","205.","12.0","12.0",,"138.5","89.0",,"58.0","63.0","87.0","113.0"
"71","Hôtel Kyriad - SAS Hôtel Saint-Hubert","http://www.bourgogne-du-sud.com/images/bdd/photos/100083/1/146214.jpg","Hôtel Kyriad - SAS Hôtel Saint-Hubert","35, place de Beaune","BP 30545",,"71323","Chalon-sur-Saône","46,7852047","4,8551788","34150145000017","551OZ","87B157",,,"03 85 90 08 00",,"03 85 90 08 01","mailto: kyriad.chalon@wanadoo.fr","http://www.kyriad.fr",,"Hôtels","3 étoiles (hôtel), 3 étoiles (nouveau classement)","43.0","43.0","43","3.0","3.0",,,"Tour de Bourgogne à vélo","Kyriad","Un avant goût de la convivialité en Bourgogne. Charmante maison du centre ville qui abrite 43 chambres joliment décorées, au calme pour la plupart et côté cour. Caveau bourguignon pour repas groupes.","Ouvert toute l'année.","Anglais, Allemand","Oui","Oui","Oui","Oui","20.","50.0","1 personne gratuite sur la base d'une chambre double (soit 1/2 gratuite pour 20 personnes payantes).","Oui","Chèques Vacances","Accès Internet, Câble/ satellite, Canal +, Climatisation, Mini-bar, Télévision, Wifi","Bar, Garage privé","Service en chambre","Sauna, Randonnée voie verte",,"76.0","82.0","110","110",,,"8.5","8.5",,,"85.0","95.0","35.0","37.0","53.0","56.0"
"72","Hôtel La Crémaillère",,"Hôtel La Crémaillère",,,,"71320","Toulon-sur-Arroux","46,6942265","4,1388127",,,,,,"03 85 79 42 32",,,,,,"Hôtels","Sans étoile","9.0",,"9",,,,,,,,,,,,,,,,,,,,,,,,,,"0","0",,,,,,,,,,,,
"73","Hôtel La Grange Fleurie","http://www.bourgogne-du-sud.com/images/bdd/photos/_163277.jpg ","Hôtel La Grange Fleurie","Le Bourg",,,"71520","Tramayes","46,3069","4,59806","42088882800019",,"420888828",,,"03 85 50 59 36",,,"mailto: grangefleurie@wanadoo.fr","http://www.lagrangefleurie.fr",,"Hôtels","Sans étoile","8.0","8.0","8","2.0","1.0","2.0","1.0",,,"La Grange Fleurie, située en bordure du village de Tramayes, à 460 mètres d'altitude, jouit d'un panorama époustouflant sur la vallée du Valouzin et les versants boisés du mont de La Mère Boitier. Elle se trouve aussi sur la route des pèlerins de Saint-Jacques de Compostelle, la Route des Vins et proche de la Voie Verte. La Grange Fleurie, dont la récente restauration n'a pas altéré le charme rustique de cette demeure de 1837, toute en pierre et bois, vous offre un choix de six grandes chambres avec salle de bains, toutes joliment décorées selon un thème floral différent et un appartement de deux chambres, spécialement aménagé pour accueillir des personnes à mobilité réduite. Un salon de 80 m² vous attend le matin pour le petit-déjeuner ou en fin de journée pour vous détendre.","Ouvert toute l'année.","Anglais, Allemand","Oui","Oui",,"Oui","5.0","20.0",,"Non","Chèques Vacances","Wifi","Restaurant",,,,"50.0","55.0","50","80","55.0","100.","7.5","10.0","61.0","61.0",,,,,,
"74","Hôtel La Mirandole","http://www.bourgogne-du-sud.com/images/bdd/photos/100083/1/146298.jpg","Hôtel La Mirandole","Avenue du Clos Mouron",,,"71700","Tournus","46,5742","4,90426",,"En cours",,,,"03 85 51 23 86",,"03 85 51 25 26",,,,"Hôtels","2 étoiles","20.0","16.0","16","5.0",,"2.0",,,,"A la sortie de l'autoroute (sortie 27) et à l'entrée de la ville de Tournus, l'hôtel vous accueille dans ses 16 chambres en accès de plain-pied directement sur un jardin et parking privé. Piscine, wifi, bain, douche, toilette, télévision, téléphone avec prise modem. Nombreux restaurants à proximité. Ambiance familiale. Animaux acceptés.","Ouvert toute l'année.","Anglais","Oui","Oui","Oui","Oui","10.","20.0","Sur devis.",,"Chèques Vacances","Télévision, Accès Internet, Wifi","Jardin, Local matériel fermé, Parc","Service en chambre, Wifi","Piscine plein-air",,"48.0","51.0","56","68",,,"6.9",,,,,,,,,
"75","Hôtel Le Clos des Tourelles","http://www.bourgogne-du-sud.com/images/bdd/photos/100083/1/163914.jpg",,"4, rue de la République",,,"71240","Sennecey-le-Grand","46,6366852","4,8697677",,,,,,"03 85 44 83 95",,"03 85 44 90 18","mailto: info@leclosdestourelles.fr","http://www.leclosdestourelles.fr",,"Hôtels","3 étoiles","10.0","10.0","10","2.0","1.0",,"2.0","Qualité Tourisme","Châteaux et Hôtels Collection","Bienvenue au Clos des Tourelles, château alliant l'authenticité d'une maison d'hôtes au confort d'un hôtel de charme, situé au milieu d'un grand parc, sur un site exceptionnel. Dix chambres de prestige, de vastes salons, une piscine et un jacuzzi en plein air.","Ouvert toute l'année.","Anglais","Oui","Oui","Oui","Oui",,,,"Oui","Chèques Vacances","Climatisation","Parking privé",,"Piscine plein-air, Jacuzzi",,"60.0","160.","120","127","190.","220.","12.0","14.0",,,,,,,,
"76","Hôtel Le Kolibri","http://www.bourgogne-du-sud.com/images/bdd/photos/100083/1/146393.jpg","Hôtel Le Kolibri","SARL Starroma","Rue Georges Mazoyer",,"71700","Tournus","46,5761","4,89967","40497681300034","5510Z","404976813",,,"03 85 51 96 60",,"03 85 32 16 90","mailto: kolibri3@wanadoo.fr","http://www.hotelkolibri.com",,"Hôtels","2 étoiles","30.0","30.0","30","2.0",,"2.0","1.0",,,"Situé à proximité de la sortie d'autoroute A6, le nouvel hôtel Le Kolibri de Tournus vous accueille dans son cadre agréable et chaleureux. L'hôtel est composé de 30 chambres spacieuses et insonorisées, équipées de la ",,"Anglais, Espagnol","Oui",,"Oui","Oui","10.","60.0",,"Non","Chèques Vacances","Accès Internet, Canal +, Climatisation, Télévision, Wifi","Local matériel fermé, Parking privé",,,,"61.0",,"81","0",,,,"8.0",,,,"66.0",,"37.0",,
"77","Hôtellerie du Val d'Or","http://www.bourgogne-du-sud.com/images/bdd/photos/100083/1/146267.jpg","Hôtellerie du Val d'Or","140, grande rue",,,"71640","Mercurey","46,8363788","4,7173139","43775097900019","5510Z","437750979",,,"03 85 45 13 70",,"03 85 45 18 45","mailto: contact@le-valdor.com","http://www.le-valdor.com",,"Hôtels - restaurant","3 étoiles (hôtel), 3 étoiles (nouveau classement)","12.0","12.0","12","2.0",,,"1.0","Qualité Tourisme, Tables et Auberges de France",,"Grande hôtellerie de village. Ancien relais de poste. Parking. Jardin de repos. Terrasse. Wifi (gratuit).",,"Anglais","Oui","Oui",,"Oui",,"55.0",,,"Chèques Vacances","Accès Internet, Câble/ satellite, Climatisation, Télévision, Wifi","Bar, Garage privé, Jardin, Parking privé, Restaurant","Location ou prêt de vélos/VTT",,,,,"0","0",,,,,,,,,,,,
"78","Hôtel Le Saint-Rémy","http://www.bourgogne-du-sud.com/images/bdd/photos/0/H/HOTBOU0710000391.jpg","Hôtel Le Saint-Rémy","89, rue Auguste Martin",,,"71100","Saint-Rémy","46,7726605","4,8325229","39056505900016","551OZ",,,,"03 85 48 38 04",,"03 85 93 68 56","mailto: hotel.saint.remy@wanadoo.fr","http://www.lesaintremy.com",,"Hôtels","2 étoiles (nouveau classement), 2 étoiles (hôtel)","31.0","31.0","31","6.0",,,"1.0","Qualité Tourisme, Tour de Bourgogne à vélo","Contact Hôtel","Bâtiment indépendant sur 1 000 m², entièrement rénové, tout confort. A 5 minutes des grands axes et de Chalon-sur-Saône. A proximité de la Voie Verte. Très calme. Salles climatisées. Wifi. Groupement Contact Hôtel. 260 hôtels indépendants à votre service. Votre 12ème nuit remboursée dans tout le réseau. Carte de fidélité permanente.","Fermé du 02/08/2013 au 18/08/2013 et du 22/12/2013 au 05/01/2014.","Anglais","Oui","Oui","Oui","Oui","10.","56.0","5 % de remise sur la facture totale et gratuité pour le chauffeur.","Oui","Chèques Vacances","Accès Internet, Câble/ satellite, Canal +, Wifi, Télévision","Bar, Garage privé, Jardin, Local matériel fermé, Parc, Parking privé","Service en chambre","Randonnée voie verte",,"57.0","62.0","67","74",,,"7.0","7.0",,,"67.0","67.0","34.0","34.0",,
"79","Hôtel Le Sauvage","http://www.bourgogne-du-sud.com/images/bdd/photos/HOTBOU0710000418.jpg","Hôtel Le Sauvage","15, place du Champ de Mars",,,"71700","Tournus","46,5640042","4,9083325","80708005600011","551A","B807080056",,,"03 85 51 14 45",,"03 85 32 10 27","mailto:hotel.le-sauvage@orange.fr","http://www.hotel-le-sauvage.fr","http://ldf.reservit.com/reservit/reserhotel.php?id=12&partid=378&hotelid=775","Hôtels","3 étoiles (hôtel), 3 étoiles (nouveau classement)","28.0","28.0","28",,,,"1.0",,,"Hôtel traditionnel. Accueil familial. Restaurant offrant un vaste choix à la carte ainsi que divers menus alliant spécialités traditionnelles et spécialités maison.",,"Anglais",,,,"Oui",,"60.0",,,,,"Ascenseur, Bar, Parking privé","Service en chambre",,,"68.0","71.0","0","0",,,,,,,,"94.0",,,,
"80","Hôtel Les Jacobines",,"Hôtel Les Jacobines","10, rue des Jacobines",,,"71100","Chalon-sur-Saône","46,7844954","4,8558014","499646545","551C","2007B360",,,"03 85 48 12 24","06 72 77 37 43","03 85 48 84 86","mailto: duloquin.nathalie@wanadoo.fr","http://www.hotel-lesjacobines.com",,"Hôtels","1 étoile (nouveau classement), 1 étoile (hôtel)","23.0","23.0","23",,,,,,,"23 chambres en centre. Situation tranquille et calme. Accueil chaleureux.","Fermé du 15/08 au 30/08.","Anglais","Oui",,,,,,,,"Chèques Vacances","Accès Internet, Télévision","Parking privé","Wifi",,,"36.0","65.0","50","65",,,"6.5","6.5",,,"59.0","59.0",,,,
"81","Hôtel Le Téméraire",,"Hôtel Le Téméraire","3, avenue Joanny Furtin",,,"71120","Charolles","46,4362987","4,2796089","31973900900011","551A",,,,"03 85 24 06 66","06 85 52 58 69","03 85 24 05 54","mailto: guinet.suzanne@wanadoo.fr",,,"Hôtels","2 étoiles","10.0","10.0","10",,,,,,,"Les chambres coquettes et de grand confort sont insonorisées et toutes équipées de télévision, téléphone direct, salle de bains. Petit-déjeuner servi dans une salle plaisante. Soirée étape, V.R.P.",,,,,,,,,,,,,,,,,,,"0","0",,,,,,,,,,,,
"82","Hôtel Le Val de Joux",,"Hôtel Le Val de Joux","Place du Champ de Foire",,,"71220","Saint-Bonnet-de-Joux","46,4818659","4,4387736",,,,,,"03 85 24 79 21",,,,,,"Hôtels",,"5.0",,"5",,,,,,,,,,,,,,,,,,,,,,,,,,"0","0",,,,,,,,,,,,
"83","Hôtel Mâcon La Salle","http://www.bourgogne-du-sud.com/images/bdd/photos/HOTBOU0710000470.jpg","Hôtel Mâcon La Salle","Autoroute A6","Aire de Mâcon La Salle",,"71260","Saint-Albain","46,02587","4,724994",,,,,,"03 85 22 79 82",,"09 70 06 93 33",,"www.hotelmaconlasalle.fr","Réception: 03 85 22 79 82","Hôtels","1 étoile (nouveau classement), 1 étoile (hôtel)","57.0","47.0","57","12.",,"3.0",,,,"Hotel économique 1 étoile, toutes nos chambres pour 1 , 2 ou 3 personnes sont équipées de douches et toilettes privatives , tv avec TNT , des chambres familiales pouvant accueillir jusqu'à 5 personnes , un parking privatif et un espace canin sont également à votre disposition gratuitement , un café d'accueil vous est offert tous les jours entre 18h et 22h ","Hotel ouvert 7j/7j","Anglais, Français","Oui","Oui",,"Oui","10.","80.0",,,,"Accès Internet","Parking privé","Wifi",,,"50.0","60.0","0","127",,,"3.0","6.5",,,,,,,,
"84","Hôtel Première Classe",,"Hôtel Première Classe","Le Champ Fleuri - Rue Raoul Ponchon",,,"71100","Chalon-sur-Saône","46,793275","4,833535","44447932300016","551A","444479323",,,"03 85 43 25 12",,"03 85 43 26 63",,,,"Hôtels","1 étoile (nouveau classement), 1 étoile (hôtel)","71.0","71.0","71",,,,,,"Première Classe",,,,,,,,,,,,,,,,,,,,"0","0",,,,,,,,,,,,
"85","Hôtel Première Classe Mâcon Sud","http://www.bourgogne-du-sud.com/images/bdd/photos/100083/1/146376.jpg","Hôtel Première Classe Mâcon Sud","114, rue de Bresse","ZAC des Bouchardes",,"71570","Chaintré","46,2559","4,79136","48106094500013","551",,,,"08 92 70 71 46, 03 85 36 55 70",,"03 85 37 49 50","mailto: hotelpremiereclassechaintre@wanadoo.fr","http://www.premiereclasse.fr",,"Hôtels","1 étoile (hôtel), 1 étoile (nouveau classement)","50.0","50.0","50",,,"2.0",,,"Première Classe, Campanile, Kyriad","A Mâcon sud, axe Crèches-sur-Saône, direction Lyon, hôtel entièrement rénové, climatisé, idéalement situé sur la RN6. Profitez du meilleur prix garanti. Sur le parking du Campanile Mâcon sud (restauration). A proximité des grands axes autoroutiers.","Ouvert toute l'année.","Anglais","Oui",,"Oui","Oui","20.","130.",,,"Chèques Vacances","Câble/ satellite, Canal +, Climatisation, Télévision","Parking privé, Restaurant",,,,"42.0","50.0","0","0",,,"4.8","4.8",,,"62.0","70.0","25.0","30.0","40.0","48.0"
"86","""Hôtel-Restaurant """"Le F-Commerce""""""","http://www.bourgogne-du-sud.com/images/bdd/photos/HOTBOU0710000533.jpg","""Hôtel-Restaurant """"Le F-Commerce""""""","1, rue Nationale",,,"71420","Génelard","46,5806958","4,2355088","45262978500018","551A","452629785",,,"03 85 79 20 87",,,,,,"Hôtels - restaurant","Sans étoile","6.0","6.0","6",,,,,,,,,,"Oui",,"Oui","Oui","8.0","16.0",,,,"Télévision","Bar, Garage privé, Parking privé, Restaurant",,,,,,"0","0",,,,,,,,,,,,
"87","""Hôtel-Restaurant """"Le Moulin de Saint-Vérand""""""",,"""Hôtel-Restaurant """"Le Moulin de Saint-Vérand""""""","La Roche",,,"71570","Saint-Vérand","46,2539926","4,7422997","53011934600019","5510Z",,,,"03 85 23 90 90",,"03 85 23 90 91","mailto: direction@moulindesaintverand.fr","http://www.moulindesaintverand.fr",,"Hôtels - restaurant","3 étoiles (nouveau classement), 3 étoiles (hôtel)","15.0","15.0","15","3.0",,,"1.0","Logis, Qualité Tourisme","Logis","Blottie entre les vignobles du Mâconnais et du Beaujolais, l'auberge vous accueille dans un cadre chaud et rustique. Cuisine traditionnelle et choix des vins des propriétaires alentours. Terrasses et parcs ombragés avec jeux enfants, piscine. Wifi.",,"Anglais, Portugais","Oui","Oui","Oui","Oui",,"70.0",,,"Chèques Vacances","Accès Internet, Télévision, Wifi","Jeux pour enfants, Local matériel fermé, Parc, Parking privé, Restaurant",,"Piscine plein-air",,"72.0","94.0","97","127",,,"12.0","12.0","78.0","89.0","80.0","85.0",,,,
"88","""Hôtel-Restaurant """"Le Relais de Saint-Julien""""""","http://www.bourgogne-du-sud.com/images/bdd/photos/100083/2/220028.jpg","""Hôtel-Restaurant """"Le Relais de Saint-Julien""""""","Le Bourg",,,"71110","Saint-Julien-de-Jonzy","46,2361829","4,144076",,,,,,"03 85 84 01 95",,"03 85 84 14 61","mailto: lerelaisdestjulien@orange.fr","http://www.le-relais-de-saint-julien.com","http://reservation-hotel.logishotels.com/reservit/avail-info.php?userid=3017f333bbef0c9f71efe903236","Hôtels - restaurant","2 étoiles (hôtel), 2 étoiles (nouveau classement)","9.0","9.0","9",,,,,"Logis, Qualité Tourisme","Logis",,,,,,,,,,,,,,"Restaurant",,,,"41.0","50.0","55","64",,,"7.5",,"63.0","77.0","63.0","77.0",,,,
"89","""Hôtel-Restaurant """"Les Jardins de la Saône""""""","http://www.bourgogne-du-sud.com/images/bdd/photos/HOTBOU0710000550.jpg","""Hôtel-Restaurant """"Les Jardins de la Saône""""""","Rive Gauche - Quai Georges Bardin",,,"71700","Tournus","46,5706241","4,9149959","40285272700013",,,,,"03 85 51 20 65",,,"mailto: lesjardinsdelasaone@orange.fr","http://www.lesjardinsdelasaone.fr",,"Hôtels - restaurant","2 étoiles","12.0","12.0","12",,,,,,,"En bord de Saône, hôtel calme, avec vue panoramique sur la ville de Tournus. Parc. 12 chambres face à la Saône et au parc. Spécialités régionales. Nouveauté 2010 : guinguette dans le parc du 1er avril au 30 septembre.",,,"Oui",,"Oui","Oui","10.","30.0",,,,,"Bar, Jardin, Parc, Parking privé, Restaurant",,,,,,"0","0",,,,,,,,,,,,
"90","Hôtel-Restaurant Akena","http://www.bourgogne-du-sud.com/images/bdd/photos/100083/1/146264.jpg","Hôtel-Restaurant Akena","4, rue de la Liberté",,,"71000","Mâcon","46,3163487","4,8231341","33780295300014","551016",,,,"03 85 29 02 50",,"03 85 34 19 97","mailto: relaismacon71@hotels-akena.com","http://www.hotels-akena.com",,"Hôtels - restaurant","2 étoiles","76.0","64.0","64","2.0",,,"5.0",,,"""Un établissement proche du centre ville. Quatre salles de séminaire/banquet équipées. Piscine, parking, bar, salon... Un restaurant ouvert tous les jours avec sa formule """"buffet à volonté"""" et """"wok"""".""","Ouvert toute l'année.","Anglais, Espagnol, Français","Oui","Oui","Oui","Oui","20.","150.","Une gratuité pour 20 personnes payantes.","Oui",,"Télévision, Câble/ satellite, Télévision, Wifi","Restaurant",,"Piscine plein-air",,"52.0","54.0","87","91",,,"6.0",,,,,,"29.0","31.0","53.0","55.0"
"91","Hôtel-Restaurant Auberge de la Tour","http://www.bourgogne-du-sud.com/images/bdd/photos/HOTBOU0710000339.jpg","Hôtel-Restaurant Auberge de la Tour","604, rue Vremontoise",,,"71000","Sennecé-les-Mâcon","46,3575947","4,8328734","99845760000018","551A","B998457600",,,"03 85 36 02 70",,"03 85 36 03 47","mailto: aubergedelatour@wanadoo.fr","http://www.auberge-tour.fr","http://ldf.reservit.com/reservit/reserhotel.php?id=12&partid=378&hotelid=462","Hôtels - restaurant","2 étoiles","23.0","24.0","23","5.0",,,"1.0","Qualité Tourisme, Logis","Logis","Une auberge familiale et conviviale à la campagne à une minute de Mâcon Nord, sortie n°28 sur l'A6 et à 5 minutes du centre-ville de Mâcon. Feu de bois, terrasse, cuisine soignée. Hôtel au confort Logis de France 3 cheminées.",,"Anglais, Allemand, Portugais","Oui",,"Oui",,,,,,"Chèques Vacances","Accès Internet, Câble/ satellite, Mini-bar, Télévision","Bar, Jardin, Jeux pour enfants, Local matériel fermé, Parc, Parking privé, Restaurant","Service en chambre",,,,,"0","0",,,,,,,,,,,,
"92","Hôtel-Restaurant Au Puits Enchanté","http://www.bourgogne-du-sud.com/images/bdd/photos/HOTBOU0710000389.jpg","Hôtel-Restaurant Au Puits Enchanté","Route de Verdun","1, place René Cassin",,"71620","Saint-Martin-en-Bresse","46,8179566","5,060623","34512055400018","6708",,,,"03 85 47 71 96",,"03 85 47 74 58","mailto: chateau.jacky@wanadoo.fr","http://www.aupuitsenchante.com","http://ldf.reservit.com/reservit/reserhotel.php?id=12&partid=378&hotelid=2100","Hôtels - restaurant","2 étoiles","14.0","13.0","13","1.0",,,"1.0","Qualité Tourisme, Logis","Logis","Chaleureuse maison familiale nichée dans un petit village de la Bresse Bourguignonne. Traditions, terroirs et belles caves vous sont proposés au restaurant. Chambres avec téléphone, réveil, télévision. Parking privé et fermé.","Fermé du 02/01/2011 au 21/01/2011, du 13/03/2011 au 18/03/2011, du 18/09/2011 au 27/09/2011 et du 20/11/2011 au 29/11/2011 et fermé le lundi et le mardi.","Anglais, Allemand","Oui",,"Oui","Oui","20.","20.0",,"Oui","Chèques Vacances","Accès Internet, Télévision","Bar, Jardin, Parking privé, Restaurant","Service en chambre",,,"56.0","65.0","78","78",,,"9.0",,"55.0","58.0","61.0",,"35.0","42.0","54.0","61.0"
"93","Hôtel-Restaurant Aux Terrasses","http://www.bourgogne-du-sud.com/images/bdd/photos/100083/1/146372.jpg","Hôtel-Restaurant Aux Terrasses","18, avenue du 23 Janvier",,,"71700","Tournus","46,5592313","4,9145088","4486146850015","551A","79A44",,,"03 85 51 01 74",,"03 85 51 09 99","mailto: courrier@aux-terrasses.com","http://www.aux-terrasses.com","http://ldf.reservit.com/reservit/reserhotel.php?id=12&partid=378&hotelid=1047","Hôtels - restaurant","2 étoiles","18.0","25.0","18","7.0","1.0","1.0","1.0","Qualité Tourisme, Logis",,"Pour prolonger votre séjour parmi nous, nous vous proposons nos 18 chambres contemporaines et colorées. Toutes différentes, elles vous offriront en solo, en couple ou en famille tout le confort moderne : téléphone, sèche-cheveux, télévision écran LCD, satellite et chaînes étrangères, climatisation, WIFI gratuit et illimité.",,"Anglais","Oui","Oui","Non","Oui",,"40.0",,,"Chèques Vacances","Accès Internet, Climatisation, Télévision, Câble/ satellite, Wifi, Mini-bar","Bar, Jardin, Parking privé, Restaurant, Ascenseur","Coffres clients, Wifi",,,"75.0","190.","120","127","190.","250.","15.0","15.0",,,,,,,,
"94","Hôtel-Restaurant Aux Vendanges de Bourgogne","http://www.bourgogne-du-sud.com/images/bdd/photos/100083/1/146275.jpg","Hôtel-Restaurant Aux Vendanges de Bourgogne","5, rue Denis Papin",,,"71600","Paray-le-Monial","46,451736","4,1235864","43854732500011","551A",,,,"03 85 81 13 43",,"03 85 88 87 59","mailto: hotel.vendanges.de.bourgogne@wanadoo.fr","http://www.auxvendangesdebourgogne.fr","http://ldf.reservit.com/reservit/reserhotel.php?id=12&partid=378&hotelid=2503","Hôtels - restaurant","2 étoiles (nouveau classement), 2 étoiles (hôtel)","17.0","17.0","17","3.0","1.0",,"2.0","Qualité Tourisme, Logis, Tour de Bourgogne à vélo","Logis","Situé à cinq minutes à pied du centre ville et de la basilique, le long du canal du Centre et de la Voie Verte. Cadre entièrement rénové, avec à votre disposition un parking, garage fermé et une terrasse d'été. Wifi gratuit.",,"Anglais, Espagnol","Oui","Oui","Oui","Oui","15.","30.0","1 gratuité pour 20 personnes payantes.",,"Chèques Vacances","Accès Internet, Canal +, Télévision, Câble/ satellite, Wifi","Bar, Garage privé, Jardin, Jeux pour enfants, Parking privé, Restaurant",,,,"56.0","60.0","66","127","130.","180.","8.0","10.0","67.0","80.0","61.0","75.0",,,,
"95","Hôtel-Restaurant Best Hotel","http://www.bourgogne-du-sud.com/images/bdd/photos/HOTBOU0710000413.jpg","Hôtel-Restaurant Best Hotel","20, rue de la Madone",,,"71000","Sancé","46,3333334","4,8420354","38397657800013","6708",,,,"03 85 39 09 26",,"03 85 38 99 79","mailto: besthotel.macon@wanadoo.fr","http://www.besthotel.fr",,"Hôtels - restaurant","2 étoiles","34.0","38.0","34","4.0",,"2.0",,,"Best Hotel","Hôtel** traditionnel avec un très bon rapport qualité/prix. Proche des commerces et à 3 minutes de la sortie d'autoroute.","Ouvert toute l'année.",,,,,,,,,,,,"Restaurant",,,,,,"0","0",,,,,,,,,,,,
"96","Hôtel-Restaurant Campanile",,"Hôtel-Restaurant Campanile",,"ZAC des Bouchardes",,"71570","Chaintré","46,2607969","4,7591383","34075290600016","6708",,,,"03 85 23 98 88",,"03 85 37 45 55",,"http://www.campanile.fr",,"Hôtels - restaurant","2 étoiles (nouveau classement), 2 étoiles (hôtel)","41.0","41.0","41",,,,,,"Campanile",,,,,,,,,,,,,,"Restaurant",,,,,,"0","0",,,,,,,,,,,,
"97","Hôtel-Restaurant Campanile Mâcon Nord",,"Hôtel-Restaurant Campanile Mâcon Nord","Rue des Grandes Teppes","ZAC de Sennecé",,"71000","Sennecé-les-Mâcon","46,3613831","4,8457298",,,"B352641419",,,"03 85 23 81 00",,"03 85 37 52 40","mailto: macon.sennece@campanile.fr","http://www.campanile.fr",,"Hôtels - restaurant","3 étoiles (nouveau classement), 3 étoiles (hôtel)","49.0","49.0","49",,,,,,"Campanile",,,,,,,,,,,,,,"Restaurant",,,,,,"0","0",,,,,,,,,,,,
"98","Hôtel-Restaurant Charme en Mâconnais",,"Hôtel-Restaurant Charme en Mâconnais",,"ZA de Sennecé",,"71000","Sennecé-les-Mâcon","46,3620458","4,8338665","41146854900026","551A","A411468549",,,"03 85 23 84 84",,"03 85 37 58 25",,,,"Hôtels - restaurant","2 étoiles","40.0","40.0","40",,,,,"Qualité Tourisme","Citotel","Idéalement situé sur l'axe nord/sud, l'hôtel-restaurant vous offre toute l'année, 24h/24, la tradition de l'accueil familial et le confort de l'hôtellerie moderne.",,,,,,,,,,,,,"Restaurant",,,,,,"0","0",,,,,,,,,,,,
"99","Hôtel-Restaurant de Bourgogne","http://www.bourgogne-du-sud.com/images/bdd/photos/100083/1/146230.jpg","Hôtel-Restaurant de Bourgogne","Place de l'Abbaye",,,"71250","Cluny","46,4349283","4,6573319","42290919200011","551A",,,,"03 85 59 00 58",,"03 85 59 03 73","mailto: contact@hotel-cluny.com","http://www.hotel-cluny.com",,"Hôtels - restaurant","3 étoiles (nouveau classement), 3 étoiles (hôtel)","16.0","16.0","16",,"3.0","1.0",,,,"Hôtel-restaurant traditionnel de 13 chambres et 3 suites, construit en 1816. Meubles directoires. Salle à manger et cheminée.","Fermé du 01/01 au 31/01 et du 01/12 au 31/12.","Anglais, Allemand, Espagnol","Oui",,,"Oui",,"30.0",,"Oui",,"Câble/ satellite, Climatisation, Mini-bar, Télévision","Bar, Garage privé, Jardin, Restaurant","Service en chambre",,,"89.0","99.0","0","0","159.",,"10.5","10.5","124.5","134.5",,,,,,
"100","Hôtel-Restaurant de Bourgogne",,"Hôtel-Restaurant de Bourgogne","9, route de Charolles",,,"71800","La Clayette","46,2934522","4,3044886","45047819300011","551A",,,,"03 85 28 90 50","06 08 70 54 25","03 85 28 90 69","mailto: hoteldebourgogne0421@orange.fr",,,"Hôtels - restaurant",,"13.0","13.0","13","3.0",,,,,,"Hôtel-restaurant de tourisme, au cœur du Brionnais, à côté du château. Restauration traditionnelle. Menu du jour. Spécialités charolaises.",,"Anglais","Oui","Oui","Oui","Oui","10.","60.0",,,"Chèques Vacances","Accès Internet, Télévision, Wifi","Bar, Garage privé, Parking privé, Restaurant","Service en chambre",,,,,"0","0",,,,,,,,,,,,
"101","Hôtel-Restaurant de France","http://www.bourgogne-du-sud.com/images/bdd/photos/100083/1/146379.jpg","Hôtel-Restaurant de France","18, avenue de la République",,,"71400","Autun","46,9562319","4,2967392","38537818700012","6708",,,,"03 85 52 14 00",,"03 85 86 14 52",,"http://www.hotel-de-france-autun.fr",,"Hôtels - restaurant",,"21.0","26.0","21",,,,,,,"Hôtel situé face à la gare, à deux minutes du centre ville.","Fermé du 07/02/2011 au 27/02/2011 et le dimanche soir.",,"Oui",,"Oui","Oui",,"50.0",,,,"Télévision, Wifi","Bar, Parking privé, Restaurant",,,,"25.0","41.0","51","66",,,,"5.0","35.0",,"40.5","56.5",,,"38.0",
"102","Hôtel-Restaurant de l'Abbaye",,"Hôtel-Restaurant de l'Abbaye","Avenue Charles de Gaulle",,,"71250","Cluny","46,428263","4,6618434","38096579800016","551A",,,,"03 85 59 11 14",,"03 85 59 09 76","mailto: hotel@abbaye-cluny.fr","http://www.abbaye-cluny.fr","http://ldf.reservit.com/reservit/reserhotel.php?id=12&partid=378&hotelid=2545","Hôtels - restaurant","2 étoiles","16.0","12.0","12",,,,,"Logis, Qualité Tourisme","Logis",,,,,,,,,,,,,,"Restaurant",,,,,,"0","0",,,,,,,,,,,,
"103","Hôtel-Restaurant de l'Hôtel de Ville","http://www.bourgogne-du-sud.com/images/bdd/photos/100083/1/146400.jpg","Hôtel-Restaurant de l'Hôtel de Ville","10, place de l'Hôtel de Ville",,,"71350","Verdun-sur-le-Doubs","46,8990415","5,0231194","50504123600017","5510Z","2008B279",,,"03 85 91 56 19",,,"mailto: chantal.tissier2@orange.fr",,,"Hôtels","Sans étoile","6.0","6.0","6","3.0",,,,,,"L'hôtel est situé dans le vieux Verdun, petit village touristique au cœur des trois rivières (la Saône, le Doubs et la Dheune). Il dispose d'une grande terrasse ombragée par de très beaux marronniers. Voie Bleue à proximité. Grand parking face à l'hôtel.",,,"Oui","Oui","Oui","Oui",,"15.0",,"Non",,,"Bar, Jardin, Restaurant",,,,,,"0","0",,,,,,,,,,,,
"104","Hôtel-Restaurant de la Basilique","http://www.bourgogne-du-sud.com/images/bdd/photos/100083/1/146273.jpg","Hôtel-Restaurant de la Basilique","18, rue de la Visitation",,,"71600","Paray-le-Monial","46,4508873","4,1220155","32784200100015","6708","83B52",,,"03 85 81 11 13",,"03 85 88 83 70","mailto: resa@hotelbasilique.com","http://www.hotelbasilique.com/","http://www.booking.com/hotel/fr/de-la-basilique.fr.html?aid=305370,label=fr-Zu1ds69YVqh9fwJcSrqtege,sid=5c2080a5a44d50a7fd60101bbe6d14df,dcid=1,srfid=e8983baa6afc6eac303fd299a3bc91b882ad780fX3","Hôtels - restaurant","2 étoiles (hôtel), 2 étoiles (nouveau classement)","53.0","49.0","49","2.0",,"0.0","0.0","Tables et Auberges de France",,"Entre la basilique romane et l'Hôtel de Ville Renaissance, savourez le calme de notre situation privilégiée, la chaleureuse ambiance familiale de notre maison et l'authenticité de notre cuisine bourguignonne. Vue sur la basilique illuminée chaque soir.","Ouvert du 25/03 au 28/10.","Allemand, Anglais","Oui","Oui","Non","Oui","15.","110.","Une gratuité pour 20 personnes payantes.","Non","Chèques Vacances","Câble/ satellite, Télévision","Ascenseur, Bar, Garage privé, Restaurant","Coffres clients, Service en chambre, Voiturier",,,"50.0","68.0","74","94","74.0",,"7.5",,,,"70.0","80.0",,,,
"105","Hôtel-Restaurant de la Gare","http://www.bourgogne-du-sud.com/images/bdd/photos/100083/1/146245.jpg","Hôtel-Restaurant de la Gare","38, rue de la Gare",,,"71800","La Clayette","46,287778","4,299975","42990712700011","551A","429907127",,,"03 85 28 01 65",,"03 85 28 03 13","mailto: hoteldelagare71@aol.com","http://www.hoteldelagare71.fr",,"Hôtels - restaurant","2 étoiles","9.0","8.0","8",,,,"1.0",,,"Au cœur du Brionnais, dans un cadre agréable, environné d'un reposant jardin fleuri et d'une piscine. A proximité, églises romanes, musées, promenades équestres et VTT, randonnées pédestres. La responsable est allemande.",,"Allemand","Oui",,,"Oui","20.","130.","1 gratuité à partir de 20 personnes payantes.",,"Chèques Vacances","Télévision","Bar, Garage privé, Jardin, Parking privé, Restaurant","Service en chambre","Piscine plein-air",,"44.5","64.5","0","64",,,"6.7",,"43.7","61.0","60.0",,,,,
"106","Hôtel-Restaurant de la Gare","http://www.bourgogne-du-sud.com/images/bdd/photos/HOTBOU0710000301.jpg","Hôtel-Restaurant de la Gare","79, avenue du Général de Gaulle",,,"71160","Digoin","46,4842241","3,9872211","33751676900011","551A",,,,"03 85 53 03 04",,"03 85 53 14 70","mailto: jean-pierre.mathieu@worldonline.fr","http://www.hoteldelagare.fr",,"Hôtels - restaurant","3 étoiles","13.0","12.0","12",,"1.0",,"1.0",,,"A quelques pas du port de plaisance. Chambres rénovées, spacieuses. Le calme d'une maison de caractère où se mêlent la beauté du passé, le confort d'aujourd'hui. Vous apprécierez la tranquillité et la fraîcheur du jardin ombragé.",,"Anglais","Oui",,"Oui","Oui",,"28.0",,,,"Accès Internet, Télévision","Bar, Garage privé, Jardin, Parking privé, Restaurant","Service en chambre",,,,,"0","0",,,,,,,,,,,,
"107","Hôtel-Restaurant de la Gare","http://www.bourgogne-du-sud.com/images/bdd/photos/HOTBOU0710000546.jpg","Hôtel-Restaurant de la Gare",,,,"71460","Saint-Gengoux-le-National","46,6149026","4,6628947","42409652700017","551A","A424096527",,,"03 85 94 18 50",,"03 85 94 18 51",,,,"Hôtels - restaurant",,"11.0","7.0","7",,,,,,,"Au cœur du vignoble et de la Voie Verte et au bord d'une cité médiévale.",,,"Oui",,"Oui","Oui",,,,,"Chèques Vacances","Télévision","Bar, Garage privé, Jardin, Jeux pour enfants, Parking privé, Restaurant","Service en chambre",,,,,"0","0",,,,,,,,,,,,
"108","Hôtel-Restaurant de la Paix","http://www.bourgogne-du-sud.com/images/bdd/photos/100083/1/146295.jpg","Hôtel-Restaurant de la Paix","9, rue Jean Jaurès",,,"71700","Tournus","46,5638273","4,911737","30947997000019","5510Z","B30947997077",,,"03 85 51 01 85",,"03 85 51 02 30","mailto: info@hotel-de-la-paix.fr","http://www.hotel-de-la-paix.fr","http://ldf.reservit.com/reservit/reserhotel.php?id=12&partid=378&hotelid=329","Hôtels - restaurant","2 étoiles","23.0","25.0","23","6.0",,"2.0",,"Logis, Qualité Tourisme","Logis","A 3 minutes de l'autoroute et à deux pas de la prestigieuse abbaye Saint-Philibert, l'hôtel vous accueille au centre ville, à l'écart du trafic routier.","Ouvert du 01/12 au 31/10 (se renseigner au préalable).","Anglais, Français","Oui","Oui",,"Oui","15.","70.0","1 gratuité pour 20 personnes payantes.",,,"Câble/ satellite, Télévision, Wifi","Bar, Garage privé, Restaurant",,,,"58.0","68.0","73","93",,,"8.5","8.5","53.0","69.0","68.0","81.0",,,"47.0","62.0"
"109","Hôtel-Restaurant de la Poste","http://www.bourgogne-du-sud.com/images/bdd/photos/100083/1/146219.jpg","Hôtel-Restaurant de la Poste","2, avenue de la Libération",,,"71120","Charolles","46,4289803","4,2761196","31434096900018","551A",,,,"03 85 24 11 32",,"03 85 24 05 74","mailto: reservation@hotel-laposte-doucet.com","http://www.hotel-laposte-doucet.com/",,"Hôtels - restaurant","4 étoiles (hôtel), 4 étoiles (nouveau classement)","15.0","15.0","15",,"2.0","1.0","2.0","Tourisme et Handicap MENTAL, Tourisme et Handicap MOTEUR, Qualité Tourisme","Châteaux et Hôtels Collection","""Quittez les grands axes et plongez dans le Charolais, l'environnement vous émerveillera. L'hôtel de la Poste et sa dépendance la Villa Kiwis, située au bord de la rivière et d'un merveilleux jardin, proposent des chambres et",NULL,NULL,NULL,NULL,NULL,NULL,NULL,NULL,NULL,NULL,NULL,NULL,NULL,NULL,NULL,NULL,NULL,NULL,NULL,NULL,NULL,NULL,NULL,NULL,NULL,NULL,NULL,NULL,NULL,NULL,NULL,NULL
"110","des suites très raffinées et toutes équipées. Cette demeure vous invite aux plaisirs de la table. Vous y goûterez une cuisine nouvelle, pleine de saveurs, de couleurs, de fraîcheur, préparée par le chef de cuisine Frédéric Doucet, toujours aux fourneaux, qui vient de recevoir une étoile au guide Michelin 2012.""",,"Anglais","Oui",,"Oui","Oui","20.0","80.0",,,,"Accès Internet, Câble/ satellite","Bar","Service en chambre",,,,,,,,,,,"0",,,,,,,,NULL,NULL,NULL,NULL,NULL,NULL,NULL,NULL,NULL,NULL,NULL,NULL,NULL,NULL,NULL,NULL,NULL,NULL,NULL,NULL,NULL,NULL,NULL,NULL,NULL,NULL,NULL,NULL,NULL,NULL,NULL,NULL
"111","Hôtel-Restaurant de la Poste la Marquise","http://www.bourgogne-du-sud.com/images/bdd/photos/HOTBOU0710000388.jpg","Hôtel-Restaurant de la Poste la Marquise","9-11, place du Château",,,"71270","Pierre-de-Bresse","46,8828239","5,2678426","A3427481760001","551A",,,,"03 85 76 24 47",,"03 85 76 24 47",,,,"Hôtels - restaurant",,"13.0","7.0","7",,,"2.0","2.0",,,"Ancien relais de poste situé face au château de Pierre-de-Bresse. Menus gastronomiques.",,"Allemand, Espagnol","Oui",,"Oui","Oui",,,,,"Chèques Vacances",,"Bar, Garage privé, Parking privé, Restaurant",,,,,,"0","0",,,,,,,,,,,,
"112","Hôtel-Restaurant de la Poularde","http://www.bourgogne-du-sud.com/images/bdd/photos/HOTBOU0710000451.jpg","Hôtel-Restaurant de la Poularde","5, rue du Jura",,,"71500","Louhans","46,6302193","5,2282951","47997018800013","551A","479970188",,,"03 85 75 03 06",,"03 85 75 47 54","mailto: lapoularde@wanadoo.fr",,"http://ldf.reservit.com/reservit/reserhotel.php?id=12&partid=378&hotelid=1920","Hôtels - restaurant","2 étoiles (hôtel), 2 étoiles (nouveau classement)","8.0","8.0","8","3.0",,,,"Logis, Qualité Tourisme","Logis","A 300 mètres du centre de Louhans, sur la Nationale 78 reliant Louhans à Lons-le-Saunier.",,"Anglais","Oui","Oui","Oui",,,,,,"Chèques Vacances","Télévision","Bar, Garage privé, Parking privé, Restaurant",,,,,,"0","0",,,,,,,,,,,,
"113","Hôtel-Restaurant de Lucy",,"Hôtel-Restaurant de Lucy","2-4, quai du Nouveau Port",,,"71300","Montceau-les-Mines","46,6632689","4,3495581",,,,,,"03 85 57 26 44",,,"mailto: hoteldelucy@free.fr","http://www.hotel-lucy.fr",,"Hôtels - restaurant",,,,"10",,,,,,,"Chambres avec ou sans douche/wc. A partir de 3 jours, formule pension ou demi-pension du lundi au vendredi midi. Petit-déjeuner sur réservation.",,,,,,,,,,,,,,,,,,,"0","0",,,,,,,,,,,,
"114","Hôtel-Restaurant des Trois Maures","http://www.bourgogne-du-sud.com/images/bdd/photos/100083/1/146228.jpg","Hôtel-Restaurant des Trois Maures","4, place de la République",,,"71490","Couches","46,8687237","4,5735791","42196726600014","551A",,,,"03 85 49 63 93",,"03 85 49 50 29","mailto: tolfotel@wanadoo.fr","http://www.hoteldestroismaures.com","http://ldf.reservit.com/reservit/reserhotel.php?id=12&partid=378&hotelid=347","Hôtels - restaurant","2 étoiles (hôtel), 2 étoiles (nouveau classement)","34.0","34.0","34","7.0",,"2.0","2.0","Logis, Qualité Tourisme, Bourgogne Séminaires, Tour de Bourgogne à vélo","Logis","Dans un pays de traditions et de légendes, au centre du village de Couches, l'hôtel est un ancien relais de poste sur la route du vignoble.","Du 01/10 au 15/06, ouvert du mardi soir au dimanche soir et du 15/06 au 30/09, ouvert tous les jours.","Anglais, Italien","Oui",,"Non","Oui","20.","75.0","1 gratuité pour 20 personnes payantes.","Oui","Chèques Vacances","Accès Internet, Câble/ satellite, Télévision, Wifi","Ascenseur, Bar, Jardin, Parking privé, Restaurant","Wifi","Piscine couverte, Piscine plein-air",,"64.0",,"95","0",,,"9.0",,"59.0",,,"75.0",,,,
"115","Hôtel-Restaurant des Voyageurs",,"Hôtel-Restaurant des Voyageurs","Le Bourg",,,"71140","Cronat","46,7215601","3,6840929",,,,,,"03 85 84 74 30",,"03 85 84 75 19","mailto: sicard-jacques@wanadoo.fr",,,"Hôtels - restaurant","2 étoiles (hôtel), 2 étoiles (nouveau classement)","9.0","9.0","9",,,,,,,,,,,,,,,,,,,,"Restaurant",,,,,,"0","0",,,,,,,,,,,,
"116","Hôtel-Restaurant Doubs Rivage","http://www.bourgogne-du-sud.com/images/bdd/photos/100083/1/146218.jpg","Hôtel-Restaurant Doubs Rivage","8, rue de la Chapelle",,,"71270","Charette-Varennes","46,9179257","5,1997497","44832409500018","551A",,,,"03 85 76 23 45",,"03 85 76 89 29","mailto: hotel.doubsrivage@wanadoo.fr","http://www.doubs-rivage.com","http://ldf.reservit.com/reservit/reserhotel.php?id=12&partid=378&hotelid=1250","Hôtels - restaurant","2 étoiles","11.0","10.0","10",,,,"1.0","Aventures Mômes, Qualité Tourisme, Logis","Logis","Dans un grand parc, près de la rivière le Doubs.",,"Anglais","Oui",,"Oui",,,,,,"Chèques Vacances","Accès Internet, Télévision","Bar, Garage privé, Jardin, Jeux pour enfants, Local matériel fermé, Parc, Parking privé, Restaurant","Service en chambre",,,"65.0","70.0","80","0",,,"8.5",,"55.0","66.0","70.0","82.0",,,,
"117","Hôtel-Restaurant du Centre",,"Hôtel-Restaurant du Centre","1, rue Joseph Lambert",,,"71450","Blanzy","46,6960287","4,3911398","44179146400015","551A","441791464",,,"03 85 68 03 82",,"03 85 68 08 79","mailto: hotelducentre6@wanadoo.fr",,,"Hôtels - restaurant",,"16.0","16.0","16",,,,,,,"Ancien relais de diligences (150 ans).",,,,,,,,,,,,,"Restaurant",,,,,,"0","0",,,,,,,,,,,,
"118","Hôtel-Restaurant du Champ de Foire","http://www.bourgogne-du-sud.com/images/bdd/photos/HOTBOU0710000382.jpg","Hôtel-Restaurant du Champ de Foire","2, rue Desrichard",,,"71600","Paray-le-Monial","46,4538499","4,1175591","39905171300010","551A","B399051713",,,"03 85 81 01 68",,"03 85 88 86 30",,,,"Hôtels - restaurant","Sans étoile","9.0","8.0","8",,,,,,,"Établissement simple et accueillant, situé au cœur de Paray-le-Monial, à proximité de la rue piétonne. Cuisine familiale, belle vue sur la place de l'Europe très fleurie.",,,"Oui",,"Oui","Oui",,,,,"Chèques Vacances",,"Bar, Parking privé, Restaurant",,,,,,"0","0",,,,,,,,,,,,
"119","Hôtel-Restaurant du Commerce","http://www.bourgogne-du-sud.com/images/bdd/photos/HOTBOU0710000331.jpg","Hôtel-Restaurant du Commerce","Place Henri Dureault",,,"71460","Joncy","46,6152579","4,5562248","424097608","551A",,,,"03 85 96 27 20",,"03 85 96 21 76",,,"http://ldf.reservit.com/reservit/reserhotel.php?id=12&partid=378&hotelid=3415","Hôtels - restaurant","2 étoiles","9.0","9.0","9",,,,"1.0","Logis, Qualité Tourisme","Logis","Vieille bâtisse en pierres située au cœur du village. Cour intérieure, parking, terrasse. Chambres rénovées. Cuisine gastronomique.","Ouvert toute l'année.","Anglais","Oui",,,"Oui",,,,,,"Mini-bar, Télévision","Bar, Jardin, Jeux pour enfants, Parking privé, Restaurant, Local matériel fermé","Service en chambre",,,,,"0","0",,,,,,,,,,,,
"120","Hôtel-Restaurant du Commerce et Touring","http://www.bourgogne-du-sud.com/images/bdd/photos/100083/1/146197.jpg","Hôtel-Restaurant du Commerce et Touring","20, avenue de la République",,,"71400","Autun","46,9562319","4,2967392","40482311400016","5910 z","B404823114",,,"03 85 52 17 90",,"03 85 52 37 63","mailto: hotelducommerce.touring@wanadoo.fr","http://www.hotel-commerce-touring-autun.com","http://ldf.reservit.com/reservit/reserhotel.php?id=12&partid=378&hotelid=3068","Hôtels - restaurant","2 étoiles (hôtel), 2 étoiles (nouveau classement)","18.0","18.0","18","3.0",,,"1.0","Qualité Tourisme, Logis","Logis","""Hôtel-restaurant traditionnel en Logis de France. Accueil et cuisine bourguignonne. """"Maître Restaurateur"""" - Label """"qualité Tourisme"""".""","Fermé en janvier.","Anglais","Oui","Oui","Oui","Oui","10.","80.0","""1 gratuité pour 20 personnes.",NULL,NULL,NULL,NULL,NULL,NULL,NULL,NULL,NULL,NULL,NULL,NULL,NULL,NULL,NULL,NULL,NULL,NULL,NULL,NULL,NULL,NULL,NULL
"121","""",,"Chèques Vacances","Accès Internet, Télévision","Bar, Garage privé, Local matériel fermé, Parking privé, Restaurant, Jeux pour enfants","Service en chambre",,,"48.0","57.0","60.0","66.0",,,"6.0","7.0","58.0","70.0","56.0","65.0","48.0","57.0","48.0","50.0",NULL,NULL,NULL,NULL,NULL,NULL,NULL,NULL,NULL,NULL,NULL,NULL,NULL,NULL,NULL,NULL,NULL,NULL,NULL,NULL,NULL,NULL,NULL,NULL,NULL,NULL,NULL,NULL,NULL,NULL,NULL,NULL,NULL,NULL,NULL,NULL,NULL,NULL,NULL,NULL,NULL
"122","Hôtel-Restaurant du Morvan","http://www.bourgogne-du-sud.com/images/bdd/photos/100083/1/146285.jpg","Hôtel-Restaurant du Morvan","Place de la Mairie",,,"71990","Saint-Léger-sous-Beuvray","46,9247105","4,11026","44228633200014","551A",,,,"03 85 82 51 06",,"03 85 82 45 07",,"http://www.hoteldumorvan.com",,"Hôtels - restaurant",,"7.0","7.0","7","2.0",,,"1.0",,,"Hôtel-restaurant-café de village entre Autun et le Mont-Beuvray, au cœur du Parc naturel régional du Morvan, à 4 kilomètres de Bibracte, proche du circuit de Saint-Jacques-de-Compostelle et de Saint-François-d'Assise. Accueil chaleureux et convivial. Cuisine régionale. Terrasse.","Fermé du 01/12/2010 au 31/01/2011.","Anglais","Oui","Oui","Oui","Oui",,"17.0",,,"Chèques Vacances","Accès Internet, Wifi","Jardin, Local matériel fermé, Restaurant, Bar","Wifi",,,"33.0","47.0","33","41",,,,"6.9","61.0","72.7","62.5",,,,,
"123","Hôtel-Restaurant du Nord",,"Hôtel-Restaurant du Nord","5, rue des Maréchaux",,,"71150","Fontaines","46,8500732","4,7704864",,,,,,"03 85 91 41 59",,"03 85 91 41 59","mailto: hoteldunordfontaines@orange.fr","http://www.hotel-du-nord-fontaines.fr",,"Hôtels - restaurant","1 étoile (hôtel), 1 étoile (nouveau classement)","13.0","13.0","13",,,,,,,,,,,,,,,,,,,,"Restaurant",,,,,,"0","0",,,,,,,,,,,,
"124","Hôtel-Restaurant entre Mer et Montagne","http://www.bourgogne-du-sud.com/images/bdd/photos/100083/1/146313.jpg","Hôtel-Restaurant entre Mer et Montagne","41, rue Bartoli",,,"71160","Digoin","46,479933","3,9816987","49177471700012","551A","491774717",,,"03 85 53 13 08",,"03 85 53 17 54","mailto: sergemorvan@wanadoo.fr",,,"Hôtels - restaurant","2 étoiles (hôtel), 2 étoiles (nouveau classement)","6.0","6.0","6","1.0",,,"1.0",,,"Entreprise familiale comprenant 6 chambres au premier étage. Au rez-de-chaussée, salle de restaurant, bar. Terrasse d'été et piscine. Wifi. Cyber café.","Ouvert toute l'année.","Anglais","Oui","Oui",,"Oui","10.","35.0",,,"Chèques Vacances","Télévision, Wifi, Accès Internet","Bar, Jardin, Jeux pour enfants, Parc, Parking privé, Restaurant","Service en chambre",,,"36.0","36.0","69","69",,,"5.0","5.0","50.0","50.0","52.0","52.0",,,,
"125","Hôtel-Restaurant Entre Terre et Mer",,"Hôtel-Restaurant Entre Terre et Mer","72, route du Canal",,,"71210","Écuisses","46,7590315","4,5143319",,,,,,"03 85 78 93 88",,,"mailto: entreterreetmer.info@free.fr",,,"Hôtels - restaurant",,,,"14",,,,,,,,,,,,,,,,,,,,,,,,,,"0","0",,,,,,,,,,,,
"126","Hôtel-Restaurant Ibis","http://www.bourgogne-du-sud.com/images/bdd/photos/100083/1/146192.jpg","Hôtel-Restaurant Ibis","3, rue Louis Aragon",,,"71400","Autun","46,9531237","4,3210748","43252702600020","551A",,,,"03 85 52 00 00",,"03 85 52 20 20","mailto: H3232@accor.com","http://www.ibishotel.com",,"Hôtels - restaurant","3 étoiles (hôtel), 3 étoiles (nouveau classement)","46.0","46.0","46",,,"2.0","2.0","Bourgogne Séminaires","Ibis","A quelques minutes du centre ville et intégré dans un ensemble bordé par la forêt de Planoise et le plan d'eau du Vallon. Accueil 24h/24. Chambres entièrement rénovées. Wifi. A proximité de l'hôtel : base de loisirs avec ","Ouvert toute l'année.","Anglais","Oui",,"Oui","Oui",,,,"Oui","Chèques Vacances","Accès Internet, Câble/ satellite, Canal +, Climatisation, Télévision, Wifi","Bar, Jardin, Parking privé, Restaurant",,,,,,"0","0",,,,,,,,,,,,
"127","Hôtel-Restaurant Jour et Nuit",,"Hôtel-Restaurant Jour et Nuit","33, rue Maréchal Leclerc",,,"71200","Le Creusot","46,8068407","4,4276059",,,,,,"03 85 80 05 51",,,"mailto: hoteljouretnuit@sfr.fr","http://www.jouretnuitlecreusot.fr",,"Hôtels - restaurant",,,,"10",,,,,,,"Pensées et décorées avec goût et subtilité, Erika et Bouziane ont su allier leur connaissance et leur passion mutuelle afin que vous vous sentiez comme dans un cocon aussi original que confortable.",,,,,,,,,,,,"Climatisation, Télévision",,"Wifi",,,,,"0","0",,,,,,,,,,,,
"128","Hôtel-Restaurant L'Amiral","http://www.bourgogne-du-sud.com/images/bdd/photos/100083/1/146378.jpg","Hôtel-Restaurant L'Amiral","6, place du Capitaine Giraud",,,"71510","Saint-Léger-sur-Dheune","46,8460507","4,6344269","42039647500014","551A","B420396475",,,"03 85 45 33 87",,"03 85 98 02 95","mailto: restaurant.lamiral@aliceadsl.fr",,,"Hôtels - restaurant","2 étoiles","9.0","7.0","7",,,,"3.0",,,"""Hôtel proche du port de plaisance et de la Voie Verte. Terrasse. Restaurant : cuisine traditionnelle, spécialités bourguignonnes.",NULL,NULL,NULL,NULL,NULL,NULL,NULL,NULL,NULL,NULL,NULL,NULL,NULL,NULL,NULL,NULL,NULL,NULL,NULL,NULL,NULL,NULL,NULL,NULL,NULL,NULL,NULL,NULL,NULL,NULL,NULL,NULL
"129","Sur commande : plateaux de fruits de mer (sur place ou à emporter).""",,"Anglais","Oui",,,"Oui","15.0","70.0","Gratuité pour le chauffeur du groupe.",,,"Accès Internet, Télévision","Bar, Garage privé, Restaurant",,,,,,,,,,,,"0",,,,,,,,NULL,NULL,NULL,NULL,NULL,NULL,NULL,NULL,NULL,NULL,NULL,NULL,NULL,NULL,NULL,NULL,NULL,NULL,NULL,NULL,NULL,NULL,NULL,NULL,NULL,NULL,NULL,NULL,NULL,NULL,NULL,NULL
"130","Hôtel-Restaurant L'Auberge Fleurie","http://www.bourgogne-du-sud.com/images/bdd/photos/HOTBOU0710000278.jpg","Hôtel-Restaurant L'Auberge Fleurie","Le Bourg",,,"71540","Chissey-en-Morvan","47,1189227","4,2250397","33222135700020","551A","A332221357",,,"03 85 82 62 05",,"03 85 82 65 19",,,,"Hôtels - restaurant","2 étoiles","7.0","7.0","7",,,,"1.0",,,"Dans un petit village, une auberge au décor rustique qui offre une carte représentative du terroir.",,"Anglais","Oui",,,,,,,,"Chèques Vacances","Télévision","Bar, Jardin, Parking privé, Restaurant","Location ou prêt de vélos/VTT",,,,,"0","0",,,,,,,,,,,,
"131","Hôtel-Restaurant L'Estaminet","http://www.bourgogne-du-sud.com/images/bdd/photos/100083/1/146399.jpg","Hôtel-Restaurant L'Estaminet","Le Bourg",,,"71250","Mazille","46,3942648","4,6040452","37948863800071","551A",,,,"03 85 50 04 35","06 71 61 60 25",,,,,"Hôtels - restaurant","Sans étoile","6.0","6.0","6",,,,,,,"Hôtel familial dans l'esprit des maisons d'hôtes. Relais motards.",,,,,,,,,,,,,"Bar, Restaurant",,,,,,"0","0",,,,,,,,,,,,
"132","Hôtel-Restaurant L'Etape","http://www.bourgogne-du-sud.com/images/bdd/photos/HOTBOU0710000353.jpg","Hôtel-Restaurant L'Etape","Le Bourg",,,"71250","Blanot","46,473991","4,7347941","39953802400023",,"480537455",,,"03 85 50 03 63",,"03 85 50 03 63",,,,"Hôtels - restaurant","Sans étoile","5.0","7.0","5",,,,,,,"Frédérique et Stéphen vous accueillent dans leur chaleureuse auberge mâconnaise et vous proposent une cuisine de terroir variée et raffinée, un choix de vins soigneusement sélectionnés, des chambres simples et agréables.",,"Anglais","Oui",,"Oui","Oui",,"15.0",,"Oui",,,"Bar, Jardin, Restaurant",,,,,,"0","0",,,,,,,,,,,,
"133","Hôtel-Restaurant L'Orée des Vignes",,"Hôtel-Restaurant L'Orée des Vignes","Rue Pasteur",,,"71260","Fleurville","46,4516237","4,8850435","43752500900019","551A",,,,"03 85 33 11 75",,"03 85 33 93 95",,,,"Hôtels - restaurant","2 étoiles","8.0","8.0","8",,,,,,,"Une halte sympathique dans le Mâconnais pour apprécier une cuisine familiale et régionale dans un cadre reposant et attrayant.",,,,,,,,,,,,,"Restaurant",,,,,,"0","0",,,,,,,,,,,,
"134","Hôtel-Restaurant La Chaumière",,"Hôtel-Restaurant La Chaumière","Saint-Oyen",,,"71260","Montbellet","46,471578","4,8971105",,,,,,"03 85 33 10 41",,"03 85 33 12 99",,,,"Hôtels - restaurant","2 étoiles","10.0",,"10",,,,,,,,,,,,,,,,,,,,"Restaurant",,,,,,"0","0",,,,,,,,,,,,
"135","Hôtel-Restaurant La Grotte","http://www.bourgogne-du-sud.com/images/bdd/photos/HOTBOU0710000564.jpg","Hôtel-Restaurant La Grotte","Le Bourg",,,"71580","Sagy","46,6010953","5,3100172","43805111200011","551A",,,,"03 85 74 07 57","06 16 50 47 04","03 85 74 07 42","mailto: hotellagrotte@orange.fr","http://www.hostellerie-lagrotte.com",,"Hôtels - restaurant","2 étoiles","17.0","26.0","17",,,,"2.0",,,"Situé en pleine campagne, au calme. Idéal pour les amoureux de la nature. Balades, pêche, équitation à proximité. Restaurant piano-bar en fin de semaine. Salle et terrasse.",,"Anglais","Oui",,"Oui","Oui",,,,"Oui","Chèques Vacances","Accès Internet, Télévision","Bar, Discothèque, Jeux pour enfants, Parking privé, Piano bar, Restaurant",,,,,,"0","0",,,,,,,,,,,,
"136","Hôtel-Restaurant La Maison Blanche","http://www.bourgogne-du-sud.com/images/bdd/photos/100083/1/160452.jpg","Hôtel-Restaurant La Maison Blanche","RN6 - La Maison Blanche",,,"71570","Romanèche-Thorins","46,1822968","4,7492656","44916020900010","551A",,,,"03 85 35 50 53",,"03 85 35 21 22","mailto: contact@hotel-lamaisonblanche.fr","http://www.hotel-lamaisonblanche.fr",,"Hôtels - restaurant","2 étoiles","7.0","7.0","7","4.0",,,,,,"Hôtel-restaurant situé à proximité du Mâconnais, au cœur du Moulin-à-Vent, tout près du parc zoologique Touroparc et du Hameau Duboeuf.","Fermé le dimanche soir et le lundi.","Anglais, Espagnol","Oui","Oui","Non","Non",,,,,,"Climatisation, Télévision, Accès Internet","Restaurant, Bar, Garage privé, Parking privé, Jeux pour enfants",,"Piscine plein-air",,"49.0",,"60","76",,,"6.5",,,,"60.0",,,,,
"137","Hôtel-Restaurant La Marande","http://www.bourgogne-du-sud.com/images/bdd/photos/HOTBOU0710000507.jpg ","Hôtel-Restaurant La Marande","Hameau de Mirande",,,"71260","Montbellet","46,4651643","4,8721531","38076044700017","551A",,,,"03 85 33 10 24",,"03 85 33 95 06","mailto: restaurant-la-marande@wanadoo.fr","http://www.hotel-restaurant-la-marande.com",,"Hôtels - restaurant","Sans étoile","5.0","5.0","5",,,,,"Tables et Auberges de France, Qualité Tourisme",,,"Fermé du 05/01 au 04/02, du 16/11 au 26/11 et le lundi et le mardi toute l'année sauf en juillet et août fermé le lundi et le mardi midi. ","Anglais, Allemand","Oui",,,,,,,,"Chèques Vacances","Télévision","Restaurant",,,,,,"0","0",,,,,,,,,,,,
"138","Hôtel-Restaurant La Montagne de Brancion","http://www.bourgogne-du-sud.com/images/bdd/photos/100083/1/146300.jpg","Hôtel-Restaurant La Montagne de Brancion","Brancion","Martailly-les-Brancion",,"71700","Tournus","46,540815","4,8008762","34252037600019","5510Z","A342520376",,,"03 85 51 12 40","06 07 04 77 02","03 85 51 18 64","mailto: lamontagnedebrancion@wanadoo.fr","http://www.brancion.com","http://www.secure-hotel-booking.com/la-montagne-de-brancion/2UFS/fr/dateselection?sid=d6a51f69-8a7f-4377-96e1-9e1be2c2485e","Hôtels - restaurant","4 étoiles (hôtel), 4 étoiles (nouveau classement)","16.0","16.0","16","1.0","4.0","1.0","1.0","Tables et Auberges de France","Châteaux et Hôtels Collection","""Hôtel 4* au charme design en pleine campagne au grand calme au milieu des vignes avec vue panoramique. Maison """"rouge Bourgogne"""" à l'ambiance très contemporaine. Grand confort moderne. Restaurant gastronomique avec terrasse, piscine chauffée, grand jardin fleuri, vols en ULM motoplaneur et randonnées pédestres.""","Ouvert tous les jours du 01/03/2013 au 31/12/2013.","Anglais, Allemand","Oui","Oui","Oui","Oui","10.","40.0","Proposition sur devis selon dates, nombre de personnes, durée du séjour.","Non",,"Câble/ satellite, Mini-bar, Télévision, Accès Internet, Wifi","Bar, Jardin, Jeux pour enfants, Local matériel fermé, Parking privé, Restaurant","Coffres clients, Service en chambre, Wifi","Piscine plein-air, Animation, Randonnée voie verte","Vols découverte en moto planeur avec J.MILLION.","110.","230.","127","127","220.","330.","8.0","18.0","125.0","240.0","90.0","110.0","65.0","115.0","100.0","175.0"
"139","Hôtel-Restaurant La Place","http://www.bourgogne-du-sud.com/images/bdd/photos/100083/1/146265.jpg","Hôtel-Restaurant La Place","Hameau de la Place","1, route de Cluny",,"71460","Malay","46,5770131","4,6949195","43434761300037","551A",,,,"03 85 50 15 08",,"03 85 50 13 23","mailto: contact@hoteldelaplace.com","http://www.hoteldelaplace.com",,"Hôtels - restaurant","2 étoiles (hôtel), 2 étoiles (nouveau classement)","30.0","30.0","30","4.0",,"2.0","2.0",,,"Jocelyne et Rémy Litaudon sont heureux de vous accueillir au cours d'une étape pour détente ou affaires, à l'hôtel-restaurant La Place dans un cadre agréable et reposant. Accueil chaleureux dans le calme et la verdure.","Fermé du 21/12/2012 au 01/02/2013.","Anglais","Oui",,"Oui","Oui","10.","150.","Gratuité chauffeur.","Oui","Chèques Vacances","Accès Internet, Câble/ satellite, Télévision, Wifi","Bar, Jardin, Jeux pour enfants, Parking privé, Restaurant","Service en chambre","Mini-golf, Piscine plein-air",,"59.0","66.0","66","84",,,"9.5","9.5","57.0","61.0","62.0","99.0","37.0","40.0","54.0","57.0"
"140","Hôtel-Restaurant La Reconce","http://www.bourgogne-du-sud.com/images/bdd/photos/100083/1/146314.jpg","Hôtel-Restaurant La Reconce","Le Bourg",,,"71600","Poisson","46,3849","4,12805","39197399700011","553A","B391973997",,,"03 85 81 10 72",,"03 85 81 64 34","mailto: La.Reconce@wanadoo.fr","http://www.hotel-lareconce.com",,"Hôtels - restaurant","3 étoiles (hôtel), 3 étoiles (nouveau classement)","7.0","7.0","7","1.0","1.0","1.0","1.0","Qualité Tourisme","Relais du Silence","Hôtel-restaurant de charme, gastronomique, au cœur d'un paisible petit village sur le circuit des églises romanes. Nombreux circuits pédestres, VTT.","Fermé en février. Ouvert tous les jours à partir du 01/05.","Anglais","Oui","Oui","Oui","Oui","12.","50.0",,"Non",,"Canal +, Mini-bar, Télévision, Wifi, Câble/ satellite","Bar, Jardin, Jeux pour enfants, Parc, Parking privé, Restaurant","Wifi",,,"74.0","158.","0","0","114.","158.","12.0","12.0",,,"85.0",,,,,
"141","Hôtel-Restaurant La Rose des Vents","http://www.bourgogne-du-sud.com/images/bdd/photos/100083/1/146398.jpg","Hôtel-Restaurant La Rose des Vents","28, route de la Brume",,,"71710","Saint-Symphorien-de-Marmagne","46,8398631","4,3299787","44477920100011","551A","444779201",,,"03 85 78 39 78","06 81 49 52 91","03 85 78 39 77","mailto: larosedesvents71@wanadoo.fr","http://www.larosedesvents71.com",,"Hôtels - restaurant","2 étoiles (nouveau classement), 2 étoiles (hôtel)","17.0","17.0","17",,"2.0","2.0","2.0",,,"Dans un cadre verdoyant et calme, La Rose des Vents vous propose son hôtel**, son restaurant panoramique et son service traiteur.",,"Anglais","Oui",,"Oui","Oui",,,,,,"Télévision, Accès Internet, Canal +, Wifi","Bar, Jardin, Local matériel fermé, Parking privé, Restaurant","Service en chambre","Tennis",,,,"0","0",,,,,,,,,,,,
"142","Hôtel-Restaurant La Tête Noire",,"Hôtel-Restaurant La Tête Noire","3, rue de l'Arquebuse",,,"71400","Autun","46,9497842","4,2994211","34938787800011","55.10.Z","34938787878","Oui",,"03 85 86 59 99",,"03 85 86 33 90","mailto: welcome@hoteltetenoire.fr","http://www.hoteltetenoire.fr","http://ldf.reservit.com/reservit/reserhotel.php?id=12&partid=378&hotelid=655","Hôtels - restaurant","2 étoiles","31.0","31.0","31",,,"2.0","2.0","Logis, Qualité Tourisme","Logis","Hôtel-restaurant, au centre ville d'Autun, à 10 minutes à pied de la cathédrale et du théâtre romain. Parking à proximité. Chambre douillette agréable avec ascenseur. Petit-déjeuner buffet.","Ouvert du 28/01/2013 au 20/12/2013.","Anglais, Allemand","Oui","Oui","Non","Oui","15.",,"1 gratuité pour 20 personnes payantes.","Oui","Chèques Vacances","Accès Internet, Câble/ satellite, Canal +, Télévision, Wifi","Ascenseur, Restaurant","Coffres clients, Service en chambre",,,"79.0","93.0","87","102",,,"11.0",,"67.0","104.0","80.0","92.0","39.0","44.0","59.0","64.0"
"143","Hôtel-Restaurant La Tourelle du Beffroi","http://www.bourgogne-du-sud.com/images/bdd/photos/HOTBOU0710000561.jpg","Hôtel-Restaurant La Tourelle du Beffroi","17, place de la Mairie",,,"71140","Bourbon-Lancy","46,6188628","3,7728826","430215418","551C","430215418",,"Habilitation 071 040003","03 85 89 39 20","06 14 86 33 59","03 85 89 39 29","mailto: hotellatourelle@aol.com","http://www.hotellatourelle.fr",,"Hôtels - restaurant","2 étoiles","8.0","8.0","8","3.0",,"1.0","1.0","Aventures Mômes, Tour de Bourgogne à vélo",,"Petit hôtel plein de charme, situé dans le quartier piétonnier. Calme, très confortable. Certaines chambres disposent d'une cheminée. Parquet au sol. Jardin. Terrasse. Wifi. Espace gym.","Ouvert toute l'année.","Français, Anglais","Oui","Oui","Oui","Oui","10.","20.0",,"Oui","Chèques Vacances","Accès Internet, Climatisation, Télévision, Wifi","Jardin, Jeux pour enfants, Local matériel fermé, Restaurant, Salle de sport",,"Golf, Randonnée voie verte, Tennis",,,,"0","0",,,,,,,,,,,,
"144","Hôtel-Restaurant Le Barbier des Bois","http://www.bourgogne-du-sud.com/images/bdd/photos/HOTBOU0710000575.jpg","Hôtel-Restaurant Le Barbier des Bois","Route de Cuiseaux",,,"71500","Bruailles","46,595116","5,2356589","45002646300015","553A",,,,"03 85 75 55 65",,"03 85 75 70 56","mailto: info@barbierdesbois.com","http://www.barbierdesbois.com","http://ldf.reservit.com/reservit/reserhotel.php?id=12&partid=378&hotelid=11884","Hôtels - restaurant","3 étoiles (nouveau classement), 3 étoiles (hôtel)","15.0","15.0","15",,,"1.0","1.0","Logis, Qualité Tourisme","Logis","Ancienne ferme bressane rénovée dans un style néo-rétro. Cuisine raffinée dans une ambiance chaleureuse. Repos, calme et verdure pour des moments privilégiés seul ou entre amis.","Ouvert toute l'année.","Anglais, Allemand","Oui",,"Oui","Oui",,"65.0",,"Oui",,"Accès Internet, Câble/ satellite, Climatisation, Mini-bar, Télévision","Bar, Jardin, Jeux pour enfants, Local matériel fermé, Parc, Parking privé, Restaurant","Service en chambre","Piscine plein-air",,,,"0","0",,,,,,,,,,,,
"145","Hôtel-Restaurant Le Bourgogne","http://www.bourgogne-du-sud.com/images/bdd/photos/HOTBOU0710000570.jpg","Hôtel-Restaurant Le Bourgogne","Place Schneider","2, rue de la Verrerie",,"71200","Le Creusot","46,8054919","4,4201844",,,,,,"03 85 80 32 02",,"03 85 80 07 30","mailto: info@lebourgogne.com","http://www.lebourgogne.com",,"Hôtels - restaurant","2 étoiles","15.0","15.0","15",,,"1.0","1.0",,,"Téléphone, salle de bains, toilettes, télévision dans les chambres.","Ouvert toute l'année.","Anglais","Oui",,"Oui","Oui","15.","25.0",,,,"Accès Internet, Télévision","Bar, Restaurant","Wifi",,,"65.0","65.0","92","0",,,"7.5",,,,,,,,,
"146","Hôtel-Restaurant Le Chagny","http://www.bourgogne-du-sud.com/images/bdd/photos/100083/1/173330.jpg","Hôtel-Restaurant Le Chagny","RN6",,,"71150","Chagny","46,9105871","4,7523079",,,,,,"03 85 87 67 67",,"03 85 43 88 24","mailto: reservation@hotel-le-chagny.fr","http://www.hotel-le-chagny.fr","http://reservation-hotel.logishotels.","Hôtels","2 étoiles","20.0","20.0","20","6.0",,,"1.0","Tour de Bourgogne à vélo, Logis, Qualité ","Logis","Après un an de complète rénovation en 2010, tout a été mis en œuvre pour ",,"Allemand, Anglais","Oui",,"Oui","Oui","12.","46.0","Les consulter.","Oui","Chèques Vacances","Climatisation, Télévision, Accès Internet","Bar, Garage privé, Jardin, Local matériel fermé, ","Service en chambre, Wifi","Golf, Piscine couverte, Piscine plein-air, ",,"59.0","69.0","69","69",,,"7.5","7.5","65.0","75.0","65.0","75.0","39.0","41.0","65.0","75.0"
"147","Hôtel-Restaurant Le Château d'Igé","http://www.bourgogne-du-sud.com/images/bdd/photos/100083/1/146362.jpg","Hôtel-Restaurant Le Château d'Igé","252, rue du Château",,,"71960","Igé","46,399321","4,741176","37940498100019","5510Z","379404981",,,"03 85 33 33 99",,"03 85 33 41 41","mailto: contact@chateaudige.com","http://chateaudige.com",,"Hôtels - restaurant","4 étoiles (nouveau classement), 4 étoiles (hôtel)","17.0","17.0","17",,"7.0",,"3.0","Qualité Tourisme","Châteaux et Hôtels Collection","Château du XIIIème siècle, élégant et raffiné. Joli jardin fleuri. Toutes les chambres sont situées dans le château. Charme et sérénité.",,"Anglais, Allemand, Espagnol","Oui",,"Oui","Oui",,"16.0",,"Oui",,"Accès Internet, Câble/ satellite, Télévision, Wifi","Bar, Garage privé, Jardin, Parc, Parking privé, Restaurant","Coffres clients, Service en chambre, Location ou prêt de vélos/VTT","Golf",,"97.0","173.","127","127","193.","259.","9.5","16.0","159.0","285.0",,,,,,
"148","Hôtel-Restaurant Le Château de Fleurville","http://www.bourgogne-du-sud.com/images/bdd/photos/100083/1/146358.jpg","Hôtel-Restaurant Le Château de Fleurville","Rue du Glamont",,,"71260","Fleurville","46,4440415","4,8815088","43026415000011","551A","430264150",,,"03 85 27 91 30","06 80 48 58 26","03 85 27 91 29","mailto: chateaufleurville@free.fr","http://www.chateau-de-fleurville.com/",,"Hôtels - restaurant","3 étoiles","15.0","15.0","15",,"1.0","1.0","1.0","Qualité Tourisme","Châteaux et Hôtels Collection","Situé entre Tournus et Mâcon, le Château de Fleurville édifié en 1624 par les Comtes de Fleurville a été amoureusement restauré depuis 2000. Sa belle façade de pierre de Bourgogne et sa haute tour ronde dominent un magnifique parc de 2 hectares aux frondaisons séculaires. Piscine chauffée, jacuzzi, sauna et tennis pour les loisirs… golf de Mâcon La Salle à 5 minutes. Vous pourrez profiter de la Voie Bleue pour vous promener face au château en vélo ou à pied et pourquoi pas faire un pique-nique au bord de ","Ouvert du 18/02/2011 au 13/11/2011.","Anglais, Allemand","Oui","Oui","Oui","Oui","15.","30.0",,"Oui",,"Câble/ satellite, Climatisation, Mini-bar, Télévision, Wifi","Bar, Jardin, Jeux pour enfants, Local matériel fermé, Parc, Parking privé, Restaurant","Location de matériel de sport, Service en chambre, Location ou prêt de vélos/VTT","Piscine plein-air, Tennis, Sauna",,"120.","175.","127","127","280.","330.","15.0","20.0","135.0","150.0",,,,,,
"149","Hôtel-Restaurant Le Cussyssois",,"Hôtel-Restaurant Le Cussyssois",,,,"71550","Cussy-en-Morvan","47,089324","4,1640433","32476271500013","6708",,,,"03 85 54 60 11",,"03 85 54 61 30",,,,"Hôtels - restaurant",,"7.0",,"7",,,,,,,,,,,,,,,,,,,,"Restaurant",,,,,,"0","0",,,,,,,,,,,,
"150","Hôtel-Restaurant Le Dracy","http://www.bourgogne-du-sud.com/images/bdd/photos/100083/1/146238.jpg","Hôtel-Restaurant Le Dracy","4, rue du Pressoir",,,"71640","Dracy-le-Fort","46,7985905","4,7814131","33032780000018","551A","B330327800",,,"03 85 87 81 81",,"03 85 87 77 49","mailto: info@ledracy.com","http://www.ledracy.com","http://ldf.reservit.com/reservit/reserhotel.php?id=12&partid=378&hotelid=133","Hôtels - restaurant","3 étoiles (hôtel), 3 étoiles (nouveau classement)","47.0","47.0","47",,,"1.0","5.0","Qualité Tourisme, Logis, Tour de Bourgogne à vélo, Bourgogne Séminaires","Logis","Proche de Chalon-sur-Saône, sur la route d'Autun, à quelques kilomètres de Beaune. Parc avec piscine. Chambres personnalisées avec mobilier de style, toutes avec salle de bain, wc séparé, téléphone, télévision, mini-bar. Vaste parking devant l'hôtel.","Ouvert toute l'année.","Anglais, Allemand","Oui","Oui","Oui","Oui","20.","60.0",,"Oui","Chèques Vacances","Accès Internet, Câble/ satellite, Canal +, Mini-bar, Télévision","Bar, Jardin, Parc, Parking privé, Restaurant","Service en chambre","Piscine plein-air",,"90.0","140.","110","127",,,"13.0","13.0",,,"98.0","118.0","48.0","58.0","62.0","72.0"
"151","Hôtel-Restaurant Le Fleurvil","http://www.bourgogne-du-sud.com/images/bdd/photos/100083/1/146240.jpg","Hôtel-Restaurant Le Fleurvil","Rue Rabelais",,,"71260","Fleurville","46,4457853","4,8796015","40791677400018","551A",,,,"03 85 27 90 90",,"03 85 27 93 99","mailto: hotellefleurvil@free.fr","htpp://www.lefleurvil.fr","http://ldf.reservit.com/reservit/reserhotel.php?id=12&partid=378&hotelid=1228","Hôtels - restaurant","2 étoiles","10.0","9.0","9","2.0",,,,"Logis, Qualité Tourisme, Tour de Bourgogne à vélo","Logis","Tradition et gastronomie au carrefour de la Bresse, du Mâconnais et du Lyonnais. Chambres personnalisées tout confort. Restaurant non fumeur.","Fermé le lundi et le mardi.","Anglais","Oui",,,,,,,"Non","Chèques Vacances",,"Parking privé","Wifi",,,,"58.0","72","0",,,,"7.5","62.0",,"68.0",,,,,
"152","Hôtel-Restaurant Le Lion d'Or","http://www.bourgogne-du-sud.com/images/bdd/photos/HOTBOU0710000378.jpg","Hôtel-Restaurant Le Lion d'Or","Place Occidentale",,,"71470","Romenay","46,5022001","5,0668052","40313885200013","551A","B40313885295",,,"03 85 40 30 78",,"03 85 40 80 55","mailto: liondor.romenay@orange.fr",,"http://ldf.reservit.com/reservit/reserhotel.php?id=12&partid=378&hotelid=1731","Hôtels - restaurant","2 étoiles","9.0","8.0","8",,,,,"Logis, Qualité Tourisme","Logis","Au cœur de la Bresse Bourguignonne. Chambres tout confort, personnalisées. Plusieurs salles sont disponibles pour les repas d'affaires, réunions de famille...",,"Anglais","Oui",,"Oui","Oui",,,,,"Chèques Vacances","Accès Internet, Télévision","Bar, Local matériel fermé, Restaurant","Service en chambre",,,,,"0","0",,,,,,,,,,,,
"153","Hôtel-Restaurant Le Maryland",,"Hôtel-Restaurant Le Maryland","9, rue Jean Monnet",,,"71450","Blanzy","46,6972098","4,3917113",,,,,,"03 85 79 43 03",,,"mailto: lemaryland@orange.fr",,,"Hôtels - restaurant","2 étoiles (hôtel), 2 étoiles (nouveau classement)","7.0","7.0","7",,,,,,,,,,,,,,,,,,,,,,,,,,"0","0",,,,,,,,,,,,
"154","Hôtel-Restaurant Le Merle Blanc","http://www.bourgogne-du-sud.com/images/bdd/photos/100083/1/146310.jpg","Hôtel-Restaurant Le Merle Blanc","36, route de Gueugnon",,,"71160","Digoin","46,4999378","4,0129435","32028123100011","551A","2000B296",,,"03 85 53 17 13",,"03 85 88 91 71","mailto: lemerleblanc@wanadoo.fr","http://www.lemerleblanc.com","http://ldf.reservit.com/reservit/reserhotel.php?id=12&partid=378&hotelid=3067","Hôtels - restaurant","3 étoiles","12.0","15.0","12",,,"1.0","1.0","Logis, Qualité Tourisme","Logis","Entreprise familiale depuis 1960, située au cœur du Charolais, à Digoin, capitale de la céramique. Animaux acceptés : un seul animal par chambre avec supplément de 5 euros.","Fermé du dimanche soir au lundi 18h.","Anglais","Oui",,"Oui","Oui",,,,,"Chèques Vacances","Accès Internet, Câble/ satellite, Télévision","Bar, Parking privé, Restaurant","Service en chambre",,,"37.0","52.0","0","0",,,"6.0","7.0",,,"57.2",,,,,
"155","Hôtel-Restaurant Le Moulin du Gastronome","http://www.bourgogne-du-sud.com/images/bdd/photos/HOTBOU0710000569.jpg","Hôtel-Restaurant Le Moulin du Gastronome","540, route de Cluny","Champgrenom",,"71850","Charnay-lès-Mâcon","46,3104668","4,7929189","39034784700019","554B",,,,"03 85 34 16 68",,"03 85 34 37 25",,"http://www.moulindugastronome.com",,"Hôtels - restaurant","3 étoiles (hôtel), 3 étoiles (nouveau classement)","8.0","8.0","8",,"1.0","1.0","1.0","Hôtel de caractère",,"Situé en bordure de route, dans un cadre de verdure, au début de la route des vins, de la voie verte, nous vous accueillons dans un cadre intime et une ambiance familiale.",,"Anglais, Allemand","Oui","Oui","Oui","Oui",,,,,,"Mini-bar, Télévision","Jardin, Jeux pour enfants, Parc, Parking privé, Restaurant",,"Piscine plein-air",,,,"0","0",,,,,,,,,,,,
"156","Hôtel-Restaurant Le Moulin - Le Breuil","http://www.bourgogne-du-sud.com/images/bdd/photos/HOTBOU0710000317.jpg","Hôtel-Restaurant Le Moulin - Le Breuil","Route de Montcoy",,,"71670","Le Breuil","46,8116148","4,4598567","4494224430019","5610A",,,,"03 85 55 14 11",,"03 85 55 53 37","info@hotel-creusot-moulin.com","http://www.hotel-creusot-moulin.com",,"Hôtels - restaurant","3 étoiles","31.0","31.0","31","2.0",,,"2.0",,,"Hostellerie à l'ambiance familiale, très calme. Chambres rénovées, déclinées sur des thèmes différents.","Fermé pour les vacances de Noël. Le restaurant est fermé 3 semaines en août.","Anglais","Oui",,"Oui","Oui","15.","200.",,"Oui",,"Accès Internet, Câble/ satellite, Télévision","Bar, Jardin, Parc, Parking privé, Restaurant","Service en chambre","Piscine plein-air",,"79.0","91.0","91","103",,,"10.0",,,,,,,,,
"157","Hôtel-Restaurant Le Pré au Bois","http://www.bourgogne-du-sud.com/images/bdd/photos/100083/1/146282.jpg","Hôtel-Restaurant Le Pré au Bois",,"ZA du Monay",,"71210","Saint-Eusèbe","46,732056","4,4344015","40287701300019","551A","B402877013",,,"03 85 77 73 73",,"03 85 77 73 74","mailto: reception@lepreaubois.fr","http://lepreaubois.fr",,"Hôtels - restaurant","2 étoiles (hôtel), 2 étoiles (nouveau classement)","40.0","40.0","40",,,"2.0","2.0",,,"A 10 minutes de Montceau-les-Mines, du Creusot et de la gare TGV. Établissement moderne. Restaurant avec terrasse, salles de séminaires de 10 à 99 personnes. Pour vos moments de loisirs, salle de billard, salle de sport, terrain de jeux de boules.",,"Anglais, Espagnol","Oui","Oui","Oui","Oui",,,,,,"Câble/ satellite, Télévision","Jardin, Parking privé, Restaurant","Wifi",,,"65.0","80.0","0","0",,,"7.4","7.4",,,"77.0","77.0",,,,
"158","Hôtel-Restaurant Le Prieuré du Coeur de Jésus",,"Hôtel-Restaurant Le Prieuré du Coeur de Jésus","8, avenue Jean-Paul II",,,"71600","Paray-le-Monial","46,4494322","4,1211234","34011871000045","551A",,,,"03 85 88 83 17",,"03 85 88 87 06","mailto: reception@hotelprieure.fr","http://www.hotelprieure.fr",,"Hôtels - restaurant","2 étoiles","105.","103.","103",,,,"4.0",,,"Hôtel 2**, dans un cadre exceptionnel (jardins, terrasse, rivière), à proximité du centre-ville, de la basilique XIème siècle. 103 chambres (dont 10 handicapés), 220 lits, douche/wc. Restauration de 10 à 500 couverts. Salles modulables. Congrès, salle spectacle (750 personnes). Salles de conférences modulables et insonorisées (de 10 à 300 personnes).",,,"Non","Non","Oui","Oui",,,,,,,"Restaurant, Jardin, Bar",,,,,,"0","0",,,,,,,,,,,,
"159","Hôtel-Restaurant Le Régent",,"Hôtel-Restaurant Le Régent","47, rue Saint-Georges",,,"71100","Chalon-sur-Saône","46,7834647","4,8551976",,,,,,"03 85 48 20 61","06 64 72 95 31",,,,,"Hôtels - restaurant","Sans étoile","9.0","9.0","9",,,,,,,"9 chambres au cœur du centre-ville. Cuisine traditionnelle et familiale.",,,,,,,,,,,,"Télévision","Restaurant",,,,,,"0","0",,,,,,,,,,,,
"160","Hôtel-Restaurant Le Relais de l'Abbaye",,"Hôtel-Restaurant Le Relais de l'Abbaye","1, avenue Pasteur",,,"71700","Tournus","46,5670313","4,9074397",,,,,,"03 85 51 35 91",,"03 85 51 96 70","mailto: mariechristine.remy@orange.fr","http://www.lerelaisdelabbaye.fr",,"Hôtels - restaurant",,,,"10",,,,,,,,,,,,,,,,,,,,,,,,,,"0","0",,,,,,,,,,,,
"161","Hôtel-Restaurant Le Relais du Canalou","http://www.bourgogne-du-sud.com/images/bdd/photos/100083/1/146236.jpg","Hôtel-Restaurant Le Relais du Canalou","76, avenue du Général de Gaulle",,,"71160","Digoin","46,4841579","3,9873533","39260809700037","551A","392608097",,,"03 85 53 25 28",,"03 85 88 90 79","mailto: hotel@relaisducanalou.com","http://www.relaisducanalou.com","http://ldf.reservit.com/reservit/reserhotel.php?id=12&partid=378&hotelid=10780","Hôtels - restaurant","2 étoiles","15.0","15.0","15",,"1.0","2.0","2.0","Qualité Tourisme, Logis, Tourisme et Handicap MOTEUR, Tourisme et Handicap MENTAL","Logis","Hôtel-restaurant 2 étoiles, de caractère, très confortable, à deux pas du port de plaisance. Dans un cadre chaleureux et une ambiance conviviale, vous apprécierez notre piscine privée et sécurisée aux abords de laquelle notre terrasse d'été sera à votre disposition pour un rafraîchissement. Douche, accès wifi, canal + dans toutes les chambres.","Ouvert toute l'année.","Anglais, Allemand","Oui","Oui","Oui","Oui","10.","30.0",,"Oui","Chèques Vacances","Accès Internet, Câble/ satellite, Canal +, Climatisation, Télévision, Wifi","Bar, Garage privé, Jardin, Parking privé, Restaurant","Location de voitures, Service en chambre","Animation, Piscine plein-air",,"43.0","52.0","52","61","71.0","71.0","6.5","6.5",,,"56.0","74.0",,,,
"162","Hôtel-Restaurant Le Relais du Montagny","http://www.bourgogne-du-sud.com/images/bdd/photos/100083/1/146204.jpg","Hôtel-Restaurant Le Relais du Montagny","12, route de Chalon",,,"71390","Buxy","46,7136096","4,7063282","35164988400019","551A","B351649884",,,"03 85 94 94 94",,"03 85 92 07 19","mailto: contact@lerelaisdumontagny.fr","http://www.relaisdumontagny.fr","http://reservation-hotel.logishotels.com/reservit/avail-info.php?userid=3635dbed86ad4fcefe82262d45d678895bc1&hotelid=195&partid=378","Hôtels - restaurant","2 étoiles (hôtel), 2 étoiles (nouveau classement)","30.0","30.0","30",,,"2.0","2.0","Qualité Tourisme, Logis, Tour de Bourgogne à vélo","Logis","Sur la Route des Vins, entre Beaune et Cluny, équipement moderne à l'orée d'un village médiéval. 30 chambres avec bain ou douche, wc, téléphone direct, télévision, canal +, canal satellite, piscine. Wifi. Vaste parking, parking autocars, garage.",,"Anglais","Oui",,"Oui","Oui","20.","50.0",,"Oui","Chèques Vacances","Accès Internet, Câble/ satellite, Canal +, Télévision, Wifi","Bar, Garage privé, Jardin, Jeux pour enfants, Local matériel fermé, Parc, Parking privé, Restaurant",,"Animation, Piscine plein-air",,"51.0","63.0","69","80",,,"8.0","8.0",,,,,,,,
"163","Hôtel-Restaurant Le Rempart","http://www.bourgogne-du-sud.com/images/bdd/photos/0/H/HOTBOU0710000419.jpg","Hôtel-Restaurant Le Rempart","2-4, avenue Gambetta",,,"71700","Tournus","46,5645829","4,9079158","31563551600018","5610A","B315635516",,,"03 85 51 10 56","06 09 15 69 54","03 85 51 77 22","mailto: lerempart@wanadoo.fr","http://www.lerempart.com",,"Hôtels - restaurant","4 étoiles (hôtel), 4 étoiles (nouveau classement)","34.0","34.0","34","5.0","11.","4.0","3.0","Tables et Auberges de France, Bourgogne Séminaires, Qualité Tourisme","Châteaux et Hôtels Collection","Hôtel entièrement neuf de grand confort avec un accueil dans la pure tradition française.","Fermé le 24/12.","Anglais, Allemand, Espagnol","Oui","Oui","Oui","Oui","10.","70.0","1 gratuité pour 20 personnes payantes.","Oui",,"Accès Internet, Câble/ satellite, Climatisation, Mini-bar, Télévision","Ascenseur, Bar, Garage privé, Parking privé, Restaurant","Coffres clients, Service en chambre, Voiturier",,,"125.","175.","127","127","150.","265.","12.0","16.0","100.0","145.0","119.0","133.0","70.0","125.0","95.0","140.0"
"164","Hôtel-Restaurant Le Saint-Cyr","http://www.bourgogne-du-sud.com/images/bdd/photos/100083/1/146384.jpg","Hôtel-Restaurant Le Saint-Cyr","Le Bourg",,,"71520","Montmelard","46,3297124","4,4103213","50163388700010","551A","501633887",,,"03 85 50 20 76",,,"mailto: lesaintcyr@cegetel.net","http://www.lesaintcyr.fr","http://ldf.reservit.com/reservit/reserhotel.php?id=12&partid=378&hotelid=6280","Hôtels - restaurant","3 étoiles (hôtel), 3 étoiles (nouveau classement)","7.0","7.0","7",,"1.0",,,"Aventures Mômes, Qualité Tourisme, Logis","Logis","Hôtel d'un calme idéal bénéficiant d'une vue panoramique sur la campagne environnante. Cuisine traditionnelle : bœuf charolais, escargots, volaille et spécialités de poissons.","Fermé du 02/01/2013 au 15/01/2013 et du 13/02/2013 au 06/03/2013, le lundi midi et le mardi midi toute l'année, et le vendredi soir de novembre à mars.","Anglais, Néerlandais, Allemand","Oui",,"Oui","Oui",,"18.0",,,"Chèques Vacances","Accès Internet, Câble/ satellite, Télévision","Bar, Jeux pour enfants, Parking privé, Restaurant, Local matériel fermé","Wifi",,,"58.0","68.0","77","88","68.0",,"7.5",,"54.0","73.0","66.0","70.0","54.0",,"54.0","73.0"
"165","Hôtel-Restaurant Le Saint-Georges","http://www.bourgogne-du-sud.com/images/bdd/photos/100083/1/146211.jpg","Hôtel-Restaurant Le Saint-Georges","32, avenue Jean Jaurès",,,"71100","Chalon-sur-Saône","46,78225","4,8448256","42505473100012","551A",,,,"03 85 90 80 50",,"03 85 90 80 55","mailto: reservation@le-saintgeorges.fr","http://www.le-saintgeorges.fr",,"Hôtels - restaurant","3 étoiles (hôtel), 3 étoiles (nouveau classement)","51.0","49.0","49","3.0","4.0",,"3.0","Bourgogne Séminaires",,"""En plein cœur de Chalon-sur-Saône, à proximité du centre historique, l’Hôtel Saint-Georges allie le charme d’une bâtisse du XIXème siècle et le confort d’un établissement moderne. Récemment rénové, l’hôtel propose 5 catégories de chambres au design épuré et au mobilier haut de gamme. La Brasserie """"Le Saint-Georges by Georges"""", nouvellement redécorée, vous proposera une carte pleine de saveurs et de spécialités Bourguignonne. ""","Ouvert toute l'année.","Anglais, Allemand, Italien, Espagnol, Portugais","Oui","Oui","Oui","Oui","20.","80.0","1 gratuité pour 20 personnes payantes.","Oui","Chèques Vacances","Accès Internet, Climatisation, Télévision","Ascenseur, Bar, Garage privé, Parking privé, Restaurant","Coffres clients, Service en chambre, Wifi","Randonnée voie verte",,"105.",,"127","0",,"180.","13.0","13.0","78.0","99.0","99.0","130.0",,,"78.0","78.0"
"166","Hôtel-Restaurant Les Blés d'Or","http://www.bourgogne-du-sud.com/images/bdd/photos/100083/1/146328.jpg","Hôtel-Restaurant Les Blés d'Or","13, place de l’Église",,,"71460","Cormatin","46,543977","4,68748","43434761300029","551A",,,,"03 85 50 10 94",,"03 85 50 70 48","mailto: contact@hotel-cormatin.com","http://www.hotel-cormatin.com",,"Hôtels - restaurant","3 étoiles (hôtel), 3 étoiles (nouveau classement)","13.0","13.0","13","2.0","2.0","1.0","1.0",,,"Jocelyne et Rémy Litaudon sont heureux de vous accueillir dans leur hôtel rustique, de charme, situé face au château de Cormatin, au centre du village, avec une restauration traditionnelle, une brasserie et une pizzéria.","Fermé les 15 derniers jours de décembre et le vendredi soir d'octobre à fin mars.","Anglais","Oui",,,,,,,,"Chèques Vacances","Accès Internet, Câble/ satellite, Mini-bar, Télévision, Wifi","Bar, Restaurant","Coffres clients, Service en chambre",,,"71.0",,"95","114",,"129.","9.5","9.5","62.0","92.0","65.0",,,,,
"167","Hôtel-Restaurant Les Diligences",,"Hôtel-Restaurant Les Diligences","14, rue Nationale",,,"71160","Digoin","46,4802664","3,9766596","34855293600018","551A","348552936",,,"03 85 53 06 31",,"03 85 88 92 43","mailto: hotel-les-diligences@wanadoo.fr","http://www.les-diligences.com","http://ldf.reservit.com/reservit/reserhotel.php?id=12&partid=378&hotelid=2606","Hôtels - restaurant","3 étoiles (hôtel), 3 étoiles (nouveau classement)","6.0","6.0","6","1.0",,,"1.0","Qualité Tourisme, Logis","Logis","Ancien relais de diligences situé sur les bords de la Loire. Six chambres entièrement refaites et toutes décorées et meublées dans un style différent.",,"Anglais, Espagnol","Non","Oui","Oui","Oui","20.","40.0","1 gratuité pour 20 personnes payantes.","Non","Chèques Vacances","Accès Internet, Télévision","Bar, Garage privé, Jardin, Jeux pour enfants, Parking privé, Restaurant","Service en chambre",,,"50.0","70.0","70","100",,,"8.0","8.0","60.0","70.0","68.0","68.0",,,,
"168","Hôtel-Restaurant Les Jardins du Lac",,"Hôtel-Restaurant Les Jardins du Lac","Plan d'Eau du Vallon",,,"71400","Autun","46,9534478","4,315471","42856916400018","551A",,,,"03 85 86 25 25",,"03 85 86 91 40","mailto: lesjardinsdulac@wanadoo.fr","http://www.hotel-autun.com",,"Hôtels - restaurant","2 étoiles","20.0","20.0","20",,,,,,,"Aux berges du lac, proche du golf et théâtre romain. Halte tranquille et accueillante. Spécialités régionales.",,,,,,,,,,,,,"Restaurant",,,,,,"0","0",,,,,,,,,,,,
"169","Hôtel-Restaurant Les Maritonnes","http://www.bourgogne-du-sud.com/images/bdd/photos/100083/1/146278.jpg","Hôtel-Restaurant Les Maritonnes","N°513, route de Fleurie - D32",,,"71570","Romanèche-Thorins","46,1757","4,74038","32075403900016","5610A","B32075403900016",,,"03 85 35 51 70",,"03 85 35 58 14","mailto: contact@maritonnes.com","http://www.maritonnes.com","http://hotel.reservit.com/reservit/avail-info.php?hotelid=10175&userid=94531a7172c87dacd66d178489f554a182db","Hôtels - restaurant","3 étoiles (hôtel), 3 étoiles (nouveau classement)","23.0","23.0","23","3.0","2.0","1.0","1.0","Tables et Auberges de France, Logis, Qualité Tourisme, Bourgogne Séminaires","Logis","""Notre mission : """"Partager le bonheur dans une maison de charme. Nous offrons un accueil familial, un art de vivre et une cuisine riche de passions"""". L’histoire d’une admirable ferme auberge relookée où l’harmonie entre art de vivre et professionnalisme enchantent votre séjour. Situé au cœur du vignoble Beaujolais, Mâconnais, proche de Lyon et Beaune, un cadre idyllique s’offre sur un domaine d’ 1,3 hectares idéal pour une étape bien être. Outre cet environnement privilégié avec piscine, jacuzzi et tennis Les Maritonnes propose de nombreuses possibilités de découvertes sportives, ""","Ouvert tous les jours midi et soir de Pâques à mi-octobre. Fermé dimanche et lundi toute la journée de mi-octobre à Pâques. Fermeture annuelle : 15 jours mi décembre. Réouverture pour le Réveillon de la Saint-Sylvestre.","Anglais, Allemand, Néerlandais","Oui","Oui","Oui","Oui","15.","55.0","1 gratuité pour 25 personnes payantes.","Oui","Chèques Vacances","Accès Internet, Climatisation, Mini-bar, Télévision, Wifi","Bar, Jardin, Jeux pour enfants, Local matériel fermé, Parc, Parking privé, Restaurant","Location de matériel de sport, Location ou prêt de vélos/VTT, Wifi","Animation, Piscine plein-air, Tennis, Jacuzzi, Randonnée voie verte","Soirée à thème, dégustations de vin, animations dégustations de vin en aveugle commentées au cours du repas, cours de cuisine...","75.0","190.","127","127","165.","190.","17.0",,"95.0","115.0","115.0",,"80.0",,"130.0",
"170","Hôtel-Restaurant Les Négociants",,"Hôtel-Restaurant Les Négociants","97, avenue de la République",,,"71210","Montchanin","46,7485705","4,4692302","45151300600010","551A","451513006",,,"03 85 78 10 34",,"03 85 78 10 34",,,,"Hôtels - restaurant","Sans étoile","11.0","12.0","11",,,,,,,,,,,,,,,,,,,,"Restaurant",,,,,,"0","0",,,,,,,,,,,,
"171","Hôtel-Restaurant Les Trois Maures",,"Hôtel-Restaurant Les Trois Maures","Place de la Liberté",,,"71350","Verdun-sur-le-Doubs","46,8962735","5,0238589","49163699900014","551A",,,,"03 85 91 51 17",,"03 85 91 92 18","mailto: lestroismaures@yahoo.fr","http://www.h3m.fr","http://reservation-hotel.logishotels.com/reservit/avail-info.php?userid=1815e25cc0bb92e569c4f57e09a99ef6b2c4&hotelid=15444","Hôtels - restaurant","2 étoiles (hôtel), 2 étoiles (nouveau classement)","12.0","12.0","12",,,,"1.0","Tables et Auberges de France, Qualité Tourisme, Logis","Logis","Hôtel-restaurant situé au centre du village, à 50 mètres du port de plaisance.",,"Anglais","Oui",,"Oui","Oui",,,,,,"Accès Internet, Télévision","Bar, Local matériel fermé, Restaurant",,,,,,"0","0",,,,,,,,,,,,
"172","Hôtel-Restaurant Le Terminus","http://www.bourgogne-du-sud.com/images/bdd/photos/HOTBOU0710000408.jpg","Hôtel-Restaurant Le Terminus","21, avenue Gambetta",,,"71700","Tournus","46,5668746","4,9074005","45344534800015","551A",,,,"03 85 51 05 54",,"03 85 51 79 11","mailto: reservation@hotel-terminus-tournus.com","http://www.hotel-terminus-tournus.com","http://ldf.reservit.com/reservit/reserhotel.php?id=12&partid=378&hotelid=2588","Hôtels - restaurant","3 étoiles (hôtel), 3 étoiles (nouveau classement)","11.0","11.0","11",,,,,"Logis, Qualité Tourisme","Logis",,,,,,,,,,,,,,"Restaurant",,,,,,"0","0",,,,,,,,,,,,
"173","Hôtel-Restaurant Le Val d'Or","http://www.bourgogne-du-sud.com/images/bdd/photos/HOTBOU0710000520.jpg","Hôtel-Restaurant Le Val d'Or","La Beluze - Volesvres",,,"71600","Paray-le-Monial","46,451533","4,150806","43409408200022","551A",,,,"03 85 81 05 07",,"03 85 81 46 05",,,,"Hôtels - restaurant","2 étoiles","14.0","14.0","14",,,,,,,"A deux pas de la ville, sur la D248 par le centre ville, l'Hôtel du Val d'Or vous accueille. Nous vous recevons dans un cadre champêtre et reposant, loin des bruits de la ville. Parking et garage privés. Détente assurée dans ",,,"Oui",,"Oui","Oui",,,,,,"Télévision","Bar, Garage privé, Parking privé, Restaurant",,,,,,"0","0",,,,,,,,,,,,
"174","Hôtel-Restaurant Le Vendangerot","http://www.bourgogne-du-sud.com/images/bdd/photos/100083/1/146280.jpg","Hôtel-Restaurant Le Vendangerot","6, place Sainte-Marie",,,"71150","Rully","46,874845","4,739892","50947749300027","551A","329358048",,,"03 85 87 20 09",,"03 85 91 27 18","mailto: levendangerot@orange.fr","http://www.levendangerot.fr","http://ldf.reservit.com/reservit/reserhotel.php?id=12&partid=378&hotelid=2987","Hôtels - restaurant","2 étoiles (hôtel), 2 étoiles (nouveau classement)","15.0","15.0","15",,,,,"Logis, Qualité Tourisme, Tables et Auberges de France","Logis","Hôtel calme, au centre d'un village de la Côte Chalonnaise.","Ouvert du 12/02 au 02/01.","Anglais","Oui",,"Oui",,,,,,,,"Restaurant",,,,"55.0","75.0","75","0",,,"7.0",,,,,,,,,
"175","Hôtel-Restaurant Le Vieux Jambon","http://www.bourgogne-du-sud.com/images/bdd/photos/100083/1/146336.jpg","Hôtel-Restaurant Le Vieux Jambon","RN80",,,"71710","Marmagne","46,8414065","4,3658122","42255957500010","551A","422559575",,,"03 85 78 20 32",,"03 85 78 29 91",,,,"Hôtels - restaurant",,"13.0","13.0","13",,,,"1.0",,,"A quelques encablures du Creusot, Autun, Chalon, Montceau, Le Vieux Jambon propose une halte qui conjugue gastronomie et détente. Hôtel entièrement rénové. Salles de restaurant climatisées.",,"Anglais","Oui",,"Oui","Oui","16.","25.0",,,"Chèques Vacances","Câble/ satellite, Canal +, Télévision","Bar, Parking privé, Restaurant","Wifi",,,,,"0","0",,,,,,,,,,,,
"176","Hôtel-Restaurant Ma Campagne","http://www.bourgogne-du-sud.com/images/bdd/photos/100083/1/146375.jpg","Hôtel-Restaurant Ma Campagne","Quai Bellevue - N°56",,,"71100","Lux","46,7604","4,85417","44103617500020","551A",,,,"03 85 48 33 80",,"03 85 93 33 72","mailto: reception@hotel-restaurant-macampagne.com","http://hotel-restaurant-macampagne.com","http://ldf.reservit.com/reservit/reserhotel.php?id=12&partid=378&hotelid=6887","Hôtels - restaurant","2 étoiles","7.0","12.0","7","4.0","1.0","1.0","3.0","Qualité Tourisme, Tables et Auberges de France, Logis","Logis","Cadre exceptionnel. Vue sur la Saône. Calme. Logis de France, 2 cheminées. Chambres climatisées, restauration néo-classique. Wifi.",,"Anglais","Oui",,,"Oui","30.","50.0","Gratuité pour le chauffeur.","Oui","Chèques Vacances","Accès Internet, Climatisation, Télévision, Wifi","Bar, Jardin, Local matériel fermé, Parc, Parking privé, Restaurant","Coffres clients",,,"54.0","70.0","70","90",,,"7.0",,,,"65.0","79.0",,,,
"177","Hôtel-Restaurant Mercure",,"Hôtel-Restaurant Mercure","Avenue de l'Europe",,,"71100","Chalon-sur-Saône","46,7982749","4,8353009","42046204601713","551A","420462046",,,"03 85 46 51 89",,"03 85 46 08 96","mailto: H0368@accor.com","http://www.accor.com",,"Hôtels - restaurant","3 étoiles (hôtel), 3 étoiles (nouveau classement)","85.0","85.0","85","4.0","1.0","2.0","7.0","Qualité Tourisme, Bourgogne Séminaires","Mercure","Climatisé, calme. Mini-bar, télévision, satellite, modem informatique. Wifi.  Piscine et terrasse.","Ouvert toute l'année.","Anglais","Oui","Oui","Oui","Oui","60.","90.0","Une gratuité à partir de 20 personnes payantes (base single).","Oui","Chèques Vacances","Accès Internet, Câble/ satellite, Canal +, Climatisation, Mini-bar, Télévision, Wifi","Ascenseur, Bar, Jardin, Local matériel fermé, Parking privé, Restaurant","Service en chambre","Piscine plein-air",,,,"0","0",,,,,,,,,,,,
"178","Hôtel-Restaurant Moulin de Bourgchâteau","http://www.bourgogne-du-sud.com/images/bdd/photos/100083/1/146250.jpg","Hôtel-Restaurant Moulin de Bourgchâteau","Chemin de Bourgchâteau","Route de Chalon",,"71500","Louhans","46,6334487","5,2182762","44270266800017","551A","2002B185",,,"03 85 75 37 12","06 86 21 58 92","03 85 75 45 11","mailto: bourgchateau@netcourrier.com","http://www.bourgchateau.com",,"Hôtels - restaurant","3 étoiles (hôtel), 3 étoiles (nouveau classement)","19.0","19.0","19","1.0","2.0",,"1.0",,,"Ancien moulin céréalier construit en 1778, sur un bras naturel de la Seille qui fonctionna jusqu'en 1973. Transformé en une hôtellerie raffinée en 1986, il contribue à faire le bonheur de chacun, alliant calme et verdure.","Ouvert toute l'année.","Anglais, Italien","Oui","Oui","Oui","Oui","20.","60.0",,"Oui","Chèques Vacances","Accès Internet, Climatisation, Télévision, Wifi","Bar, Jardin, Local matériel fermé, Parc, Parking privé, Restaurant","Service en chambre",,,"57.0","105.","0","0","85.0","105.","9.0","10.0","70.0","85.0","69.0","89.0",,,,
"179","Hôtel-Restaurant Nota Béné",,"Hôtel-Restaurant Nota Béné","70, quai Jules Chagot",,,"71300","Montceau-les-Mines","46,6718022","4,3588757","43454044900015","551A","434540449",,,"03 85 69 10 15","06 78 76 39 70","03 85 69 10 20","mailto: contact@notabene.fr","http://notabene.fr",,"Hôtels - restaurant","3 étoiles (hôtel), 3 étoiles (nouveau classement)","46.0","46.0","46","12.","19.","2.0","2.0",,,,"Ouvert toute l'année.","Anglais, Italien","Oui","Oui","Oui","Oui",,"80.0",,,,"Accès Internet, Câble/ satellite, Canal +, Climatisation, Mini-bar, Télévision","Ascenseur, Bar, Local matériel fermé, Parking privé, Restaurant, Salle de sport","Location de matériel de sport, Wifi",,,"65.0","85.0","79","99",,,"7.0","7.0","64.0","94.0","64.0","94.0",,,,
"180","Hôtel-Restaurant Park Inn Mâcon","http://www.bourgogne-du-sud.com/images/bdd/photos/100083/1/146256.jpg","Hôtel-Restaurant Park Inn Mâcon","26, rue Pierre de Coubertin",,,"71000","Mâcon","46,3180963","4,8422936","45388016300010","5510Z","453880163",,,"03 85 21 93 93",,"03 85 39 11 45","mailto: info.macon@rezidorparkinn.com","http://www.parkinn.fr/hotel-macon",,"Hôtels - restaurant","3 étoiles (hôtel), 3 étoiles (nouveau classement)","64.0","64.0","64",,,,"4.0","Bourgogne Séminaires","Park Inn","Point de départ de la route des vins du Mâconnais Beaujolais, au cœur de la ","Ouvert toute l'année.","Italien, Anglais, Allemand","Oui","Oui","Oui","Oui","8.0","140.","1 personne en 1/2 double pour 20 personnes payantes.","Oui","Chèques Vacances","Accès Internet, Câble/ satellite, Canal +, ","Ascenseur, Bar, Jardin, Local matériel fermé, Parc, ","Coffres clients, Location de voitures, Service en ","Piscine plein-air, Tennis",,"91.5","132.","127","127",,,"14.2","14.2","31.3","42.1","100.0",,"30.24","42.1","54.0","64.8"
"181","Hôtel-Restaurant Rond Point","http://www.bourgogne-du-sud.com/images/bdd/photos/0/1/146332.jpg","Hôtel-Restaurant Rond Point","24 bis, place de Grève",,,"71160","Digoin","46,4809018","3,9730764","39260809700045","551A",,,,"03 85 53 07 15",,"03 85 53 50 93","mailto: chez-lily@orange.fr",,,"Hôtels - restaurant","2 étoiles","18.0","18.0","18",,,,"1.0",,,"Hôtel 2 étoiles au cœur de Digoin. Découvrez nos chambres avec vue sur les bords de Loire. A deux pas du pont-canal et du port de plaisance. Soirée étape. Parking privé. Télévision avec canal plus. Wifi gratuit.","Ouvert toute l'année.","Anglais","Oui","Oui","Oui","Oui","10.",,,"Oui","Chèques Vacances","Canal +, Télévision, Wifi, Climatisation","Bar, Parking privé, Restaurant","Location de voitures",,,"36.0","53.0","53","53",,,,,,,,,,,,
"182","Hôtel-Restaurant Saint-Benoît",,"Hôtel-Restaurant Saint-Benoît","1, rue de la Fontaine",,,"71130","Gueugnon","46,5991787","4,0652508","39249875400010","551A","B392498754",,,"03 85 85 23 23","06 07 94 72 91","03 85 85 83 38","mailto: hotel-restaurant.st-benoit@wanadoo.fr","http://hotel-saint-benoit.com",,"Hôtels - restaurant","3 étoiles (hôtel), 3 étoiles (nouveau classement)","30.0","30.0","30",,,,"1.0",,,,,,,,,,,,,,,,"Restaurant",,,,,,"0","0",,,,,,,,,,,,
"183","Hôtel-Restaurant Saint-Louis de la Poste",,"Hôtel-Restaurant Saint-Louis de la Poste","6, rue de l'Arbalète",,,"71400","Autun","46,9495367","4,3003133","45134049100013","551C","B451340491",,,"03 85 52 01 01",,"03 85 86 32 54",,"http://www.hotel-saint-louis-bourgogne.com",,"Hôtels - restaurant","2 étoiles","39.0","35.0","35",,,,,,,"Bâtisse de plus de 350 ans d'âge, située au centre ville, à proximité de la place du Champ de Mars d'Autun, ville d'art et d'histoire, au cœur de la Bourgogne. Cet hôtel est plein de charme et d'élégance d'antan, calme avec cour et terrasse. Il dispose de la suite originale où Napoléon et Joséphine ont séjourné.",,,,,,,,,,,,,"Restaurant",,,,,,"0","0",,,,,,,,,,,,
"184","Hôtel-Restaurant Saint-Régis","http://www.bourgogne-du-sud.com/images/bdd/photos/100083/1/146216.jpg","Hôtel-Restaurant Saint-Régis","22, boulevard de la République",,,"71100","Chalon-sur-Saône","46,7837664","4,8499949","72632017900013","551A","726320179B ",,,"03 85 90 95 60",,"03 85 90 95 70","mailto: saint-regis@saint-regis-chalon.fr","http://www.saint-regis-chalon.com","http://www.bestwestern.fr/infos_hotel.jsp?HotelCode=93030&ChainCode=BW&RequestedCurrencyCode=EUR&roomStay=1&primarylangid=fr-FR&DateRangeStart=04/08/2010&DateRangeEnd=05/08/2010&roomQuantity=1&adultQuantity_1=1&childQuantity_1=0","Hôtels - restaurant","4 étoiles (hôtel), 4 étoiles (nouveau classement)","35.0","35.0","35",,"5.0",,"1.0",,"Best Western","Hôtel de charme. Douceur de l'ancien et raffinement du moderne se conjuguent. Entièrement insonorisé et climatisé, il est une étape de choix pour les affaires ou le tourisme.","Ouvert toute l'année.","Anglais, Allemand","Oui",,"Oui","Oui","12.","50.0",,"Oui","Chèques Vacances","Accès Internet, Canal +, Climatisation, Mini-bar, Télévision, Wifi","Ascenseur, Bar, Garage privé, Restaurant","Coffres clients, Location de voitures, Service en chambre",,,"109.","146.","127","127","146.","156.","5.0","15.0","101.0","115.0","96.25","99.75","112.4","122.4","130.4","140.2"
"185","Hôtel-Restaurant Terminus","http://www.bourgogne-du-sud.com/images/bdd/photos/100083/1/146316.jpg","Hôtel-Restaurant Terminus","27, avenue de la Gare",,,"71600","Paray-le-Monial","46,4481853","4,1131842","45047806000012","551A",,,,"03 85 81 59 31",,"03 85 81 38 31","mailto: hotel.terminus@club-internet.fr","http://www.terminus-paray.fr",,"Hôtels - restaurant","3 étoiles (nouveau classement), 3 étoiles (hôtel)","18.0","18.0","18","2.0",,,"1.0","Qualité Tourisme","Contact Hôtel","Cet ensemble de 18 chambres, amoureusement rénové, meublé et décoré en style Louis XV et Louis XVI réunit le charme d'autrefois et le confort de l'hostellerie moderne.",,"Anglais","Oui",,"Oui","Oui",,"39.0",,,,"Câble/ satellite, Canal +, Télévision, Wifi","Garage privé, Jardin, Parking privé, Restaurant","Service en chambre",,,"71.0","80.5","86","95",,,"8.5",,"68.5","87.0","68.5",,,,,
"186","Hôtel-Restaurant Villa du Vieux Puits","http://www.bourgogne-du-sud.com/images/bdd/photos/100083/1/146202.jpg","Hôtel-Restaurant Villa du Vieux Puits","7, rue de Bel Air",,,"71140","Bourbon-Lancy","46,6175","3,7705419","31613299200017","6708","A316132992",,,"03 85 89 04 04",,"03 85 89 13 87","mailto: hubert.perraudin@orange.fr",,,"Hôtels - restaurant","2 étoiles","7.0","7.0","7",,,,,,,"Établissement créé dans une ancienne tannerie, au bord d'un petit ruisseau et d'un jardin arboré. Situation tranquille en agglomération.",,,"Oui","Oui",,,,,,,"Chèques Vacances","Télévision, Accès Internet","Jardin, Parking privé, Restaurant","Service en chambre",,,,,"0","0",,,,,,,,,,,,
"187","Hôtel-Restaurant Vuillot","http://www.bourgogne-du-sud.com/images/bdd/photos/100083/1/146233.jpg","Hôtel-Restaurant Vuillot","36, rue Edouard Vuillard",,,"71480","Cuiseaux","46,4938951","5,3876407","52410746300019","5510Z","CHALON SUR SAONE",,,"03 85 72 71 79",,"03 85 72 54 22","mailto: hotel.vuillot@orange.fr","http://www.hotelvuillot.fr","http://reservation-hotel.logishotels.com/reservit/avail-info.php?userid=04633b0a952ef9b1e7022f3acf708cbb649d&hotelid=311, http://www.travelhotelonline.com/reservation/?four=646","Hôtels - restaurant","2 étoiles (hôtel), 2 étoiles (nouveau classement)","16.0","16.0","16","2.0",,,"1.0","Logis, Qualité Tourisme","Logis","Vous ne pourrez résister à l'attrait de cette belle maison bourguignonne, étape de charme et de détente. L'accueil y est chaleureux et l'ambiance conviviale. Cuisine bressane.","Fermé les 2 premières semaines de janvier et la dernière semaine de novembre.","Anglais","Oui","Oui","Oui","Oui","20.","60.0","Gratuité pour 1 chauffeur et 1 guide pour 30 personnes. 1 gratuité pour 25 personnes payantes.","Oui","Chèques Vacances","Accès Internet, Télévision","Bar, Garage privé, Local matériel fermé, Parking privé, Restaurant","Wifi, Location ou prêt de vélos/VTT","Piscine plein-air",,"60.0","70.0","76","86",,,"8.5","8.5","46.0","64.0","62.0","62.0",,,,
"188","Hôtel Saint-Jean","http://www.bourgogne-du-sud.com/images/bdd/photos/100083/1/146212.jpg","Hôtel Saint-Jean","24, quai Gambetta",,,"71100","Chalon-sur-Saône","46,7792361","4,8525132","488710195","551C","2006B74",,,"03 85 48 45 65",,"03 85 93 62 69","mailto: reservation@hotelsaintjean.fr","http://hotelsaintjean.fr",,"Hôtels","2 étoiles (hôtel), 2 étoiles (nouveau classement)","25.0","25.0","25","6.0",,,,,,"Hôtel situé sur les bords de la Saône, très calme. Chambres tout confort. Accès facile. Vaste parking.","Ouvert toute l'année.","Anglais",,"Oui",,"Oui",,"35.0",,"Non","Chèques Vacances","Câble/ satellite","Parking privé","Wifi",,,"58.0","58.0","68","68",,,"8.0","8.0",,,"71.0","71.0","58.0","74.0",,
"189","Hôtel Saint-Odilon","http://www.bourgogne-du-sud.com/images/bdd/photos/100083/1/146227.jpg","Hôtel Saint-Odilon","Belle Croix",,,"71250","Cluny","46,4337171","4,6581957","44114328600017","551A",,,,"03 85 59 25 00",,"03 85 59 06 18","mailto: contact@hotelsaintodilon.com","http://www.hotelsaintodilon.com",,"Hôtels","2 étoiles (nouveau classement), 2 étoiles (hôtel)","36.0","36.0","36","3.0",,"2.0",,"Tour de Bourgogne à vélo",,"A 500 mètres de l'Abbaye, hôtel de charme dans un cadre de verdure.","Ouvert toute l'année.","Anglais","Oui","Oui","Oui","Oui","20.","70.0","Une gratuité chauffeur à partir de 30 personnes.","Non","Chèques Vacances","Accès Internet, Câble/ satellite, Mini-bar, Télévision, Wifi","Bar, Jardin, Parking privé, Jeux pour enfants, Local matériel fermé, Parc","Service en chambre",,,"55.0","55.0","110","110",,,"7.5","8.5","72.0","79.0",,,"33.0","55.0","50.0","72.0"
"190","Hôtel Saint-Philibert","http://www.bourgogne-du-sud.com/images/bdd/photos/HOTBOU0710000415.jpg","Hôtel Saint-Philibert","19, avenue Gambetta",,,"71700","Tournus","46,5663589","4,9074039","33862359800012","551D",,,,"03 85 51 00 44","06 08 86 42 43","03 85 32 58 03","mailto: hotel-st-philibert@wanadoo.fr","http://www.hotel-st-philibert.com",,"Hôtels","2 étoiles","11.0","11.0","11",,"1.0","2.0","1.0",,,"Dans la cité du peintre Greuze, près de l'Abbaye romane (XI et XIIème siècles), de magnifiques chambres rendront votre séjour à Tournus des plus agréables.","Ouvert toute l'année.","Anglais","Oui",,"Oui","Oui",,,,,"Chèques Vacances","Accès Internet, Télévision","Bar, Jardin, Parking privé, Restaurant","Service en chambre, Voiturier",,,"51.0",,"0","0",,,"7.0",,,,"56.0",,,,,
"191","Hôtel Tourist'Hôtel","http://www.bourgogne-du-sud.com/images/bdd/photos/100083/1/146220.jpg","Hôtel Tourist'Hôtel","14, place Charles Le Téméraire",,,"71120","Charolles","46,4363217","4,2784398","48010926300016","551C","480109263",,,"03 85 24 15 92",,"03 85 24 02 35","mailto: touristhotelcharolles@yahoo.fr","http://www.tourist-hotel.fr",,"Hôtels","Sans étoile","11.0","10.0","10","3.0",,,,,,"Hôtel composé de 10 chambres. Ambiance chaleureuse et conviviale.","Ouvert toute l'année.","Anglais","Oui",,"Oui","Oui",,"23.0",,,,"Accès Internet, Télévision","Jardin",,,,"33.0","45.0","52","65",,,"6.0",,,,,,,,,
"192","Hôtel Village Motel","http://www.bourgogne-du-sud.com/images/bdd/photos/100083/1/146348.jpg","Hôtel Village Motel","Rue des Lauriers",,,"71700","Tournus","46,5733634","4,9014481","33340156000029","551A","333401560",,,"03 85 51 07 45",,"03 85 51 33 96",,,,"Hôtels","2 étoiles (hôtel), 2 étoiles (nouveau classement)","41.0","41.0","41",,,"2.0",,,,"Hôtel avec piscine idéalement situé à l'entrée nord de Tournus, près de la sortie d'autoroute.","Ouvert toute l'année.","Anglais","Oui",,,,,,,,,"Câble/ satellite, Télévision, Climatisation","Garage privé, Jardin, Parc","Wifi","Piscine plein-air",,"41.0",,"0","75",,,"6.0",,,,"62.0",,,,,
"193","Ibis Mâcon Sud Hôtel-Restaurant","http://www.bourgogne-du-sud.com/images/bdd/photos/100083/1/146351.jpg","Ibis Mâcon Sud Hôtel-Restaurant","Parc des Bouchardes","Chaintré",,"71680","Crêches-sur-Saône","46,254722","4,79061","31353654200035","55.10.Z","78B47",,,"03 85 36 51 60",,"03 85 37 42 40","mailto: H0670@accor.com","http://www.ibismacon.com",,"Hôtels - restaurant","3 étoiles (hôtel), 3 étoiles (nouveau classement)","78.0","79.0","78","5.0",,"4.0","2.0","Qualité Tourisme, Bourgogne Séminaires","Ibis","Au pied du vignoble de Bourgogne. Hôtel climatisé, neuf. Parking fermé. Restaurant de tourisme climatisé. Hôtel ouvert 24h/24. Piscine. Billard. Cheminée. Wifi. Séminaires. Certifié ISO 9001 (qualité). Certifié 14001 (environnement).","Ouvert toute l'année.","Anglais, Allemand, Italien","Oui",,"Oui","Oui","15.","80.0","1/2 gratuité en chambre double pour 20 personnes payantes.",,"Chèques Vacances","Accès Internet, Câble/ satellite, Canal +, Climatisation, Télévision, Wifi","Ascenseur, Bar, Jardin, Local matériel fermé, Parking privé, Restaurant","Wifi","Animation, Piscine plein-air",,"67.0","84.0","103","115",,,"9.0","9.0",,,,,"29.0","33.0","44.0","48.0"
"194","Ibis Style Bourbon-Lancy","http://www.bourgogne-du-sud.com/images/bdd/photos/0/1/172867.jpg","Ibis Style Bourbon-Lancy","17, rue du Breuil",,,"71140","Bourbon-Lancy","46,6234596","3,7567384","49800149400018","5510Z","498001494",,"Immatriculation 014110025","03 85 89 37 37",,"03 85 85 55 04","mailto:H8123@accor.com","http://www.all-seasons-hotels.com",,"Hôtels","3 étoiles (hôtel), 3 étoiles (nouveau classement)","30.0","30.0","30",,,"2.0","1.0","Aventures Mômes","Ibis Styles","Hôtel dans un cadre calme et agréable, avec superbe vue sur le lac, comprenant 30 chambres climatisées tout confort ambiance cosy, avec terrasses au rez-de-chaussée et balcons au 1er étage. Espace bureau avec accès wifi, téléphone et télévision, douche, lavabo, sèche-cheveux. Petit déjeuner buffet en salle ou en terrasse. Room service à la demande.","Ouvert toute l'année.","Anglais","Oui",,"Oui","Oui","10.","60.0",,,"Chèques Vacances","Accès Internet, Câble/ satellite, Climatisation, Télévision, Wifi, Canal +","Parking privé",,"Randonnée voie verte",,"79.0","89.0","99","109",,,,,"82.0","82.0",,,,,,
"195","Kyriad Mâcon Nord - Sancé","http://www.bourgogne-du-sud.com/images/bdd/photos/0/H/HOTBOU0710000338.jpg","Kyriad Mâcon Nord - Sancé","3, rue du 19 Mars 1962","ZAC des Platières ",,"71000","Sancé","46,3355645","4,8458508","42194763100048","551A","81B00102",,,"03 85 39 21 33",,"03 85 38 69 51","mailto: kyriad.macon@free.fr","http://www.kyriad.com",,"Hôtels - restaurant","3 étoiles (hôtel), 3 étoiles (nouveau classement)","42.0","42.0","42","6.0",,"2.0","1.0",,"Campanile, Première Classe, Kyriad","Idéalement situé, à 2 minutes de Mâcon centre, proche des principaux axes autoroutiers (A6 et A40). Notre hôtel offre des chambres tout confort (salle de bains privative, télévision écran plat avec canal satellite, plateau d'accueil, wifi gratuit). Notre restaurant saura vous séduire avec ses différentes formules.","Ouvert toute l'année.","Anglais, Espagnol","Oui","Oui","Oui","Oui",,,,,"Chèques Vacances","Accès Internet, Câble/ satellite, Canal +, Télévision, Wifi","Bar, Jardin, Parking privé, Restaurant",,,,,,"0","0",,,,,,,,,,,,
"196","L'Auberge",,"L'Auberge","RN6",,,"71150","Fontaines","46,8560959","4,8020703","38521007500011","551A",,,,"03 85 91 48 00",,"03 85 87 67 68","mailto: info@auberge-fontaines.com","http://www.auberge-fontaines.com",,"Hôtels - restaurant","2 étoiles","9.0","9.0","9",,,,"2.0",,,"Hôtel-restaurant convivial et accueillant, situé au calme, en retrait de la RN6, en bordure du Canal du Centre, dans un espace vert. Toutes les chambres sont équipées de wifi, télévision. Une grande salle de conférence peut vous accueillir pour toutes vos manifestations ou réunions professionnelles.",,"Anglais, Italien","Oui","Oui","Oui","Oui",,"80.0",,"Oui","Chèques Vacances","Télévision, Wifi","Bar, Jardin, Local matériel fermé, Parking privé, Restaurant, Parc","Service en chambre, Location ou prêt de vélos/VTT",,,,,"0","0",,,,,,,,,,,,
"197","Logis Les Charmilles - Restaurant des Grands Crus","http://www.bourgogne-du-sud.com/images/bdd/photos/100083/1/146325.jpg","Logis Les Charmilles - Restaurant des Grands Crus","Rue de la Libération",,,"71100","Lux","46,7559383","4,8465699","41973488400010","551A","98B203",,,"03 85 48 58 08",,"03 85 93 04 49","mailto: hotel.les.charmilles@wanadoo.fr","http://www.charmilles-fr.com","http://reservation-hotel.logishotels.com/reservit/reserhotel.php?partid=568&hotelid=925&lang=fr","Hôtels - restaurant","2 étoiles (hôtel), 2 étoiles (nouveau classement)","33.0","33.0","33","6.0",,"1.0","1.0","Qualité Tourisme, Logis","Logis","A 800 mètres de la sortie de l'autoroute A6, venez vous détendre dans une ambiance chaleureuse. Vaste terrasse avec piscine. Cuisine régionale. Grand parking. Garages.",,"Anglais, Allemand, Danois","Oui","Oui","Oui","Oui","15.","55.0","1 gratuité pour 20 personnes payantes.","Oui","Chèques Vacances","Câble/ satellite, Canal +, Télévision, Wifi","Bar, Garage privé, Jardin, Parking privé, Restaurant",,"Piscine plein-air",,"60.0","64.0","81","91",,,"8.5",,"76.0","90.0","60.0","65.0","36.0","39.0","48.0","51.0"
"198","Maison Lameloise - Hôtel Relais & Châteaux","http://www.bourgogne-du-sud.com/images/bdd/photos/100083/1/146263.jpg","Maison Lameloise - Hôtel Relais & Châteaux","36, place d'Armes",,,"71150","Chagny","46,9105871","4,7523079","32191995300018","551A","B321919953",,,"03 85 87 65 65",,"03 85 87 03 57","mailto: reception@lameloise.fr","http://www.lameloise.fr",,"Hôtels - restaurant","4 étoiles (hôtel), 4 étoiles (nouveau classement)","16.0","16.0","16",,,,"1.0","Vignobles et Découvertes","Relais et Châteaux","Ancienne maison bourguignonne à proximité du vignoble. Belles chambres aux odeurs de bois ciré. Décor raffiné et élégant.","Fermeture annuelle à Noël et au Nouvel An.","Anglais, Allemand","Oui",,,"Oui",,"20.0",,"Oui",,"Accès Internet, Canal +, Climatisation, Mini-bar, Télévision","Ascenseur, Bar, Garage privé, Parking privé, Restaurant","Coffres clients, Voiturier",,,"120.","390.","0","0",,,"25.0","25.0",,,,,"120.0","390.0",,
"199","Manoir de Sornat","http://www.bourgogne-du-sud.com/images/bdd/photos/100083/1/146200.jpg","Manoir de Sornat","Route de Moulins - Allée de Sornat",,,"71140","Bourbon-Lancy","46,629993","3,7420486","40851431300019","5510 A","408514313",,,"03 85 89 17 39","06 80 65 57 85","03 85 89 29 47","mailto: hotel@hotel-manoirdesornat.com","http://www.hotel-manoirdesornat.com",,"Hôtels - restaurant","3 étoiles","13.0","13.0","13",,,,"1.0",,,"Manoir anglo-normand du XIXème siècle, au cœur des rondeurs verdoyantes du Morvan et du Bourbonnais, du Brionnais et du Charolais. Parc.",,"Anglais","Oui",,,,,,,,,"Accès Internet, Mini-bar, Télévision","Bar, Garage privé, Jardin, Parc, Parking privé, Restaurant",,,,,,"0","0",,,,,,,,,,,,
"200","Motel Grill Pizzéria Le Charolais","http://www.bourgogne-du-sud.com/images/bdd/photos/100083/1/146307.jpg","Motel Grill Pizzéria Le Charolais","RN79",,,"71600","Vitry-en-Charollais","46,4548632","4,0598424","30521847100012","5510Z","30521847113",,,"03 85 81 03 35",,"03 85 81 50 31","mailto: candussol@aol.com","http://www.lecharollais.fr",,"Hôtels - restaurant","3 étoiles (hôtel), 3 étoiles (nouveau classement)","20.0","20.0","20",,,"1.0","2.0",,,"Dans un cadre de verdure, 20 chambres avec salle de bain et wc privés, téléphone, mini-bar, télévision.",,"Anglais","Oui",,"Oui","Oui",,"40.0",,"Oui","Chèques Vacances","Accès Internet, Câble/ satellite, Canal +, Mini-bar, Télévision","Jardin, Jeux pour enfants, Parc, Parking privé, Restaurant","Service en chambre","Piscine plein-air",,"53.0","70.0","69","69",,,"7.0","7.0",,,"62.0",,,,,
"201","Motel-Restaurant La Vieille Ferme","http://www.bourgogne-du-sud.com/images/bdd/photos/100083/1/146366.jpg","Motel-Restaurant La Vieille Ferme","RN6",,,"71000","Sancé","46,3403825","4,8314502","41092530900016","551A",,,,"03 85 21 95 15",,"03 85 21 95 16","mailto: contact@hotel-restaurant-lavieilleferme.com","http://www.hotel-restaurant-lavieilleferme.com",,"Hôtels - restaurant","2 étoiles","12.0","20.0","12",,,"1.0","1.0",,,"Dans un cadre de verdure, en bord de Saône, à 4 kilomètres de Mâcon.",,,"Oui",,,,,"100.",,,"Chèques Vacances","Télévision","Parc",,"Piscine plein-air",,"45.0","52.0","0","65",,,,"7.0",,,,"60.0",,,,
"202","Motel-Restaurant Le Virage Fleuri","http://www.bourgogne-du-sud.com/images/bdd/photos/100083/1/146303.jpg","Motel-Restaurant Le Virage Fleuri","D 906",,,"71240","Varennes-le-Grand","46,7131166","4,8722367","72721035300015","551A","72A35",,,"03 85 44 21 07",,,"mailto: hotelviragefleuri@wanadoo.fr","http://viragefleuri.pagesperso-orange.fr/",,"Hôtels - restaurant","2 étoiles","21.0","30.0","21","10.",,"2.0","1.0",,,"Hôtel-restaurant avec piscine et salle de séminaires présentant le charme d'une auberge de campagne. Cuisine traditionnelle.",,"Anglais","Oui",,"Oui","Oui","15.","55.0","Gratuité pour le guide et le chauffeur.","Oui",,"Mini-bar","Bar",,"Piscine plein-air",,"57.0","57.0","69","69",,,"8.0","8.0",,,"60.0","62.0",,,,
"203","Moulin d'Hauterive","http://www.bourgogne-du-sud.com/images/bdd/photos/100083/1/146284.jpg","Moulin d'Hauterive","8, rue du Moulin","Hameau de Chaublanc",,"71350","Saint-Gervais-en-Vallière","46,921902","4,9953113","30439720100021","551A","B304 397 201",,,"03 85 91 55 56","06 71 82 71 22, 06 82 02 75 84","03 85 91 89 65","mailto: info@moulinhauterive.com","http://www.moulinhauterive.com","http://reservation-hotel.logishotels.com/reservit/avail-info.php?userid=0007b028a4f3445a5b557052c1d44b2d6a2e&hotelid=3784&partid=378","Hôtels - restaurant","3 étoiles (nouveau classement), 3 étoiles (hôtel)","20.0","20.0","20","13.","10.","1.0","2.0","Logis, Bourgogne Séminaires, Qualité Tourisme","Châteaux et Hôtels Collection, Logis","Point de départ idéal pour visiter la Bourgogne du Sud et la Côte des vins, ce vieux moulin de la fin du XIIème siècle, restauré avec beaucoup de charme offre 20 chambres tout confort dont 14 avec climatisation. Wifi. SPA avec massage relaxant, baignoire balnéo professionnelle, billard français, billard 8 pool, baby-foot, ping-pong. ",,"Anglais","Oui",,"Oui","Oui","20.","60.0","1 personne pour 20 personnes payantes.","Oui","Chèques Vacances","Climatisation, Mini-bar, Télévision, Wifi","Bar, Jardin, Jeux pour enfants, Parc, Parking privé, Restaurant","Coffres clients, Service en chambre, Voiturier, Location ou prêt de vélos/VTT","Piscine plein-air, Sauna, Hammam, Jacuzzi",,"70.0","139.","127","127","179.","239.","16.0","16.0","55.0","55.0","109.0","109.0","119.0","139.0","55.0","55.0"
"204","Nouvel Hôtel",,"Nouvel Hôtel","1, place du Champ de Foire",,,"71120","Charolles","46,4363658","4,2785786","31973909000010","551A",,,,"03 85 24 03 20","06 85 52 58 69","03 85 24 05 54","mailto: guinet.suzanne@wanadoo.fr",,,"Hôtels - restaurant",,"9.0","9.0","9",,,,"1.0",,,"Décor agréable et relaxant. Cuisine gastronomique. Spécialités régionales : boeuf Charolais, tête de veau aux deux sauces, escargots de Bourgogne, petits fromages du Charolais et desserts du Téméraire.",,,,,,,,,,,,,"Restaurant",,,,,,"0","0",,,,,,,,,,,,
"205","Novotel","http://www.bourgogne-du-sud.com/images/bdd/photos/100083/1/146271.jpg","Novotel","Route du Pont Jeanne Rose",,,"71210","Montchanin","46,7582135","4,4803684","42046204601093","5510Z",,,,"03 85 77 85 00",,"03 85 77 85 29","mailto: HO447@accor.com","http://www.novotel.com/fr/hotel-0447-novotel-le-creusot-montchanin-en-bourgogne/index.shtml",,"Hôtels - restaurant","3 étoiles (hôtel), 3 étoiles (nouveau classement)","87.0","87.0","87","18.",,"2.0","7.0","Tour de Bourgogne à vélo, Qualité Tourisme, Bourgogne Séminaires","Novotel","Novotel Le Creusot - Montchanin en Bourgogne est un hôtel 3 étoiles situé au cœur de la Bourgogne. Il convient aussi bien pour un voyage d'affaires qu'un séjour à deux ou en famille. A 1,5 kilomètres de la gare TGV reliant Lyon à 90 minutes et Paris à 1h30.","Ouvert toute l'année.","Anglais, Italien, Allemand","Oui","Oui","Oui","Oui","15.","45.0","1 gratuité à partir de 20 personnes payantes.","Non","Chèques Vacances","Accès Internet, Câble/ satellite, Canal +, Climatisation, Mini-bar, Télévision","Ascenseur, Bar, Jardin, Jeux pour enfants, Parc, Parking privé, Restaurant","Coffres clients, Service en chambre, Wifi","Piscine plein-air",,"72.0","134.","72","127",,,"8.0","15.0","120.3","138.3","120.3","138.3","31.0","36.0","46.0","51.0"
"206","Novotel Mâcon Nord","http://www.bourgogne-du-sud.com/images/bdd/photos/100083/1/146293.jpg","Novotel Mâcon Nord","420, route de Saint-Martin - A6 - Sortie n°28",,,"71000","Sennecé-les-Mâcon","46,365992","4,8419951","42046203800142","551A","420462038",,,"03 85 20 40 00",,"03 85 20 40 33","mailto: H0438@accor.com","http://www.novotel.com/0438","http://www.novotel.com/fr/hotel-0438-novotel-macon-nord/index.shtml","Hôtels - restaurant","4 étoiles (hôtel), 4 étoiles (nouveau classement)","114.","114.","114",,"3.0","4.0","5.0","Qualité Tourisme, Bourgogne Séminaires","Novotel","En bordure des autoroutes A6 et A40, à 1 heure 35 de Paris par le TGV, l'hôtel vous propose de découvrir les vignobles du Beaujolais et de la Bourgogne du sud et d'apprécier la tranquillité et l'hospitalité de l'établissement. Wifi gratuit.","Ouvert toute l'année.","Anglais, Allemand, Espagnol","Oui","Oui","Oui","Oui","20.",,,"Oui","Chèques Vacances","Accès Internet, Câble/ satellite, Canal +, Climatisation, Mini-bar, Télévision","Bar, Jardin, Jeux pour enfants, Parc, Parking privé, Restaurant","Coffres clients, Service en chambre, Wifi","Piscine plein-air",,"123.","165.","0","0","188.",,"15.0","15.0",,,,,"37.0","47.0","52.0","60.0"
"207","Relais Beaujolais Bresse","http://www.bourgogne-du-sud.com/images/bdd/photos/HOTBOU0710000376.jpg","Relais Beaujolais Bresse","RN6 - La Maison Blanche",,,"71570","Romanèche-Thorins","46,1822968","4,7492656","40154809400010","551A",,,,"03 85 35 51 96",,"03 85 35 22 73","mailto: bertrand.maillard5@wanadoo.fr","http://www.relaisdubeaujolaisbresse.com",,"Hôtels - restaurant",,"9.0","6.0","6",,,,,,,"Établissement familial situé en plein cœur du vignoble.",,"Anglais, Allemand","Oui",,,,,,,,"Chèques Vacances",,"Bar, Garage privé, Restaurant",,,,,,"0","0",,,,,,,,,,,,
